{
"type": "FeatureCollection",
"name": "inspection",
"crs": { "type": "name", "properties": { "name": "urn:ogc:def:crs:OGC:1.3:CRS84" } },
"xy_coordinate_resolution": 1e-07,
"features": [
{ "type": "Feature", "properties": { "inspection_id": "I0001", "type": "row_gap", "vineyard_id": "V04", "row_id": "V04-R005", "gap_m": 9.45, "x": 629238.12, "y": 5220940.49 }, "geometry": { "type": "Point", "coordinates": [ 28.7040628, 47.1292897 ] } },
{ "type": "Feature", "properties": { "inspection_id": "I0002", "type": "row_gap", "vineyard_id": "V04", "row_id": "V04-R015", "gap_m": 5.55, "x": 629226.74, "y": 5220927.8 }, "geometry": { "type": "Point", "coordinates": [ 28.7039092, 47.1291778 ] } },
{ "type": "Feature", "properties": { "inspection_id": "I0003", "type": "row_gap", "vineyard_id": "V04", "row_id": "V04-R016", "gap_m": 13.5, "x": 629290.41, "y": 5220799.35 }, "geometry": { "type": "Point", "coordinates": [ 28.7047114, 47.1280099 ] } },
{ "type": "Feature", "properties": { "inspection_id": "I0004", "type": "row_gap", "vineyard_id": "V04", "row_id": "V04-R017", "gap_m": 6.75, "x": 629229.76, "y": 5220913.87 }, "geometry": { "type": "Point", "coordinates": [ 28.7039449, 47.1290519 ] } },
{ "type": "Feature", "properties": { "inspection_id": "I0005", "type": "row_gap", "vineyard_id": "V04", "row_id": "V04-R017", "gap_m": 6.5, "x": 629224.0, "y": 5220927.78 }, "geometry": { "type": "Point", "coordinates": [ 28.7038731, 47.1291781 ] } },
{ "type": "Feature", "properties": { "inspection_id": "I0006", "type": "row_gap", "vineyard_id": "V04", "row_id": "V04-R020", "gap_m": 9.25, "x": 629234.97, "y": 5220895.01 }, "geometry": { "type": "Point", "coordinates": [ 28.7040083, 47.1288813 ] } },
{ "type": "Feature", "properties": { "inspection_id": "I0007", "type": "row_gap", "vineyard_id": "V04", "row_id": "V04-R020", "gap_m": 7.8, "x": 629225.61, "y": 5220917.16 }, "geometry": { "type": "Point", "coordinates": [ 28.7038912, 47.1290823 ] } },
{ "type": "Feature", "properties": { "inspection_id": "I0008", "type": "row_gap", "vineyard_id": "V04", "row_id": "V04-R020", "gap_m": 5.35, "x": 629220.87, "y": 5220928.46 }, "geometry": { "type": "Point", "coordinates": [ 28.703832, 47.1291849 ] } },
{ "type": "Feature", "properties": { "inspection_id": "I0009", "type": "row_gap", "vineyard_id": "V04", "row_id": "V04-R022", "gap_m": 12.8, "x": 629241.41, "y": 5220873.36 }, "geometry": { "type": "Point", "coordinates": [ 28.7040869, 47.1286852 ] } },
{ "type": "Feature", "properties": { "inspection_id": "I0010", "type": "row_gap", "vineyard_id": "V04", "row_id": "V04-R022", "gap_m": 5.25, "x": 629230.45, "y": 5220899.39 }, "geometry": { "type": "Point", "coordinates": [ 28.7039499, 47.1289216 ] } },
{ "type": "Feature", "properties": { "inspection_id": "I0011", "type": "row_gap", "vineyard_id": "V04", "row_id": "V04-R029", "gap_m": 5.35, "x": 629213.07, "y": 5220920.81 }, "geometry": { "type": "Point", "coordinates": [ 28.703727, 47.1291176 ] } },
{ "type": "Feature", "properties": { "inspection_id": "I0012", "type": "row_gap", "vineyard_id": "V04", "row_id": "V04-R035", "gap_m": 26.05, "x": 629253.1, "y": 5220824.93 }, "geometry": { "type": "Point", "coordinates": [ 28.704227, 47.1282474 ] } },
{ "type": "Feature", "properties": { "inspection_id": "I0013", "type": "row_gap", "vineyard_id": "V04", "row_id": "V04-R037", "gap_m": 18.7, "x": 629251.82, "y": 5220821.44 }, "geometry": { "type": "Point", "coordinates": [ 28.7042092, 47.1282162 ] } },
{ "type": "Feature", "properties": { "inspection_id": "I0014", "type": "row_gap", "vineyard_id": "V04", "row_id": "V04-R041", "gap_m": 14.65, "x": 629250.4, "y": 5220817.99 }, "geometry": { "type": "Point", "coordinates": [ 28.7041894, 47.1281855 ] } },
{ "type": "Feature", "properties": { "inspection_id": "I0015", "type": "row_gap", "vineyard_id": "V04", "row_id": "V04-R046", "gap_m": 7.8, "x": 629229.4, "y": 5220855.86 }, "geometry": { "type": "Point", "coordinates": [ 28.7039236, 47.1285302 ] } },
{ "type": "Feature", "properties": { "inspection_id": "I0016", "type": "row_gap", "vineyard_id": "V04", "row_id": "V04-R053", "gap_m": 5.85, "x": 629192.91, "y": 5220903.95 }, "geometry": { "type": "Point", "coordinates": [ 28.7034565, 47.1289699 ] } },
{ "type": "Feature", "properties": { "inspection_id": "I0017", "type": "row_gap", "vineyard_id": "V04", "row_id": "V04-R054", "gap_m": 7.7, "x": 629256.9, "y": 5220768.26 }, "geometry": { "type": "Point", "coordinates": [ 28.7042609, 47.1277369 ] } },
{ "type": "Feature", "properties": { "inspection_id": "I0018", "type": "row_gap", "vineyard_id": "V04", "row_id": "V04-R057", "gap_m": 7.0, "x": 629257.27, "y": 5220764.25 }, "geometry": { "type": "Point", "coordinates": [ 28.7042646, 47.1277008 ] } },
{ "type": "Feature", "properties": { "inspection_id": "I0019", "type": "row_gap", "vineyard_id": "V04", "row_id": "V04-R058", "gap_m": 6.3, "x": 629205.2, "y": 5220867.52 }, "geometry": { "type": "Point", "coordinates": [ 28.7036079, 47.1286398 ] } },
{ "type": "Feature", "properties": { "inspection_id": "I0020", "type": "row_gap", "vineyard_id": "V04", "row_id": "V04-R058", "gap_m": 5.6, "x": 629198.72, "y": 5220883.02 }, "geometry": { "type": "Point", "coordinates": [ 28.703527, 47.1287805 ] } },
{ "type": "Feature", "properties": { "inspection_id": "I0021", "type": "row_gap", "vineyard_id": "V04", "row_id": "V04-R061", "gap_m": 8.25, "x": 629209.75, "y": 5220850.4 }, "geometry": { "type": "Point", "coordinates": [ 28.7036631, 47.128485 ] } },
{ "type": "Feature", "properties": { "inspection_id": "I0022", "type": "row_gap", "vineyard_id": "V04", "row_id": "V04-R065", "gap_m": 6.05, "x": 629207.41, "y": 5220849.48 }, "geometry": { "type": "Point", "coordinates": [ 28.703632, 47.1284771 ] } },
{ "type": "Feature", "properties": { "inspection_id": "I0023", "type": "row_gap", "vineyard_id": "V04", "row_id": "V04-R068", "gap_m": 8.3, "x": 629209.7, "y": 5220850.3 }, "geometry": { "type": "Point", "coordinates": [ 28.7036624, 47.1284841 ] } },
{ "type": "Feature", "properties": { "inspection_id": "I0024", "type": "row_gap", "vineyard_id": "V04", "row_id": "V04-R073", "gap_m": 5.2, "x": 629243.74, "y": 5220753.48 }, "geometry": { "type": "Point", "coordinates": [ 28.7040831, 47.1276065 ] } },
{ "type": "Feature", "properties": { "inspection_id": "I0025", "type": "row_gap", "vineyard_id": "V04", "row_id": "V04-R076", "gap_m": 5.65, "x": 629193.45, "y": 5220849.48 }, "geometry": { "type": "Point", "coordinates": [ 28.7034479, 47.1284799 ] } },
{ "type": "Feature", "properties": { "inspection_id": "I0026", "type": "row_gap", "vineyard_id": "V04", "row_id": "V04-R081", "gap_m": 5.15, "x": 629221.17, "y": 5220781.96 }, "geometry": { "type": "Point", "coordinates": [ 28.7037939, 47.1278671 ] } },
{ "type": "Feature", "properties": { "inspection_id": "I0027", "type": "row_gap", "vineyard_id": "V04", "row_id": "V04-R081", "gap_m": 5.6, "x": 629193.41, "y": 5220849.47 }, "geometry": { "type": "Point", "coordinates": [ 28.7034474, 47.1284798 ] } },
{ "type": "Feature", "properties": { "inspection_id": "I0028", "type": "row_gap", "vineyard_id": "V04", "row_id": "V04-R085", "gap_m": 9.35, "x": 629232.19, "y": 5220741.58 }, "geometry": { "type": "Point", "coordinates": [ 28.7039275, 47.1275017 ] } },
{ "type": "Feature", "properties": { "inspection_id": "I0029", "type": "row_gap", "vineyard_id": "V04", "row_id": "V04-R085", "gap_m": 5.8, "x": 629219.69, "y": 5220772.06 }, "geometry": { "type": "Point", "coordinates": [ 28.7037715, 47.1277784 ] } },
{ "type": "Feature", "properties": { "inspection_id": "I0030", "type": "row_gap", "vineyard_id": "V04", "row_id": "V04-R085", "gap_m": 6.55, "x": 629192.21, "y": 5220839.48 }, "geometry": { "type": "Point", "coordinates": [ 28.7034287, 47.1283901 ] } },
{ "type": "Feature", "properties": { "inspection_id": "I0031", "type": "row_gap", "vineyard_id": "V04", "row_id": "V04-R087", "gap_m": 6.7, "x": 629192.54, "y": 5220832.1 }, "geometry": { "type": "Point", "coordinates": [ 28.7034309, 47.1283238 ] } },
{ "type": "Feature", "properties": { "inspection_id": "I0032", "type": "row_gap", "vineyard_id": "V04", "row_id": "V04-R095", "gap_m": 6.2, "x": 629156.5, "y": 5220871.52 }, "geometry": { "type": "Point", "coordinates": [ 28.7029674, 47.1286853 ] } },
{ "type": "Feature", "properties": { "inspection_id": "I0033", "type": "row_gap", "vineyard_id": "V04", "row_id": "V04-R103", "gap_m": 5.75, "x": 629196.18, "y": 5220776.12 }, "geometry": { "type": "Point", "coordinates": [ 28.7034629, 47.1278195 ] } },
{ "type": "Feature", "properties": { "inspection_id": "I0034", "type": "row_gap", "vineyard_id": "V04", "row_id": "V04-R105", "gap_m": 16.15, "x": 629145.44, "y": 5220871.44 }, "geometry": { "type": "Point", "coordinates": [ 28.7028215, 47.1286868 ] } },
{ "type": "Feature", "properties": { "inspection_id": "I0035", "type": "row_gap", "vineyard_id": "V04", "row_id": "V04-R106", "gap_m": 5.8, "x": 629193.9, "y": 5220774.86 }, "geometry": { "type": "Point", "coordinates": [ 28.7034324, 47.1278086 ] } },
{ "type": "Feature", "properties": { "inspection_id": "I0036", "type": "row_gap", "vineyard_id": "V04", "row_id": "V04-R109", "gap_m": 6.45, "x": 629182.77, "y": 5220799.04 }, "geometry": { "type": "Point", "coordinates": [ 28.7032927, 47.1280283 ] } },
{ "type": "Feature", "properties": { "inspection_id": "I0037", "type": "row_gap", "vineyard_id": "V04", "row_id": "V04-R109", "gap_m": 9.15, "x": 629174.1, "y": 5220813.74 }, "geometry": { "type": "Point", "coordinates": [ 28.7031826, 47.1281622 ] } },
{ "type": "Feature", "properties": { "inspection_id": "I0038", "type": "row_gap", "vineyard_id": "V04", "row_id": "V04-R109", "gap_m": 6.4, "x": 629143.66, "y": 5220865.4 }, "geometry": { "type": "Point", "coordinates": [ 28.7027964, 47.1286329 ] } },
{ "type": "Feature", "properties": { "inspection_id": "I0039", "type": "row_gap", "vineyard_id": "V04", "row_id": "V04-R122", "gap_m": 6.05, "x": 629160.76, "y": 5220826.17 }, "geometry": { "type": "Point", "coordinates": [ 28.7030104, 47.1282766 ] } },
{ "type": "Feature", "properties": { "inspection_id": "I0040", "type": "row_gap", "vineyard_id": "V04", "row_id": "V04-R137", "gap_m": 6.65, "x": 629204.18, "y": 5220725.72 }, "geometry": { "type": "Point", "coordinates": [ 28.7035538, 47.1273646 ] } },
{ "type": "Feature", "properties": { "inspection_id": "I0041", "type": "row_gap", "vineyard_id": "V04", "row_id": "V04-R145", "gap_m": 5.9, "x": 629185.45, "y": 5220758.52 }, "geometry": { "type": "Point", "coordinates": [ 28.7033163, 47.1276633 ] } },
{ "type": "Feature", "properties": { "inspection_id": "I0042", "type": "row_gap", "vineyard_id": "V04", "row_id": "V04-R155", "gap_m": 6.85, "x": 629200.91, "y": 5220720.91 }, "geometry": { "type": "Point", "coordinates": [ 28.7035094, 47.127322 ] } },
{ "type": "Feature", "properties": { "inspection_id": "I0043", "type": "row_gap", "vineyard_id": "V04", "row_id": "V04-R199", "gap_m": 5.3, "x": 629186.07, "y": 5220717.02 }, "geometry": { "type": "Point", "coordinates": [ 28.7033127, 47.1272899 ] } },
{ "type": "Feature", "properties": { "inspection_id": "I0044", "type": "row_gap", "vineyard_id": "V04", "row_id": "V04-R219", "gap_m": 5.5, "x": 629165.53, "y": 5220747.01 }, "geometry": { "type": "Point", "coordinates": [ 28.7030505, 47.1275637 ] } },
{ "type": "Feature", "properties": { "inspection_id": "I0045", "type": "row_gap", "vineyard_id": "V04", "row_id": "V04-R228", "gap_m": 6.65, "x": 629175.01, "y": 5220723.47 }, "geometry": { "type": "Point", "coordinates": [ 28.7031687, 47.1273501 ] } },
{ "type": "Feature", "properties": { "inspection_id": "I0046", "type": "row_gap", "vineyard_id": "V04", "row_id": "V04-R235", "gap_m": 7.1, "x": 629161.61, "y": 5220743.09 }, "geometry": { "type": "Point", "coordinates": [ 28.7029978, 47.1275291 ] } },
{ "type": "Feature", "properties": { "inspection_id": "I0047", "type": "row_gap", "vineyard_id": "V04", "row_id": "V04-R244", "gap_m": 6.4, "x": 629107.2, "y": 5220840.66 }, "geometry": { "type": "Point", "coordinates": [ 28.7023087, 47.1284174 ] } },
{ "type": "Feature", "properties": { "inspection_id": "I0048", "type": "row_gap", "vineyard_id": "V04", "row_id": "V04-R245", "gap_m": 5.55, "x": 629175.23, "y": 5220709.34 }, "geometry": { "type": "Point", "coordinates": [ 28.7031676, 47.127223 ] } },
{ "type": "Feature", "properties": { "inspection_id": "I0049", "type": "row_gap", "vineyard_id": "V04", "row_id": "V04-R249", "gap_m": 8.25, "x": 629169.53, "y": 5220714.29 }, "geometry": { "type": "Point", "coordinates": [ 28.7030939, 47.1272685 ] } },
{ "type": "Feature", "properties": { "inspection_id": "I0050", "type": "row_gap", "vineyard_id": "V04", "row_id": "V04-R249", "gap_m": 7.65, "x": 629161.1, "y": 5220730.1 }, "geometry": { "type": "Point", "coordinates": [ 28.7029873, 47.1274124 ] } },
{ "type": "Feature", "properties": { "inspection_id": "I0051", "type": "row_gap", "vineyard_id": "V04", "row_id": "V04-R274", "gap_m": 12.1, "x": 629127.84, "y": 5220771.14 }, "geometry": { "type": "Point", "coordinates": [ 28.7025608, 47.1277881 ] } },
{ "type": "Feature", "properties": { "inspection_id": "I0052", "type": "row_gap", "vineyard_id": "V04", "row_id": "V04-R280", "gap_m": 5.7, "x": 629150.18, "y": 5220714.86 }, "geometry": { "type": "Point", "coordinates": [ 28.7028391, 47.1272775 ] } },
{ "type": "Feature", "properties": { "inspection_id": "I0053", "type": "row_gap", "vineyard_id": "V04", "row_id": "V04-R316", "gap_m": 16.45, "x": 629039.82, "y": 5220697.0 }, "geometry": { "type": "Point", "coordinates": [ 28.7013794, 47.1271385 ] } },
{ "type": "Feature", "properties": { "inspection_id": "I0054", "type": "row_gap", "vineyard_id": "V04", "row_id": "V04-R316", "gap_m": 6.45, "x": 629021.26, "y": 5220725.07 }, "geometry": { "type": "Point", "coordinates": [ 28.7011429, 47.1273946 ] } },
{ "type": "Feature", "properties": { "inspection_id": "I0055", "type": "row_gap", "vineyard_id": "V04", "row_id": "V04-R318", "gap_m": 9.7, "x": 629060.01, "y": 5220654.95 }, "geometry": { "type": "Point", "coordinates": [ 28.7016335, 47.1267563 ] } },
{ "type": "Feature", "properties": { "inspection_id": "I0056", "type": "row_gap", "vineyard_id": "V04", "row_id": "V04-R320", "gap_m": 5.2, "x": 629056.18, "y": 5220655.74 }, "geometry": { "type": "Point", "coordinates": [ 28.7015833, 47.1267641 ] } },
{ "type": "Feature", "properties": { "inspection_id": "I0057", "type": "row_gap", "vineyard_id": "V04", "row_id": "V04-R321", "gap_m": 7.45, "x": 629010.35, "y": 5220720.16 }, "geometry": { "type": "Point", "coordinates": [ 28.7009977, 47.1273526 ] } },
{ "type": "Feature", "properties": { "inspection_id": "I0058", "type": "row_gap", "vineyard_id": "V06", "row_id": "V06-R002", "gap_m": 11.25, "x": 629354.95, "y": 5220620.81 }, "geometry": { "type": "Point", "coordinates": [ 28.7055106, 47.1263914 ] } },
{ "type": "Feature", "properties": { "inspection_id": "I0059", "type": "row_gap", "vineyard_id": "V06", "row_id": "V06-R003", "gap_m": 7.35, "x": 629363.03, "y": 5220636.85 }, "geometry": { "type": "Point", "coordinates": [ 28.7056218, 47.1265341 ] } },
{ "type": "Feature", "properties": { "inspection_id": "I0060", "type": "row_gap", "vineyard_id": "V06", "row_id": "V06-R010", "gap_m": 6.25, "x": 629385.63, "y": 5220652.4 }, "geometry": { "type": "Point", "coordinates": [ 28.705924, 47.1266695 ] } },
{ "type": "Feature", "properties": { "inspection_id": "I0061", "type": "row_gap", "vineyard_id": "V06", "row_id": "V06-R012", "gap_m": 5.1, "x": 629366.29, "y": 5220585.06 }, "geometry": { "type": "Point", "coordinates": [ 28.7056497, 47.1260676 ] } },
{ "type": "Feature", "properties": { "inspection_id": "I0062", "type": "row_gap", "vineyard_id": "V07", "row_id": "V07-R003", "gap_m": 5.25, "x": 629205.29, "y": 5220615.17 }, "geometry": { "type": "Point", "coordinates": [ 28.7035367, 47.12637 ] } },
{ "type": "Feature", "properties": { "inspection_id": "I0063", "type": "row_gap", "vineyard_id": "V07", "row_id": "V07-R004", "gap_m": 5.3, "x": 629204.85, "y": 5220613.17 }, "geometry": { "type": "Point", "coordinates": [ 28.7035303, 47.1263521 ] } },
{ "type": "Feature", "properties": { "inspection_id": "I0064", "type": "row_gap", "vineyard_id": "V07", "row_id": "V07-R018", "gap_m": 5.2, "x": 629212.02, "y": 5220583.39 }, "geometry": { "type": "Point", "coordinates": [ 28.7036162, 47.1260828 ] } },
{ "type": "Feature", "properties": { "inspection_id": "I0065", "type": "row_gap", "vineyard_id": "V07", "row_id": "V07-R037", "gap_m": 7.75, "x": 629203.48, "y": 5220546.53 }, "geometry": { "type": "Point", "coordinates": [ 28.7034931, 47.125753 ] } },
{ "type": "Feature", "properties": { "inspection_id": "I0066", "type": "row_gap", "vineyard_id": "V07", "row_id": "V07-R038", "gap_m": 6.1, "x": 629200.44, "y": 5220546.03 }, "geometry": { "type": "Point", "coordinates": [ 28.7034529, 47.1257491 ] } },
{ "type": "Feature", "properties": { "inspection_id": "I0067", "type": "row_gap", "vineyard_id": "V07", "row_id": "V07-R040", "gap_m": 7.9, "x": 629181.49, "y": 5220552.03 }, "geometry": { "type": "Point", "coordinates": [ 28.7032049, 47.1258068 ] } },
{ "type": "Feature", "properties": { "inspection_id": "I0068", "type": "row_gap", "vineyard_id": "V07", "row_id": "V07-R044", "gap_m": 12.0, "x": 629168.83, "y": 5220551.6 }, "geometry": { "type": "Point", "coordinates": [ 28.7030379, 47.1258054 ] } },
{ "type": "Feature", "properties": { "inspection_id": "I0069", "type": "row_gap", "vineyard_id": "V07", "row_id": "V07-R046", "gap_m": 11.3, "x": 629179.11, "y": 5220542.14 }, "geometry": { "type": "Point", "coordinates": [ 28.7031707, 47.1257183 ] } },
{ "type": "Feature", "properties": { "inspection_id": "I0070", "type": "row_gap", "vineyard_id": "V07", "row_id": "V07-R046", "gap_m": 5.25, "x": 629169.49, "y": 5220547.15 }, "geometry": { "type": "Point", "coordinates": [ 28.7030453, 47.1257653 ] } },
{ "type": "Feature", "properties": { "inspection_id": "I0071", "type": "row_gap", "vineyard_id": "V07", "row_id": "V07-R047", "gap_m": 7.75, "x": 629180.43, "y": 5220541.73 }, "geometry": { "type": "Point", "coordinates": [ 28.7031879, 47.1257144 ] } },
{ "type": "Feature", "properties": { "inspection_id": "I0072", "type": "row_gap", "vineyard_id": "V07", "row_id": "V07-R050", "gap_m": 5.0, "x": 629222.9, "y": 5220509.82 }, "geometry": { "type": "Point", "coordinates": [ 28.7037385, 47.125419 ] } },
{ "type": "Feature", "properties": { "inspection_id": "I0073", "type": "row_gap", "vineyard_id": "V07", "row_id": "V07-R050", "gap_m": 7.1, "x": 629191.25, "y": 5220527.19 }, "geometry": { "type": "Point", "coordinates": [ 28.7033264, 47.1255814 ] } },
{ "type": "Feature", "properties": { "inspection_id": "I0074", "type": "row_gap", "vineyard_id": "V07", "row_id": "V07-R050", "gap_m": 6.9, "x": 629164.23, "y": 5220541.75 }, "geometry": { "type": "Point", "coordinates": [ 28.7029745, 47.1257177 ] } },
{ "type": "Feature", "properties": { "inspection_id": "I0075", "type": "row_gap", "vineyard_id": "V07", "row_id": "V07-R052", "gap_m": 5.2, "x": 629216.18, "y": 5220510.95 }, "geometry": { "type": "Point", "coordinates": [ 28.7036502, 47.1254305 ] } },
{ "type": "Feature", "properties": { "inspection_id": "I0076", "type": "row_gap", "vineyard_id": "V07", "row_id": "V07-R052", "gap_m": 5.8, "x": 629172.99, "y": 5220534.51 }, "geometry": { "type": "Point", "coordinates": [ 28.7030878, 47.1256509 ] } },
{ "type": "Feature", "properties": { "inspection_id": "I0077", "type": "row_gap", "vineyard_id": "V07", "row_id": "V07-R057", "gap_m": 5.55, "x": 629224.1, "y": 5220495.76 }, "geometry": { "type": "Point", "coordinates": [ 28.7037503, 47.1252923 ] } },
{ "type": "Feature", "properties": { "inspection_id": "I0078", "type": "row_gap", "vineyard_id": "V07", "row_id": "V07-R060", "gap_m": 5.75, "x": 629219.37, "y": 5220490.92 }, "geometry": { "type": "Point", "coordinates": [ 28.7036865, 47.1252497 ] } },
{ "type": "Feature", "properties": { "inspection_id": "I0079", "type": "row_gap", "vineyard_id": "V07", "row_id": "V07-R060", "gap_m": 8.95, "x": 629212.64, "y": 5220494.56 }, "geometry": { "type": "Point", "coordinates": [ 28.7035989, 47.1252837 ] } },
{ "type": "Feature", "properties": { "inspection_id": "I0080", "type": "row_gap", "vineyard_id": "V07", "row_id": "V07-R060", "gap_m": 10.7, "x": 629193.25, "y": 5220505.06 }, "geometry": { "type": "Point", "coordinates": [ 28.7033464, 47.125382 ] } },
{ "type": "Feature", "properties": { "inspection_id": "I0081", "type": "row_gap", "vineyard_id": "V07", "row_id": "V07-R061", "gap_m": 11.0, "x": 629192.21, "y": 5220503.13 }, "geometry": { "type": "Point", "coordinates": [ 28.7033321, 47.1253649 ] } },
{ "type": "Feature", "properties": { "inspection_id": "I0082", "type": "row_gap", "vineyard_id": "V08", "row_id": "V08-R003", "gap_m": 7.15, "x": 629462.03, "y": 5220551.74 }, "geometry": { "type": "Point", "coordinates": [ 28.7069019, 47.1257491 ] } },
{ "type": "Feature", "properties": { "inspection_id": "I0083", "type": "row_gap", "vineyard_id": "V08", "row_id": "V08-R010", "gap_m": 7.85, "x": 629475.81, "y": 5220543.26 }, "geometry": { "type": "Point", "coordinates": [ 28.7070811, 47.1256701 ] } },
{ "type": "Feature", "properties": { "inspection_id": "I0084", "type": "row_gap", "vineyard_id": "V08", "row_id": "V08-R014", "gap_m": 18.35, "x": 629484.59, "y": 5220537.64 }, "geometry": { "type": "Point", "coordinates": [ 28.7071952, 47.1256178 ] } },
{ "type": "Feature", "properties": { "inspection_id": "I0085", "type": "row_gap", "vineyard_id": "V08", "row_id": "V08-R014", "gap_m": 8.0, "x": 629468.07, "y": 5220534.43 }, "geometry": { "type": "Point", "coordinates": [ 28.7069766, 47.1255922 ] } },
{ "type": "Feature", "properties": { "inspection_id": "I0086", "type": "row_gap", "vineyard_id": "V08", "row_id": "V08-R016", "gap_m": 18.9, "x": 629486.95, "y": 5220535.63 }, "geometry": { "type": "Point", "coordinates": [ 28.7072257, 47.1255993 ] } },
{ "type": "Feature", "properties": { "inspection_id": "I0087", "type": "row_gap", "vineyard_id": "V08", "row_id": "V08-R016", "gap_m": 11.55, "x": 629471.96, "y": 5220531.88 }, "geometry": { "type": "Point", "coordinates": [ 28.7070271, 47.1255686 ] } },
{ "type": "Feature", "properties": { "inspection_id": "I0088", "type": "row_gap", "vineyard_id": "V08", "row_id": "V08-R018", "gap_m": 17.35, "x": 629483.91, "y": 5220531.3 }, "geometry": { "type": "Point", "coordinates": [ 28.7071844, 47.125561 ] } },
{ "type": "Feature", "properties": { "inspection_id": "I0089", "type": "row_gap", "vineyard_id": "V08", "row_id": "V08-R018", "gap_m": 7.55, "x": 629471.47, "y": 5220529.11 }, "geometry": { "type": "Point", "coordinates": [ 28.7070199, 47.1255437 ] } },
{ "type": "Feature", "properties": { "inspection_id": "I0090", "type": "row_gap", "vineyard_id": "V08", "row_id": "V08-R020", "gap_m": 13.4, "x": 629481.32, "y": 5220527.65 }, "geometry": { "type": "Point", "coordinates": [ 28.7071493, 47.1255287 ] } },
{ "type": "Feature", "properties": { "inspection_id": "I0091", "type": "row_gap", "vineyard_id": "V08", "row_id": "V08-R020", "gap_m": 6.35, "x": 629471.31, "y": 5220525.03 }, "geometry": { "type": "Point", "coordinates": [ 28.7070165, 47.1255071 ] } },
{ "type": "Feature", "properties": { "inspection_id": "I0092", "type": "row_gap", "vineyard_id": "V08", "row_id": "V08-R021", "gap_m": 5.7, "x": 629485.72, "y": 5220526.77 }, "geometry": { "type": "Point", "coordinates": [ 28.7072069, 47.1255199 ] } },
{ "type": "Feature", "properties": { "inspection_id": "I0093", "type": "row_gap", "vineyard_id": "V08", "row_id": "V08-R021", "gap_m": 9.25, "x": 629473.88, "y": 5220523.62 }, "geometry": { "type": "Point", "coordinates": [ 28.70705, 47.1254939 ] } },
{ "type": "Feature", "properties": { "inspection_id": "I0094", "type": "row_gap", "vineyard_id": "V09", "row_id": "V09-R003", "gap_m": 10.2, "x": 629497.01, "y": 5220522.45 }, "geometry": { "type": "Point", "coordinates": [ 28.7073545, 47.1254788 ] } },
{ "type": "Feature", "properties": { "inspection_id": "I0095", "type": "row_gap", "vineyard_id": "V09", "row_id": "V09-R010", "gap_m": 6.55, "x": 629490.2, "y": 5220508.29 }, "geometry": { "type": "Point", "coordinates": [ 28.7072607, 47.1253528 ] } },
{ "type": "Feature", "properties": { "inspection_id": "I0096", "type": "row_gap", "vineyard_id": "V10", "row_id": "V10-R012", "gap_m": 36.05, "x": 629722.95, "y": 5220191.76 }, "geometry": { "type": "Point", "coordinates": [ 28.7102367, 47.12246 ] } },
{ "type": "Feature", "properties": { "inspection_id": "I0097", "type": "row_gap", "vineyard_id": "V10", "row_id": "V10-R012", "gap_m": 27.3, "x": 629702.09, "y": 5220219.3 }, "geometry": { "type": "Point", "coordinates": [ 28.7099697, 47.1227118 ] } },
{ "type": "Feature", "properties": { "inspection_id": "I0098", "type": "row_gap", "vineyard_id": "V10", "row_id": "V10-R019", "gap_m": 5.3, "x": 629636.55, "y": 5220291.57 }, "geometry": { "type": "Point", "coordinates": [ 28.7091269, 47.1233747 ] } },
{ "type": "Feature", "properties": { "inspection_id": "I0099", "type": "row_gap", "vineyard_id": "V10", "row_id": "V10-R037", "gap_m": 5.7, "x": 629744.09, "y": 5220111.2 }, "geometry": { "type": "Point", "coordinates": [ 28.710492, 47.1217312 ] } },
{ "type": "Feature", "properties": { "inspection_id": "I0100", "type": "row_gap", "vineyard_id": "V10", "row_id": "V10-R042", "gap_m": 9.7, "x": 629767.62, "y": 5220064.07 }, "geometry": { "type": "Point", "coordinates": [ 28.7107885, 47.1213027 ] } },
{ "type": "Feature", "properties": { "inspection_id": "I0101", "type": "row_gap", "vineyard_id": "V10", "row_id": "V10-R042", "gap_m": 6.15, "x": 629735.03, "y": 5220112.03 }, "geometry": { "type": "Point", "coordinates": [ 28.7103729, 47.1217405 ] } },
{ "type": "Feature", "properties": { "inspection_id": "I0102", "type": "row_gap", "vineyard_id": "V10", "row_id": "V10-R044", "gap_m": 5.05, "x": 629602.94, "y": 5220282.37 }, "geometry": { "type": "Point", "coordinates": [ 28.7086813, 47.1232986 ] } },
{ "type": "Feature", "properties": { "inspection_id": "I0103", "type": "row_gap", "vineyard_id": "V10", "row_id": "V10-R049", "gap_m": 5.05, "x": 629727.92, "y": 5220110.08 }, "geometry": { "type": "Point", "coordinates": [ 28.7102787, 47.1217243 ] } },
{ "type": "Feature", "properties": { "inspection_id": "I0104", "type": "row_gap", "vineyard_id": "V10", "row_id": "V10-R049", "gap_m": 6.0, "x": 629677.56, "y": 5220175.86 }, "geometry": { "type": "Point", "coordinates": [ 28.709634, 47.1223259 ] } },
{ "type": "Feature", "properties": { "inspection_id": "I0105", "type": "row_gap", "vineyard_id": "V10", "row_id": "V10-R085", "gap_m": 17.3, "x": 629746.24, "y": 5220027.81 }, "geometry": { "type": "Point", "coordinates": [ 28.7104963, 47.1209807 ] } },
{ "type": "Feature", "properties": { "inspection_id": "I0106", "type": "row_gap", "vineyard_id": "V10", "row_id": "V10-R153", "gap_m": 5.1, "x": 629543.21, "y": 5220187.87 }, "geometry": { "type": "Point", "coordinates": [ 28.707867, 47.1224603 ] } },
{ "type": "Feature", "properties": { "inspection_id": "I0107", "type": "row_gap", "vineyard_id": "V10", "row_id": "V10-R153", "gap_m": 5.75, "x": 629516.96, "y": 5220222.43 }, "geometry": { "type": "Point", "coordinates": [ 28.7075311, 47.1227764 ] } },
{ "type": "Feature", "properties": { "inspection_id": "I0108", "type": "row_gap", "vineyard_id": "V10", "row_id": "V10-R161", "gap_m": 7.3, "x": 629561.1, "y": 5220149.65 }, "geometry": { "type": "Point", "coordinates": [ 28.7080918, 47.122113 ] } },
{ "type": "Feature", "properties": { "inspection_id": "I0109", "type": "row_gap", "vineyard_id": "V10", "row_id": "V10-R162", "gap_m": 5.05, "x": 629575.55, "y": 5220122.88 }, "geometry": { "type": "Point", "coordinates": [ 28.7082744, 47.1218694 ] } },
{ "type": "Feature", "properties": { "inspection_id": "I0110", "type": "row_gap", "vineyard_id": "V11", "row_id": "V11-R006", "gap_m": 6.0, "x": 629872.31, "y": 5219983.21 }, "geometry": { "type": "Point", "coordinates": [ 28.7121447, 47.1205547 ] } },
{ "type": "Feature", "properties": { "inspection_id": "I0111", "type": "row_gap", "vineyard_id": "V12", "row_id": "V12-R002", "gap_m": 5.0, "x": 629780.12, "y": 5219990.51 }, "geometry": { "type": "Point", "coordinates": [ 28.710932, 47.1206385 ] } },
{ "type": "Feature", "properties": { "inspection_id": "I0112", "type": "row_gap", "vineyard_id": "V12", "row_id": "V12-R004", "gap_m": 5.85, "x": 629805.07, "y": 5219954.83 }, "geometry": { "type": "Point", "coordinates": [ 28.7112505, 47.1203127 ] } },
{ "type": "Feature", "properties": { "inspection_id": "I0113", "type": "row_gap", "vineyard_id": "V12", "row_id": "V12-R005", "gap_m": 5.8, "x": 629803.95, "y": 5219954.16 }, "geometry": { "type": "Point", "coordinates": [ 28.7112355, 47.1203069 ] } },
{ "type": "Feature", "properties": { "inspection_id": "I0114", "type": "row_gap", "vineyard_id": "V14", "row_id": "V14-R005", "gap_m": 7.35, "x": 629853.58, "y": 5219992.01 }, "geometry": { "type": "Point", "coordinates": [ 28.7119005, 47.1206376 ] } },
{ "type": "Feature", "properties": { "inspection_id": "I0115", "type": "row_gap", "vineyard_id": "V14", "row_id": "V14-R005", "gap_m": 10.3, "x": 629848.06, "y": 5219999.18 }, "geometry": { "type": "Point", "coordinates": [ 28.7118298, 47.1207032 ] } },
{ "type": "Feature", "properties": { "inspection_id": "I0116", "type": "row_gap", "vineyard_id": "V14", "row_id": "V14-R009", "gap_m": 7.9, "x": 629976.2, "y": 5219824.85 }, "geometry": { "type": "Point", "coordinates": [ 28.713468, 47.1191099 ] } },
{ "type": "Feature", "properties": { "inspection_id": "I0117", "type": "row_gap", "vineyard_id": "V14", "row_id": "V14-R014", "gap_m": 6.65, "x": 629948.54, "y": 5219850.95 }, "geometry": { "type": "Point", "coordinates": [ 28.713111, 47.1193501 ] } },
{ "type": "Feature", "properties": { "inspection_id": "I0118", "type": "row_gap", "vineyard_id": "V14", "row_id": "V14-R014", "gap_m": 5.35, "x": 629945.45, "y": 5219856.28 }, "geometry": { "type": "Point", "coordinates": [ 28.7130719, 47.1193987 ] } },
{ "type": "Feature", "properties": { "inspection_id": "I0119", "type": "row_gap", "vineyard_id": "V14", "row_id": "V14-R020", "gap_m": 5.65, "x": 629945.03, "y": 5219851.0 }, "geometry": { "type": "Point", "coordinates": [ 28.7130647, 47.1193512 ] } },
{ "type": "Feature", "properties": { "inspection_id": "I0120", "type": "row_gap", "vineyard_id": "V14", "row_id": "V14-R023", "gap_m": 7.65, "x": 629996.27, "y": 5219780.81 }, "geometry": { "type": "Point", "coordinates": [ 28.7137197, 47.1187098 ] } },
{ "type": "Feature", "properties": { "inspection_id": "I0121", "type": "row_gap", "vineyard_id": "V14", "row_id": "V14-R025", "gap_m": 7.15, "x": 629995.02, "y": 5219779.95 }, "geometry": { "type": "Point", "coordinates": [ 28.7137029, 47.1187024 ] } },
{ "type": "Feature", "properties": { "inspection_id": "I0122", "type": "row_gap", "vineyard_id": "V14", "row_id": "V14-R026", "gap_m": 16.4, "x": 629881.63, "y": 5219929.28 }, "geometry": { "type": "Point", "coordinates": [ 28.712252, 47.1200678 ] } },
{ "type": "Feature", "properties": { "inspection_id": "I0123", "type": "row_gap", "vineyard_id": "V14", "row_id": "V14-R026", "gap_m": 5.4, "x": 629872.71, "y": 5219939.01 }, "geometry": { "type": "Point", "coordinates": [ 28.7121372, 47.1201571 ] } },
{ "type": "Feature", "properties": { "inspection_id": "I0124", "type": "row_gap", "vineyard_id": "V14", "row_id": "V14-R028", "gap_m": 5.15, "x": 629925.23, "y": 5219870.11 }, "geometry": { "type": "Point", "coordinates": [ 28.7128094, 47.119527 ] } },
{ "type": "Feature", "properties": { "inspection_id": "I0125", "type": "row_gap", "vineyard_id": "V14", "row_id": "V14-R028", "gap_m": 6.9, "x": 629920.95, "y": 5219875.52 }, "geometry": { "type": "Point", "coordinates": [ 28.7127545, 47.1195765 ] } },
{ "type": "Feature", "properties": { "inspection_id": "I0126", "type": "row_gap", "vineyard_id": "V14", "row_id": "V14-R028", "gap_m": 15.2, "x": 629912.85, "y": 5219885.82 }, "geometry": { "type": "Point", "coordinates": [ 28.7126509, 47.1196707 ] } },
{ "type": "Feature", "properties": { "inspection_id": "I0127", "type": "row_gap", "vineyard_id": "V14", "row_id": "V14-R031", "gap_m": 8.6, "x": 629916.49, "y": 5219876.54 }, "geometry": { "type": "Point", "coordinates": [ 28.7126961, 47.1195866 ] } },
{ "type": "Feature", "properties": { "inspection_id": "I0128", "type": "row_gap", "vineyard_id": "V14", "row_id": "V14-R035", "gap_m": 5.6, "x": 629913.57, "y": 5219875.64 }, "geometry": { "type": "Point", "coordinates": [ 28.7126573, 47.1195791 ] } },
{ "type": "Feature", "properties": { "inspection_id": "I0129", "type": "row_gap", "vineyard_id": "V14", "row_id": "V14-R035", "gap_m": 6.45, "x": 629909.7, "y": 5219880.55 }, "geometry": { "type": "Point", "coordinates": [ 28.7126077, 47.119624 ] } },
{ "type": "Feature", "properties": { "inspection_id": "I0130", "type": "row_gap", "vineyard_id": "V14", "row_id": "V14-R035", "gap_m": 5.6, "x": 629905.6, "y": 5219885.72 }, "geometry": { "type": "Point", "coordinates": [ 28.7125552, 47.1196713 ] } },
{ "type": "Feature", "properties": { "inspection_id": "I0131", "type": "row_gap", "vineyard_id": "V14", "row_id": "V14-R035", "gap_m": 5.25, "x": 629896.46, "y": 5219897.3 }, "geometry": { "type": "Point", "coordinates": [ 28.7124381, 47.1197773 ] } },
{ "type": "Feature", "properties": { "inspection_id": "I0132", "type": "row_gap", "vineyard_id": "V14", "row_id": "V14-R037", "gap_m": 7.3, "x": 629855.17, "y": 5219948.03 }, "geometry": { "type": "Point", "coordinates": [ 28.7119087, 47.1202417 ] } },
{ "type": "Feature", "properties": { "inspection_id": "I0133", "type": "row_gap", "vineyard_id": "V14", "row_id": "V14-R039", "gap_m": 5.05, "x": 629905.48, "y": 5219881.12 }, "geometry": { "type": "Point", "coordinates": [ 28.7125524, 47.11963 ] } },
{ "type": "Feature", "properties": { "inspection_id": "I0134", "type": "row_gap", "vineyard_id": "V14", "row_id": "V14-R050", "gap_m": 6.75, "x": 629872.38, "y": 5219908.47 }, "geometry": { "type": "Point", "coordinates": [ 28.7121241, 47.1198825 ] } },
{ "type": "Feature", "properties": { "inspection_id": "I0135", "type": "row_gap", "vineyard_id": "V14", "row_id": "V14-R051", "gap_m": 10.25, "x": 629918.43, "y": 5219847.06 }, "geometry": { "type": "Point", "coordinates": [ 28.7127131, 47.119321 ] } },
{ "type": "Feature", "properties": { "inspection_id": "I0136", "type": "row_gap", "vineyard_id": "V14", "row_id": "V14-R051", "gap_m": 7.3, "x": 629913.23, "y": 5219854.67 }, "geometry": { "type": "Point", "coordinates": [ 28.7126468, 47.1193905 ] } },
{ "type": "Feature", "properties": { "inspection_id": "I0137", "type": "row_gap", "vineyard_id": "V14", "row_id": "V14-R051", "gap_m": 6.9, "x": 629893.76, "y": 5219881.15 }, "geometry": { "type": "Point", "coordinates": [ 28.7123979, 47.1196325 ] } },
{ "type": "Feature", "properties": { "inspection_id": "I0138", "type": "row_gap", "vineyard_id": "V14", "row_id": "V14-R051", "gap_m": 5.25, "x": 629888.02, "y": 5219888.53 }, "geometry": { "type": "Point", "coordinates": [ 28.7123245, 47.1197001 ] } },
{ "type": "Feature", "properties": { "inspection_id": "I0139", "type": "row_gap", "vineyard_id": "V14", "row_id": "V14-R053", "gap_m": 6.3, "x": 629838.9, "y": 5219948.03 }, "geometry": { "type": "Point", "coordinates": [ 28.7116944, 47.1202449 ] } },
{ "type": "Feature", "properties": { "inspection_id": "I0140", "type": "row_gap", "vineyard_id": "V14", "row_id": "V14-R056", "gap_m": 6.2, "x": 629986.54, "y": 5219754.28 }, "geometry": { "type": "Point", "coordinates": [ 28.7135838, 47.1184731 ] } },
{ "type": "Feature", "properties": { "inspection_id": "I0141", "type": "row_gap", "vineyard_id": "V14", "row_id": "V14-R056", "gap_m": 6.35, "x": 629981.23, "y": 5219761.05 }, "geometry": { "type": "Point", "coordinates": [ 28.7135158, 47.118535 ] } },
{ "type": "Feature", "properties": { "inspection_id": "I0142", "type": "row_gap", "vineyard_id": "V14", "row_id": "V14-R058", "gap_m": 5.0, "x": 629912.32, "y": 5219847.99 }, "geometry": { "type": "Point", "coordinates": [ 28.7126328, 47.1193306 ] } },
{ "type": "Feature", "properties": { "inspection_id": "I0143", "type": "row_gap", "vineyard_id": "V14", "row_id": "V14-R058", "gap_m": 10.1, "x": 629905.19, "y": 5219857.08 }, "geometry": { "type": "Point", "coordinates": [ 28.7125416, 47.1194138 ] } },
{ "type": "Feature", "properties": { "inspection_id": "I0144", "type": "row_gap", "vineyard_id": "V14", "row_id": "V14-R058", "gap_m": 7.0, "x": 629897.82, "y": 5219866.49 }, "geometry": { "type": "Point", "coordinates": [ 28.7124472, 47.1194998 ] } },
{ "type": "Feature", "properties": { "inspection_id": "I0145", "type": "row_gap", "vineyard_id": "V14", "row_id": "V14-R061", "gap_m": 5.5, "x": 629983.37, "y": 5219754.15 }, "geometry": { "type": "Point", "coordinates": [ 28.713542, 47.1184725 ] } },
{ "type": "Feature", "properties": { "inspection_id": "I0146", "type": "row_gap", "vineyard_id": "V14", "row_id": "V14-R073", "gap_m": 6.3, "x": 629915.2, "y": 5219826.49 }, "geometry": { "type": "Point", "coordinates": [ 28.7126647, 47.1191367 ] } },
{ "type": "Feature", "properties": { "inspection_id": "I0147", "type": "row_gap", "vineyard_id": "V15", "row_id": "V15-R001", "gap_m": 26.55, "x": 629827.55, "y": 5219729.72 }, "geometry": { "type": "Point", "coordinates": [ 28.7114817, 47.1182836 ] } },
{ "type": "Feature", "properties": { "inspection_id": "I0148", "type": "row_gap", "vineyard_id": "V15", "row_id": "V15-R004", "gap_m": 8.35, "x": 629821.24, "y": 5219732.39 }, "geometry": { "type": "Point", "coordinates": [ 28.7113994, 47.1183087 ] } },
{ "type": "Feature", "properties": { "inspection_id": "I0149", "type": "row_gap", "vineyard_id": "V15", "row_id": "V15-R004", "gap_m": 10.15, "x": 629814.23, "y": 5219743.04 }, "geometry": { "type": "Point", "coordinates": [ 28.7113101, 47.118406 ] } },
{ "type": "Feature", "properties": { "inspection_id": "I0150", "type": "row_gap", "vineyard_id": "V15", "row_id": "V15-R005", "gap_m": 5.5, "x": 629836.17, "y": 5219707.8 }, "geometry": { "type": "Point", "coordinates": [ 28.7115891, 47.1180847 ] } },
{ "type": "Feature", "properties": { "inspection_id": "I0151", "type": "row_gap", "vineyard_id": "V15", "row_id": "V15-R005", "gap_m": 6.35, "x": 629830.21, "y": 5219716.14 }, "geometry": { "type": "Point", "coordinates": [ 28.7115129, 47.1181608 ] } },
{ "type": "Feature", "properties": { "inspection_id": "I0152", "type": "row_gap", "vineyard_id": "V15", "row_id": "V15-R005", "gap_m": 18.9, "x": 629816.67, "y": 5219735.23 }, "geometry": { "type": "Point", "coordinates": [ 28.71134, 47.1183352 ] } },
{ "type": "Feature", "properties": { "inspection_id": "I0153", "type": "row_gap", "vineyard_id": "V15", "row_id": "V15-R016", "gap_m": 6.25, "x": 629818.51, "y": 5219676.18 }, "geometry": { "type": "Point", "coordinates": [ 28.7113471, 47.1178037 ] } },
{ "type": "Feature", "properties": { "inspection_id": "I0154", "type": "row_gap", "vineyard_id": "V15", "row_id": "V15-R017", "gap_m": 7.15, "x": 629802.65, "y": 5219695.6 }, "geometry": { "type": "Point", "coordinates": [ 28.7111438, 47.1179815 ] } },
{ "type": "Feature", "properties": { "inspection_id": "I0155", "type": "row_gap", "vineyard_id": "V16", "row_id": "V16-R006", "gap_m": 5.95, "x": 630244.69, "y": 5219662.48 }, "geometry": { "type": "Point", "coordinates": [ 28.7169588, 47.1175964 ] } },
{ "type": "Feature", "properties": { "inspection_id": "I0156", "type": "row_gap", "vineyard_id": "V16", "row_id": "V16-R006", "gap_m": 15.05, "x": 630238.37, "y": 5219673.55 }, "geometry": { "type": "Point", "coordinates": [ 28.7168787, 47.1176973 ] } },
{ "type": "Feature", "properties": { "inspection_id": "I0157", "type": "row_gap", "vineyard_id": "V16", "row_id": "V16-R006", "gap_m": 8.45, "x": 630210.38, "y": 5219735.57 }, "geometry": { "type": "Point", "coordinates": [ 28.7165279, 47.1182606 ] } },
{ "type": "Feature", "properties": { "inspection_id": "I0158", "type": "row_gap", "vineyard_id": "V16", "row_id": "V16-R007", "gap_m": 6.15, "x": 630235.06, "y": 5219675.72 }, "geometry": { "type": "Point", "coordinates": [ 28.7168358, 47.1177174 ] } },
{ "type": "Feature", "properties": { "inspection_id": "I0159", "type": "row_gap", "vineyard_id": "V16", "row_id": "V16-R014", "gap_m": 5.45, "x": 630180.74, "y": 5219749.23 }, "geometry": { "type": "Point", "coordinates": [ 28.7161413, 47.1183894 ] } },
{ "type": "Feature", "properties": { "inspection_id": "I0160", "type": "row_gap", "vineyard_id": "V16", "row_id": "V16-R018", "gap_m": 5.7, "x": 630178.21, "y": 5219741.41 }, "geometry": { "type": "Point", "coordinates": [ 28.7161057, 47.1183195 ] } },
{ "type": "Feature", "properties": { "inspection_id": "I0161", "type": "row_gap", "vineyard_id": "V16", "row_id": "V16-R019", "gap_m": 7.95, "x": 630184.91, "y": 5219723.8 }, "geometry": { "type": "Point", "coordinates": [ 28.7161889, 47.1181598 ] } },
{ "type": "Feature", "properties": { "inspection_id": "I0162", "type": "row_gap", "vineyard_id": "V16", "row_id": "V16-R019", "gap_m": 6.4, "x": 630176.4, "y": 5219739.09 }, "geometry": { "type": "Point", "coordinates": [ 28.7160812, 47.118299 ] } },
{ "type": "Feature", "properties": { "inspection_id": "I0163", "type": "row_gap", "vineyard_id": "V17", "row_id": "V17-R013", "gap_m": 23.05, "x": 629858.96, "y": 5219665.2 }, "geometry": { "type": "Point", "coordinates": [ 28.711877, 47.117697 ] } },
{ "type": "Feature", "properties": { "inspection_id": "I0164", "type": "row_gap", "vineyard_id": "V17", "row_id": "V17-R013", "gap_m": 5.5, "x": 629848.87, "y": 5219652.72 }, "geometry": { "type": "Point", "coordinates": [ 28.7117404, 47.1175867 ] } },
{ "type": "Feature", "properties": { "inspection_id": "I0165", "type": "row_gap", "vineyard_id": "V17", "row_id": "V17-R021", "gap_m": 12.65, "x": 629869.69, "y": 5219653.61 }, "geometry": { "type": "Point", "coordinates": [ 28.712015, 47.1175906 ] } },
{ "type": "Feature", "properties": { "inspection_id": "I0166", "type": "row_gap", "vineyard_id": "V17", "row_id": "V17-R022", "gap_m": 6.75, "x": 629868.96, "y": 5219650.56 }, "geometry": { "type": "Point", "coordinates": [ 28.7120045, 47.1175634 ] } },
{ "type": "Feature", "properties": { "inspection_id": "I0167", "type": "row_gap", "vineyard_id": "V17", "row_id": "V17-R022", "gap_m": 6.4, "x": 629864.1, "y": 5219645.09 }, "geometry": { "type": "Point", "coordinates": [ 28.711939, 47.1175151 ] } },
{ "type": "Feature", "properties": { "inspection_id": "I0168", "type": "row_gap", "vineyard_id": "V18", "row_id": "V18-R003", "gap_m": 6.65, "x": 629993.27, "y": 5219639.93 }, "geometry": { "type": "Point", "coordinates": [ 28.7136395, 47.1174433 ] } },
{ "type": "Feature", "properties": { "inspection_id": "I0169", "type": "row_gap", "vineyard_id": "V18", "row_id": "V18-R005", "gap_m": 9.15, "x": 629994.19, "y": 5219637.18 }, "geometry": { "type": "Point", "coordinates": [ 28.7136508, 47.1174183 ] } },
{ "type": "Feature", "properties": { "inspection_id": "I0170", "type": "row_gap", "vineyard_id": "V18", "row_id": "V18-R011", "gap_m": 5.5, "x": 630010.06, "y": 5219633.63 }, "geometry": { "type": "Point", "coordinates": [ 28.7138588, 47.1173833 ] } },
{ "type": "Feature", "properties": { "inspection_id": "I0171", "type": "row_gap", "vineyard_id": "V18", "row_id": "V18-R011", "gap_m": 5.55, "x": 630006.01, "y": 5219628.87 }, "geometry": { "type": "Point", "coordinates": [ 28.7138041, 47.1173413 ] } },
{ "type": "Feature", "properties": { "inspection_id": "I0172", "type": "row_gap", "vineyard_id": "V18", "row_id": "V18-R020", "gap_m": 7.0, "x": 630021.65, "y": 5219625.59 }, "geometry": { "type": "Point", "coordinates": [ 28.7140092, 47.1173087 ] } },
{ "type": "Feature", "properties": { "inspection_id": "I0173", "type": "row_gap", "vineyard_id": "V18", "row_id": "V18-R020", "gap_m": 5.25, "x": 630010.72, "y": 5219612.83 }, "geometry": { "type": "Point", "coordinates": [ 28.7138615, 47.1171961 ] } },
{ "type": "Feature", "properties": { "inspection_id": "I0174", "type": "row_gap", "vineyard_id": "V18", "row_id": "V18-R022", "gap_m": 11.15, "x": 630024.33, "y": 5219625.2 }, "geometry": { "type": "Point", "coordinates": [ 28.7140445, 47.1173047 ] } },
{ "type": "Feature", "properties": { "inspection_id": "I0175", "type": "row_gap", "vineyard_id": "V18", "row_id": "V18-R022", "gap_m": 7.3, "x": 630010.26, "y": 5219608.81 }, "geometry": { "type": "Point", "coordinates": [ 28.7138544, 47.11716 ] } },
{ "type": "Feature", "properties": { "inspection_id": "I0176", "type": "row_gap", "vineyard_id": "V19", "row_id": "V19-R017", "gap_m": 5.4, "x": 629929.89, "y": 5219562.1 }, "geometry": { "type": "Point", "coordinates": [ 28.7127819, 47.1167557 ] } },
{ "type": "Feature", "properties": { "inspection_id": "I0177", "type": "row_gap", "vineyard_id": "V20", "row_id": "V20-R013", "gap_m": 13.2, "x": 630128.14, "y": 5219511.33 }, "geometry": { "type": "Point", "coordinates": [ 28.7153794, 47.11626 ] } },
{ "type": "Feature", "properties": { "inspection_id": "I0178", "type": "row_gap", "vineyard_id": "V20", "row_id": "V20-R014", "gap_m": 8.8, "x": 630130.89, "y": 5219507.29 }, "geometry": { "type": "Point", "coordinates": [ 28.7154144, 47.1162231 ] } },
{ "type": "Feature", "properties": { "inspection_id": "I0179", "type": "row_gap", "vineyard_id": "V21", "row_id": "V21-R004", "gap_m": 8.0, "x": 630004.3, "y": 5219543.24 }, "geometry": { "type": "Point", "coordinates": [ 28.7137569, 47.1165714 ] } },
{ "type": "Feature", "properties": { "inspection_id": "I0180", "type": "row_gap", "vineyard_id": "V21", "row_id": "V21-R004", "gap_m": 15.2, "x": 629996.29, "y": 5219533.84 }, "geometry": { "type": "Point", "coordinates": [ 28.7136486, 47.1164884 ] } },
{ "type": "Feature", "properties": { "inspection_id": "I0181", "type": "row_gap", "vineyard_id": "V21", "row_id": "V21-R005", "gap_m": 5.95, "x": 630001.05, "y": 5219535.55 }, "geometry": { "type": "Point", "coordinates": [ 28.7137118, 47.1165029 ] } },
{ "type": "Feature", "properties": { "inspection_id": "I0182", "type": "row_gap", "vineyard_id": "V21", "row_id": "V21-R005", "gap_m": 8.0, "x": 629996.33, "y": 5219529.79 }, "geometry": { "type": "Point", "coordinates": [ 28.7136479, 47.116452 ] } },
{ "type": "Feature", "properties": { "inspection_id": "I0183", "type": "row_gap", "vineyard_id": "V21", "row_id": "V21-R006", "gap_m": 6.0, "x": 629998.16, "y": 5219528.85 }, "geometry": { "type": "Point", "coordinates": [ 28.7136718, 47.1164432 ] } },
{ "type": "Feature", "properties": { "inspection_id": "I0184", "type": "row_gap", "vineyard_id": "V21", "row_id": "V21-R015", "gap_m": 5.3, "x": 630005.86, "y": 5219512.95 }, "geometry": { "type": "Point", "coordinates": [ 28.7137686, 47.1162986 ] } },
{ "type": "Feature", "properties": { "inspection_id": "I0185", "type": "row_gap", "vineyard_id": "V21", "row_id": "V21-R022", "gap_m": 5.35, "x": 630017.67, "y": 5219509.53 }, "geometry": { "type": "Point", "coordinates": [ 28.7139234, 47.1162656 ] } },
{ "type": "Feature", "properties": { "inspection_id": "I0186", "type": "row_gap", "vineyard_id": "V21", "row_id": "V21-R025", "gap_m": 17.1, "x": 630013.65, "y": 5219497.8 }, "geometry": { "type": "Point", "coordinates": [ 28.713867, 47.1161608 ] } },
{ "type": "Feature", "properties": { "inspection_id": "I0187", "type": "row_gap", "vineyard_id": "V21", "row_id": "V21-R027", "gap_m": 10.5, "x": 630023.86, "y": 5219503.51 }, "geometry": { "type": "Point", "coordinates": [ 28.7140031, 47.1162101 ] } },
{ "type": "Feature", "properties": { "inspection_id": "I0188", "type": "row_gap", "vineyard_id": "V22", "row_id": "V22-R001", "gap_m": 9.0, "x": 630335.47, "y": 5219458.79 }, "geometry": { "type": "Point", "coordinates": [ 28.718096, 47.1157464 ] } },
{ "type": "Feature", "properties": { "inspection_id": "I0189", "type": "row_gap", "vineyard_id": "V22", "row_id": "V22-R006", "gap_m": 5.4, "x": 630336.16, "y": 5219443.48 }, "geometry": { "type": "Point", "coordinates": [ 28.7181007, 47.1156085 ] } },
{ "type": "Feature", "properties": { "inspection_id": "I0190", "type": "row_gap", "vineyard_id": "V23", "row_id": "V23-R003", "gap_m": 7.35, "x": 630107.5, "y": 5219446.33 }, "geometry": { "type": "Point", "coordinates": [ 28.7150886, 47.1156793 ] } },
{ "type": "Feature", "properties": { "inspection_id": "I0191", "type": "row_gap", "vineyard_id": "V23", "row_id": "V23-R004", "gap_m": 6.8, "x": 630122.4, "y": 5219462.4 }, "geometry": { "type": "Point", "coordinates": [ 28.7152896, 47.115821 ] } },
{ "type": "Feature", "properties": { "inspection_id": "I0192", "type": "row_gap", "vineyard_id": "V23", "row_id": "V23-R004", "gap_m": 6.7, "x": 630108.03, "y": 5219445.9 }, "geometry": { "type": "Point", "coordinates": [ 28.7150955, 47.1156754 ] } },
{ "type": "Feature", "properties": { "inspection_id": "I0193", "type": "row_gap", "vineyard_id": "V23", "row_id": "V23-R006", "gap_m": 8.95, "x": 630107.48, "y": 5219447.36 }, "geometry": { "type": "Point", "coordinates": [ 28.7150887, 47.1156886 ] } },
{ "type": "Feature", "properties": { "inspection_id": "I0194", "type": "row_gap", "vineyard_id": "V23", "row_id": "V23-R017", "gap_m": 5.15, "x": 630128.34, "y": 5219434.5 }, "geometry": { "type": "Point", "coordinates": [ 28.7153598, 47.1155688 ] } },
{ "type": "Feature", "properties": { "inspection_id": "I0195", "type": "row_gap", "vineyard_id": "V23", "row_id": "V23-R019", "gap_m": 6.95, "x": 630129.21, "y": 5219429.8 }, "geometry": { "type": "Point", "coordinates": [ 28.71537, 47.1155264 ] } },
{ "type": "Feature", "properties": { "inspection_id": "I0196", "type": "row_gap", "vineyard_id": "V23", "row_id": "V23-R020", "gap_m": 6.35, "x": 630135.97, "y": 5219435.04 }, "geometry": { "type": "Point", "coordinates": [ 28.7154605, 47.1155722 ] } },
{ "type": "Feature", "properties": { "inspection_id": "I0197", "type": "row_gap", "vineyard_id": "V23", "row_id": "V23-R020", "gap_m": 7.15, "x": 630130.16, "y": 5219429.31 }, "geometry": { "type": "Point", "coordinates": [ 28.7153823, 47.1155218 ] } },
{ "type": "Feature", "properties": { "inspection_id": "I0198", "type": "row_gap", "vineyard_id": "V24", "row_id": "V24-R004", "gap_m": 5.75, "x": 630285.92, "y": 5219433.71 }, "geometry": { "type": "Point", "coordinates": [ 28.7174359, 47.1155306 ] } },
{ "type": "Feature", "properties": { "inspection_id": "I0199", "type": "row_gap", "vineyard_id": "V24", "row_id": "V24-R004", "gap_m": 7.95, "x": 630262.44, "y": 5219400.15 }, "geometry": { "type": "Point", "coordinates": [ 28.7171168, 47.1152334 ] } },
{ "type": "Feature", "properties": { "inspection_id": "I0200", "type": "row_gap", "vineyard_id": "V24", "row_id": "V24-R007", "gap_m": 9.4, "x": 630286.6, "y": 5219425.75 }, "geometry": { "type": "Point", "coordinates": [ 28.7174425, 47.1154589 ] } },
{ "type": "Feature", "properties": { "inspection_id": "I0201", "type": "row_gap", "vineyard_id": "V24", "row_id": "V24-R008", "gap_m": 8.6, "x": 630285.64, "y": 5219421.75 }, "geometry": { "type": "Point", "coordinates": [ 28.7174287, 47.1154231 ] } },
{ "type": "Feature", "properties": { "inspection_id": "I0202", "type": "row_gap", "vineyard_id": "V24", "row_id": "V24-R014", "gap_m": 9.95, "x": 630299.77, "y": 5219419.32 }, "geometry": { "type": "Point", "coordinates": [ 28.7176142, 47.1153985 ] } },
{ "type": "Feature", "properties": { "inspection_id": "I0203", "type": "row_gap", "vineyard_id": "V24", "row_id": "V24-R021", "gap_m": 15.3, "x": 630310.15, "y": 5219403.32 }, "geometry": { "type": "Point", "coordinates": [ 28.7177463, 47.1152525 ] } },
{ "type": "Feature", "properties": { "inspection_id": "I0204", "type": "row_gap", "vineyard_id": "V24", "row_id": "V24-R021", "gap_m": 5.3, "x": 630304.58, "y": 5219394.54 }, "geometry": { "type": "Point", "coordinates": [ 28.7176703, 47.1151746 ] } },
{ "type": "Feature", "properties": { "inspection_id": "I0205", "type": "row_gap", "vineyard_id": "V24", "row_id": "V24-R025", "gap_m": 6.3, "x": 630311.98, "y": 5219388.88 }, "geometry": { "type": "Point", "coordinates": [ 28.7177663, 47.1151222 ] } },
{ "type": "Feature", "properties": { "inspection_id": "I0206", "type": "row_gap", "vineyard_id": "V24", "row_id": "V24-R026", "gap_m": 9.75, "x": 630314.0, "y": 5219387.44 }, "geometry": { "type": "Point", "coordinates": [ 28.7177924, 47.1151089 ] } },
{ "type": "Feature", "properties": { "inspection_id": "I0207", "type": "row_gap", "vineyard_id": "V24", "row_id": "V24-R027", "gap_m": 9.3, "x": 630315.9, "y": 5219386.2 }, "geometry": { "type": "Point", "coordinates": [ 28.7178172, 47.1150974 ] } },
{ "type": "Feature", "properties": { "inspection_id": "I0208", "type": "row_gap", "vineyard_id": "V24", "row_id": "V24-R030", "gap_m": 6.95, "x": 630314.14, "y": 5219374.4 }, "geometry": { "type": "Point", "coordinates": [ 28.7177905, 47.1149916 ] } },
{ "type": "Feature", "properties": { "inspection_id": "I0209", "type": "row_gap", "vineyard_id": "V24", "row_id": "V24-R030", "gap_m": 5.75, "x": 630299.68, "y": 5219351.54 }, "geometry": { "type": "Point", "coordinates": [ 28.7175933, 47.1147888 ] } },
{ "type": "Feature", "properties": { "inspection_id": "I0210", "type": "row_gap", "vineyard_id": "V24", "row_id": "V24-R031", "gap_m": 6.65, "x": 630320.63, "y": 5219377.73 }, "geometry": { "type": "Point", "coordinates": [ 28.7178769, 47.1150202 ] } },
{ "type": "Feature", "properties": { "inspection_id": "I0211", "type": "row_gap", "vineyard_id": "V24", "row_id": "V24-R032", "gap_m": 6.3, "x": 630324.43, "y": 5219379.54 }, "geometry": { "type": "Point", "coordinates": [ 28.7179275, 47.1150358 ] } },
{ "type": "Feature", "properties": { "inspection_id": "I0212", "type": "row_gap", "vineyard_id": "V24", "row_id": "V24-R033", "gap_m": 6.4, "x": 630325.31, "y": 5219376.17 }, "geometry": { "type": "Point", "coordinates": [ 28.7179381, 47.1150053 ] } },
{ "type": "Feature", "properties": { "inspection_id": "I0213", "type": "row_gap", "vineyard_id": "V24", "row_id": "V24-R033", "gap_m": 7.75, "x": 630313.55, "y": 5219357.04 }, "geometry": { "type": "Point", "coordinates": [ 28.7177778, 47.1148355 ] } },
{ "type": "Feature", "properties": { "inspection_id": "I0214", "type": "row_gap", "vineyard_id": "V24", "row_id": "V24-R034", "gap_m": 9.25, "x": 630321.6, "y": 5219365.87 }, "geometry": { "type": "Point", "coordinates": [ 28.7178864, 47.1149134 ] } },
{ "type": "Feature", "properties": { "inspection_id": "I0215", "type": "row_gap", "vineyard_id": "V24", "row_id": "V24-R035", "gap_m": 5.6, "x": 630306.41, "y": 5219336.63 }, "geometry": { "type": "Point", "coordinates": [ 28.7176777, 47.1146534 ] } },
{ "type": "Feature", "properties": { "inspection_id": "I0216", "type": "row_gap", "vineyard_id": "V24", "row_id": "V24-R042", "gap_m": 6.7, "x": 630350.72, "y": 5219376.37 }, "geometry": { "type": "Point", "coordinates": [ 28.718273, 47.1150021 ] } },
{ "type": "Feature", "properties": { "inspection_id": "I0217", "type": "row_gap", "vineyard_id": "V24", "row_id": "V24-R042", "gap_m": 11.95, "x": 630326.06, "y": 5219336.48 }, "geometry": { "type": "Point", "coordinates": [ 28.7179366, 47.1146481 ] } },
{ "type": "Feature", "properties": { "inspection_id": "I0218", "type": "row_gap", "vineyard_id": "V24", "row_id": "V24-R051", "gap_m": 5.65, "x": 630338.73, "y": 5219333.0 }, "geometry": { "type": "Point", "coordinates": [ 28.7181025, 47.1146143 ] } },
{ "type": "Feature", "properties": { "inspection_id": "I0219", "type": "row_gap", "vineyard_id": "V24", "row_id": "V24-R053", "gap_m": 7.7, "x": 630334.24, "y": 5219323.3 }, "geometry": { "type": "Point", "coordinates": [ 28.7180405, 47.114528 ] } },
{ "type": "Feature", "properties": { "inspection_id": "I0220", "type": "row_gap", "vineyard_id": "V26", "row_id": "V26-R006", "gap_m": 8.65, "x": 630249.51, "y": 5219332.02 }, "geometry": { "type": "Point", "coordinates": [ 28.7169266, 47.1146232 ] } },
{ "type": "Feature", "properties": { "inspection_id": "I0221", "type": "row_gap", "vineyard_id": "V26", "row_id": "V26-R009", "gap_m": 5.6, "x": 630249.32, "y": 5219355.59 }, "geometry": { "type": "Point", "coordinates": [ 28.716931, 47.1148352 ] } },
{ "type": "Feature", "properties": { "inspection_id": "I0222", "type": "row_gap", "vineyard_id": "V26", "row_id": "V26-R009", "gap_m": 10.5, "x": 630229.28, "y": 5219324.37 }, "geometry": { "type": "Point", "coordinates": [ 28.7166579, 47.1145583 ] } },
{ "type": "Feature", "properties": { "inspection_id": "I0223", "type": "row_gap", "vineyard_id": "V26", "row_id": "V26-R009", "gap_m": 5.05, "x": 630223.13, "y": 5219314.77 }, "geometry": { "type": "Point", "coordinates": [ 28.7165742, 47.1144732 ] } },
{ "type": "Feature", "properties": { "inspection_id": "I0224", "type": "row_gap", "vineyard_id": "V26", "row_id": "V26-R012", "gap_m": 6.9, "x": 630254.84, "y": 5219335.61 }, "geometry": { "type": "Point", "coordinates": [ 28.716998, 47.1146544 ] } },
{ "type": "Feature", "properties": { "inspection_id": "I0225", "type": "row_gap", "vineyard_id": "V26", "row_id": "V26-R012", "gap_m": 7.8, "x": 630244.67, "y": 5219319.86 }, "geometry": { "type": "Point", "coordinates": [ 28.7168594, 47.1145147 ] } },
{ "type": "Feature", "properties": { "inspection_id": "I0226", "type": "row_gap", "vineyard_id": "V26", "row_id": "V26-R015", "gap_m": 10.25, "x": 630272.86, "y": 5219347.88 }, "geometry": { "type": "Point", "coordinates": [ 28.717239, 47.1147612 ] } },
{ "type": "Feature", "properties": { "inspection_id": "I0227", "type": "row_gap", "vineyard_id": "V26", "row_id": "V26-R015", "gap_m": 12.2, "x": 630256.9, "y": 5219323.85 }, "geometry": { "type": "Point", "coordinates": [ 28.7170217, 47.1145482 ] } },
{ "type": "Feature", "properties": { "inspection_id": "I0228", "type": "row_gap", "vineyard_id": "V26", "row_id": "V26-R017", "gap_m": 7.75, "x": 630247.62, "y": 5219314.23 }, "geometry": { "type": "Point", "coordinates": [ 28.7168966, 47.1144636 ] } },
{ "type": "Feature", "properties": { "inspection_id": "I0229", "type": "row_gap", "vineyard_id": "V26", "row_id": "V26-R017", "gap_m": 5.05, "x": 630243.47, "y": 5219307.69 }, "geometry": { "type": "Point", "coordinates": [ 28.7168401, 47.1144055 ] } },
{ "type": "Feature", "properties": { "inspection_id": "I0230", "type": "row_gap", "vineyard_id": "V26", "row_id": "V26-R018", "gap_m": 5.2, "x": 630264.8, "y": 5219318.24 }, "geometry": { "type": "Point", "coordinates": [ 28.7171242, 47.1144962 ] } },
{ "type": "Feature", "properties": { "inspection_id": "I0231", "type": "row_gap", "vineyard_id": "V26", "row_id": "V26-R018", "gap_m": 7.35, "x": 630255.55, "y": 5219305.47 }, "geometry": { "type": "Point", "coordinates": [ 28.7169986, 47.1143831 ] } },
{ "type": "Feature", "properties": { "inspection_id": "I0232", "type": "row_gap", "vineyard_id": "V26", "row_id": "V26-R021", "gap_m": 7.3, "x": 630265.68, "y": 5219329.93 }, "geometry": { "type": "Point", "coordinates": [ 28.7171391, 47.1146011 ] } },
{ "type": "Feature", "properties": { "inspection_id": "I0233", "type": "row_gap", "vineyard_id": "V26", "row_id": "V26-R021", "gap_m": 5.0, "x": 630254.91, "y": 5219315.03 }, "geometry": { "type": "Point", "coordinates": [ 28.7169929, 47.1144693 ] } },
{ "type": "Feature", "properties": { "inspection_id": "I0234", "type": "row_gap", "vineyard_id": "V26", "row_id": "V26-R031", "gap_m": 5.45, "x": 630204.5, "y": 5219292.07 }, "geometry": { "type": "Point", "coordinates": [ 28.7163221, 47.1142728 ] } },
{ "type": "Feature", "properties": { "inspection_id": "I0235", "type": "row_gap", "vineyard_id": "V26", "row_id": "V26-R031", "gap_m": 5.1, "x": 630190.73, "y": 5219302.79 }, "geometry": { "type": "Point", "coordinates": [ 28.7161438, 47.1143719 ] } },
{ "type": "Feature", "properties": { "inspection_id": "I0236", "type": "row_gap", "vineyard_id": "V26", "row_id": "V26-R034", "gap_m": 8.5, "x": 630282.31, "y": 5219306.38 }, "geometry": { "type": "Point", "coordinates": [ 28.7173515, 47.1143861 ] } },
{ "type": "Feature", "properties": { "inspection_id": "I0237", "type": "row_gap", "vineyard_id": "V26", "row_id": "V26-R034", "gap_m": 5.85, "x": 630277.86, "y": 5219299.67 }, "geometry": { "type": "Point", "coordinates": [ 28.7172909, 47.1143266 ] } },
{ "type": "Feature", "properties": { "inspection_id": "I0238", "type": "row_gap", "vineyard_id": "V26", "row_id": "V26-R034", "gap_m": 10.7, "x": 630268.1, "y": 5219285.02 }, "geometry": { "type": "Point", "coordinates": [ 28.7171581, 47.1141968 ] } },
{ "type": "Feature", "properties": { "inspection_id": "I0239", "type": "row_gap", "vineyard_id": "V26", "row_id": "V26-R035", "gap_m": 10.85, "x": 630268.01, "y": 5219285.15 }, "geometry": { "type": "Point", "coordinates": [ 28.7171568, 47.1141979 ] } },
{ "type": "Feature", "properties": { "inspection_id": "I0240", "type": "row_gap", "vineyard_id": "V26", "row_id": "V26-R035", "gap_m": 6.35, "x": 630262.1, "y": 5219274.14 }, "geometry": { "type": "Point", "coordinates": [ 28.7170758, 47.1141001 ] } },
{ "type": "Feature", "properties": { "inspection_id": "I0241", "type": "row_gap", "vineyard_id": "V26", "row_id": "V26-R035", "gap_m": 9.95, "x": 630258.12, "y": 5219266.71 }, "geometry": { "type": "Point", "coordinates": [ 28.7170212, 47.114034 ] } },
{ "type": "Feature", "properties": { "inspection_id": "I0242", "type": "row_gap", "vineyard_id": "V26", "row_id": "V26-R037", "gap_m": 7.95, "x": 630232.19, "y": 5219276.2 }, "geometry": { "type": "Point", "coordinates": [ 28.7166824, 47.1141245 ] } },
{ "type": "Feature", "properties": { "inspection_id": "I0243", "type": "row_gap", "vineyard_id": "V26", "row_id": "V26-R039", "gap_m": 11.6, "x": 630247.65, "y": 5219261.22 }, "geometry": { "type": "Point", "coordinates": [ 28.7168817, 47.1139867 ] } },
{ "type": "Feature", "properties": { "inspection_id": "I0244", "type": "row_gap", "vineyard_id": "V26", "row_id": "V26-R039", "gap_m": 8.0, "x": 630231.28, "y": 5219273.73 }, "geometry": { "type": "Point", "coordinates": [ 28.7166696, 47.1141024 ] } },
{ "type": "Feature", "properties": { "inspection_id": "I0245", "type": "row_gap", "vineyard_id": "V26", "row_id": "V26-R039", "gap_m": 7.4, "x": 630207.48, "y": 5219292.32 }, "geometry": { "type": "Point", "coordinates": [ 28.7163615, 47.1142744 ] } },
{ "type": "Feature", "properties": { "inspection_id": "I0246", "type": "row_gap", "vineyard_id": "V26", "row_id": "V26-R039", "gap_m": 6.6, "x": 630193.09, "y": 5219303.94 }, "geometry": { "type": "Point", "coordinates": [ 28.7161751, 47.1143818 ] } },
{ "type": "Feature", "properties": { "inspection_id": "I0247", "type": "row_gap", "vineyard_id": "V26", "row_id": "V26-R040", "gap_m": 6.5, "x": 630284.04, "y": 5219303.78 }, "geometry": { "type": "Point", "coordinates": [ 28.7173735, 47.1143623 ] } },
{ "type": "Feature", "properties": { "inspection_id": "I0248", "type": "row_gap", "vineyard_id": "V26", "row_id": "V26-R040", "gap_m": 6.35, "x": 630274.23, "y": 5219288.09 }, "geometry": { "type": "Point", "coordinates": [ 28.7172397, 47.1142231 ] } },
{ "type": "Feature", "properties": { "inspection_id": "I0249", "type": "row_gap", "vineyard_id": "V26", "row_id": "V26-R044", "gap_m": 8.85, "x": 630273.3, "y": 5219288.69 }, "geometry": { "type": "Point", "coordinates": [ 28.7172276, 47.1142287 ] } },
{ "type": "Feature", "properties": { "inspection_id": "I0250", "type": "row_gap", "vineyard_id": "V26", "row_id": "V26-R044", "gap_m": 6.85, "x": 630268.97, "y": 5219281.73 }, "geometry": { "type": "Point", "coordinates": [ 28.7171685, 47.1141669 ] } },
{ "type": "Feature", "properties": { "inspection_id": "I0251", "type": "row_gap", "vineyard_id": "V26", "row_id": "V26-R047", "gap_m": 6.4, "x": 630249.64, "y": 5219251.41 }, "geometry": { "type": "Point", "coordinates": [ 28.716905, 47.1138981 ] } },
{ "type": "Feature", "properties": { "inspection_id": "I0252", "type": "row_gap", "vineyard_id": "V26", "row_id": "V26-R050", "gap_m": 5.25, "x": 630256.23, "y": 5219239.62 }, "geometry": { "type": "Point", "coordinates": [ 28.7169884, 47.1137907 ] } },
{ "type": "Feature", "properties": { "inspection_id": "I0253", "type": "row_gap", "vineyard_id": "V26", "row_id": "V26-R050", "gap_m": 5.7, "x": 630174.74, "y": 5219302.62 }, "geometry": { "type": "Point", "coordinates": [ 28.715933, 47.1143735 ] } },
{ "type": "Feature", "properties": { "inspection_id": "I0254", "type": "row_gap", "vineyard_id": "V26", "row_id": "V26-R057", "gap_m": 5.0, "x": 630213.27, "y": 5219259.01 }, "geometry": { "type": "Point", "coordinates": [ 28.716428, 47.1139737 ] } },
{ "type": "Feature", "properties": { "inspection_id": "I0255", "type": "row_gap", "vineyard_id": "V26", "row_id": "V26-R057", "gap_m": 5.95, "x": 630200.27, "y": 5219269.19 }, "geometry": { "type": "Point", "coordinates": [ 28.7162598, 47.1140677 ] } },
{ "type": "Feature", "properties": { "inspection_id": "I0256", "type": "row_gap", "vineyard_id": "V26", "row_id": "V26-R057", "gap_m": 8.65, "x": 630172.83, "y": 5219289.77 }, "geometry": { "type": "Point", "coordinates": [ 28.7159042, 47.1142583 ] } },
{ "type": "Feature", "properties": { "inspection_id": "I0257", "type": "row_gap", "vineyard_id": "V26", "row_id": "V26-R058", "gap_m": 8.35, "x": 630242.33, "y": 5219229.3 }, "geometry": { "type": "Point", "coordinates": [ 28.7168024, 47.1137006 ] } },
{ "type": "Feature", "properties": { "inspection_id": "I0258", "type": "row_gap", "vineyard_id": "V26", "row_id": "V26-R058", "gap_m": 5.15, "x": 630168.78, "y": 5219287.02 }, "geometry": { "type": "Point", "coordinates": [ 28.71585, 47.1142343 ] } },
{ "type": "Feature", "properties": { "inspection_id": "I0259", "type": "row_gap", "vineyard_id": "V26", "row_id": "V26-R076", "gap_m": 5.65, "x": 630180.31, "y": 5219242.7 }, "geometry": { "type": "Point", "coordinates": [ 28.7159891, 47.1138335 ] } },
{ "type": "Feature", "properties": { "inspection_id": "I0260", "type": "row_gap", "vineyard_id": "V26", "row_id": "V26-R076", "gap_m": 5.5, "x": 630172.27, "y": 5219249.07 }, "geometry": { "type": "Point", "coordinates": [ 28.7158851, 47.1138923 ] } }
]
}
