{
"type": "FeatureCollection",
"name": "row_gaps",
"crs": { "type": "name", "properties": { "name": "urn:ogc:def:crs:OGC:1.3:CRS84" } },
"xy_coordinate_resolution": 1e-07,
"features": [
{ "type": "Feature", "properties": { "row_id": "V04-R005", "length_m": 9.5 }, "geometry": { "type": "LineString", "coordinates": [ [ 28.7040855, 47.1292499 ], [ 28.70404, 47.1293295 ] ] } },
{ "type": "Feature", "properties": { "row_id": "V04-R015", "length_m": 5.6 }, "geometry": { "type": "LineString", "coordinates": [ [ 28.7039232, 47.1291545 ], [ 28.7038953, 47.1292011 ] ] } },
{ "type": "Feature", "properties": { "row_id": "V04-R016", "length_m": 13.55 }, "geometry": { "type": "LineString", "coordinates": [ [ 28.7047435, 47.1279528 ], [ 28.7046796, 47.1280666 ] ] } },
{ "type": "Feature", "properties": { "row_id": "V04-R017", "length_m": 6.8 }, "geometry": { "type": "LineString", "coordinates": [ [ 28.7039611, 47.1290234 ], [ 28.7039288, 47.1290804 ] ] } },
{ "type": "Feature", "properties": { "row_id": "V04-R017", "length_m": 6.55 }, "geometry": { "type": "LineString", "coordinates": [ [ 28.703889, 47.1291505 ], [ 28.7038575, 47.1292054 ] ] } },
{ "type": "Feature", "properties": { "row_id": "V04-R020", "length_m": 9.3 }, "geometry": { "type": "LineString", "coordinates": [ [ 28.7040311, 47.1288424 ], [ 28.7039855, 47.1289201 ] ] } },
{ "type": "Feature", "properties": { "row_id": "V04-R020", "length_m": 7.85 }, "geometry": { "type": "LineString", "coordinates": [ [ 28.7039101, 47.1290492 ], [ 28.7038726, 47.1291151 ] ] } },
{ "type": "Feature", "properties": { "row_id": "V04-R020", "length_m": 5.4 }, "geometry": { "type": "LineString", "coordinates": [ [ 28.7038454, 47.1291624 ], [ 28.7038183, 47.1292073 ] ] } },
{ "type": "Feature", "properties": { "row_id": "V04-R022", "length_m": 12.85 }, "geometry": { "type": "LineString", "coordinates": [ [ 28.7041183, 47.1286313 ], [ 28.7040557, 47.1287387 ] ] } },
{ "type": "Feature", "properties": { "row_id": "V04-R022", "length_m": 5.3 }, "geometry": { "type": "LineString", "coordinates": [ [ 28.7039627, 47.1288994 ], [ 28.703937, 47.1289437 ] ] } },
{ "type": "Feature", "properties": { "row_id": "V04-R029", "length_m": 5.4 }, "geometry": { "type": "LineString", "coordinates": [ [ 28.7037399, 47.129095 ], [ 28.7037141, 47.1291403 ] ] } },
{ "type": "Feature", "properties": { "row_id": "V04-R035", "length_m": 26.1 }, "geometry": { "type": "LineString", "coordinates": [ [ 28.7042886, 47.1281377 ], [ 28.7041654, 47.128357 ] ] } },
{ "type": "Feature", "properties": { "row_id": "V04-R037", "length_m": 18.75 }, "geometry": { "type": "LineString", "coordinates": [ [ 28.7042536, 47.1281372 ], [ 28.7041651, 47.1282947 ] ] } },
{ "type": "Feature", "properties": { "row_id": "V04-R041", "length_m": 14.7 }, "geometry": { "type": "LineString", "coordinates": [ [ 28.7042241, 47.1281238 ], [ 28.7041547, 47.1282472 ] ] } },
{ "type": "Feature", "properties": { "row_id": "V04-R046", "length_m": 7.85 }, "geometry": { "type": "LineString", "coordinates": [ [ 28.7039424, 47.1284971 ], [ 28.7039049, 47.1285629 ] ] } },
{ "type": "Feature", "properties": { "row_id": "V04-R053", "length_m": 5.9 }, "geometry": { "type": "LineString", "coordinates": [ [ 28.7034708, 47.1289452 ], [ 28.7034422, 47.1289946 ] ] } },
{ "type": "Feature", "properties": { "row_id": "V04-R054", "length_m": 7.75 }, "geometry": { "type": "LineString", "coordinates": [ [ 28.7042793, 47.1277041 ], [ 28.7042426, 47.1277692 ] ] } },
{ "type": "Feature", "properties": { "row_id": "V04-R057", "length_m": 7.05 }, "geometry": { "type": "LineString", "coordinates": [ [ 28.7042817, 47.127671 ], [ 28.7042477, 47.1277301 ] ] } },
{ "type": "Feature", "properties": { "row_id": "V04-R058", "length_m": 6.35 }, "geometry": { "type": "LineString", "coordinates": [ [ 28.7036234, 47.128613 ], [ 28.7035928, 47.1286662 ] ] } },
{ "type": "Feature", "properties": { "row_id": "V04-R058", "length_m": 5.65 }, "geometry": { "type": "LineString", "coordinates": [ [ 28.7035407, 47.1287566 ], [ 28.7035133, 47.1288039 ] ] } },
{ "type": "Feature", "properties": { "row_id": "V04-R061", "length_m": 8.3 }, "geometry": { "type": "LineString", "coordinates": [ [ 28.7036834, 47.1284503 ], [ 28.7036428, 47.1285196 ] ] } },
{ "type": "Feature", "properties": { "row_id": "V04-R065", "length_m": 6.1 }, "geometry": { "type": "LineString", "coordinates": [ [ 28.7036467, 47.1284516 ], [ 28.7036173, 47.1285026 ] ] } },
{ "type": "Feature", "properties": { "row_id": "V04-R068", "length_m": 8.35 }, "geometry": { "type": "LineString", "coordinates": [ [ 28.7036826, 47.1284489 ], [ 28.7036425, 47.1285188 ] ] } },
{ "type": "Feature", "properties": { "row_id": "V04-R073", "length_m": 5.25 }, "geometry": { "type": "LineString", "coordinates": [ [ 28.7040948, 47.127584 ], [ 28.7040715, 47.1276285 ] ] } },
{ "type": "Feature", "properties": { "row_id": "V04-R076", "length_m": 5.7 }, "geometry": { "type": "LineString", "coordinates": [ [ 28.7034609, 47.1284558 ], [ 28.7034349, 47.1285039 ] ] } },
{ "type": "Feature", "properties": { "row_id": "V04-R081", "length_m": 5.2 }, "geometry": { "type": "LineString", "coordinates": [ [ 28.7038058, 47.1278452 ], [ 28.7037819, 47.127889 ] ] } },
{ "type": "Feature", "properties": { "row_id": "V04-R081", "length_m": 5.65 }, "geometry": { "type": "LineString", "coordinates": [ [ 28.7034612, 47.128456 ], [ 28.7034338, 47.1285033 ] ] } },
{ "type": "Feature", "properties": { "row_id": "V04-R085", "length_m": 9.4 }, "geometry": { "type": "LineString", "coordinates": [ [ 28.7039507, 47.1274625 ], [ 28.7039044, 47.127541 ] ] } },
{ "type": "Feature", "properties": { "row_id": "V04-R085", "length_m": 5.85 }, "geometry": { "type": "LineString", "coordinates": [ [ 28.7037855, 47.1277536 ], [ 28.7037578, 47.1278027 ] ] } },
{ "type": "Feature", "properties": { "row_id": "V04-R085", "length_m": 6.6 }, "geometry": { "type": "LineString", "coordinates": [ [ 28.7034447, 47.1283625 ], [ 28.703413, 47.1284178 ] ] } },
{ "type": "Feature", "properties": { "row_id": "V04-R087", "length_m": 6.75 }, "geometry": { "type": "LineString", "coordinates": [ [ 28.703447, 47.1282952 ], [ 28.7034151, 47.1283519 ] ] } },
{ "type": "Feature", "properties": { "row_id": "V04-R095", "length_m": 6.25 }, "geometry": { "type": "LineString", "coordinates": [ [ 28.7029833, 47.1286592 ], [ 28.7029517, 47.1287111 ] ] } },
{ "type": "Feature", "properties": { "row_id": "V04-R103", "length_m": 5.8 }, "geometry": { "type": "LineString", "coordinates": [ [ 28.7034765, 47.1277951 ], [ 28.7034493, 47.1278439 ] ] } },
{ "type": "Feature", "properties": { "row_id": "V04-R105", "length_m": 16.2 }, "geometry": { "type": "LineString", "coordinates": [ [ 28.7028618, 47.1286193 ], [ 28.7027813, 47.1287543 ] ] } },
{ "type": "Feature", "properties": { "row_id": "V04-R106", "length_m": 5.85 }, "geometry": { "type": "LineString", "coordinates": [ [ 28.7034464, 47.1277839 ], [ 28.7034185, 47.1278329 ] ] } },
{ "type": "Feature", "properties": { "row_id": "V04-R109", "length_m": 6.5 }, "geometry": { "type": "LineString", "coordinates": [ [ 28.7033154, 47.1280034 ], [ 28.7032701, 47.1280531 ] ] } },
{ "type": "Feature", "properties": { "row_id": "V04-R109", "length_m": 9.2 }, "geometry": { "type": "LineString", "coordinates": [ [ 28.703213, 47.1281263 ], [ 28.7031522, 47.128198 ] ] } },
{ "type": "Feature", "properties": { "row_id": "V04-R109", "length_m": 6.46 }, "geometry": { "type": "LineString", "coordinates": [ [ 28.7028168, 47.1286071 ], [ 28.7027763, 47.1286582 ] ] } },
{ "type": "Feature", "properties": { "row_id": "V04-R122", "length_m": 6.1 }, "geometry": { "type": "LineString", "coordinates": [ [ 28.7030309, 47.128253 ], [ 28.70299, 47.1283003 ] ] } },
{ "type": "Feature", "properties": { "row_id": "V04-R137", "length_m": 6.7 }, "geometry": { "type": "LineString", "coordinates": [ [ 28.7035762, 47.1273387 ], [ 28.7035313, 47.1273906 ] ] } },
{ "type": "Feature", "properties": { "row_id": "V04-R145", "length_m": 5.95 }, "geometry": { "type": "LineString", "coordinates": [ [ 28.7033373, 47.1276404 ], [ 28.7032957, 47.1276858 ] ] } },
{ "type": "Feature", "properties": { "row_id": "V04-R155", "length_m": 6.91 }, "geometry": { "type": "LineString", "coordinates": [ [ 28.7035314, 47.1272948 ], [ 28.7034874, 47.1273492 ] ] } },
{ "type": "Feature", "properties": { "row_id": "V04-R199", "length_m": 5.35 }, "geometry": { "type": "LineString", "coordinates": [ [ 28.7033315, 47.1272692 ], [ 28.7032942, 47.1273101 ] ] } },
{ "type": "Feature", "properties": { "row_id": "V04-R219", "length_m": 5.6 }, "geometry": { "type": "LineString", "coordinates": [ [ 28.7030656, 47.1275405 ], [ 28.7030357, 47.1275865 ] ] } },
{ "type": "Feature", "properties": { "row_id": "V04-R228", "length_m": 6.7 }, "geometry": { "type": "LineString", "coordinates": [ [ 28.703192, 47.1273245 ], [ 28.7031454, 47.1273757 ] ] } },
{ "type": "Feature", "properties": { "row_id": "V04-R235", "length_m": 7.15 }, "geometry": { "type": "LineString", "coordinates": [ [ 28.7030228, 47.1275016 ], [ 28.7029731, 47.1275563 ] ] } },
{ "type": "Feature", "properties": { "row_id": "V04-R244", "length_m": 6.45 }, "geometry": { "type": "LineString", "coordinates": [ [ 28.7023312, 47.1283925 ], [ 28.7022865, 47.1284419 ] ] } },
{ "type": "Feature", "properties": { "row_id": "V04-R245", "length_m": 5.6 }, "geometry": { "type": "LineString", "coordinates": [ [ 28.7031883, 47.1272021 ], [ 28.7031468, 47.1272438 ] ] } },
{ "type": "Feature", "properties": { "row_id": "V04-R249", "length_m": 8.32 }, "geometry": { "type": "LineString", "coordinates": [ [ 28.7031198, 47.1272356 ], [ 28.7030687, 47.1273018 ] ] } },
{ "type": "Feature", "properties": { "row_id": "V04-R249", "length_m": 7.73 }, "geometry": { "type": "LineString", "coordinates": [ [ 28.7030103, 47.1273814 ], [ 28.7029643, 47.1274434 ] ] } },
{ "type": "Feature", "properties": { "row_id": "V04-R274", "length_m": 12.15 }, "geometry": { "type": "LineString", "coordinates": [ [ 28.7026026, 47.1277412 ], [ 28.7025194, 47.1278346 ] ] } },
{ "type": "Feature", "properties": { "row_id": "V04-R280", "length_m": 5.76 }, "geometry": { "type": "LineString", "coordinates": [ [ 28.7028613, 47.1272562 ], [ 28.7028183, 47.1272988 ] ] } },
{ "type": "Feature", "properties": { "row_id": "V04-R316", "length_m": 16.5 }, "geometry": { "type": "LineString", "coordinates": [ [ 28.7014369, 47.1270754 ], [ 28.701322, 47.1272015 ] ] } },
{ "type": "Feature", "properties": { "row_id": "V04-R316", "length_m": 6.5 }, "geometry": { "type": "LineString", "coordinates": [ [ 28.7011661, 47.12737 ], [ 28.7011196, 47.1274191 ] ] } },
{ "type": "Feature", "properties": { "row_id": "V04-R318", "length_m": 9.75 }, "geometry": { "type": "LineString", "coordinates": [ [ 28.7016676, 47.1267189 ], [ 28.7015998, 47.1267934 ] ] } },
{ "type": "Feature", "properties": { "row_id": "V04-R320", "length_m": 5.25 }, "geometry": { "type": "LineString", "coordinates": [ [ 28.7016021, 47.1267441 ], [ 28.7015649, 47.1267839 ] ] } },
{ "type": "Feature", "properties": { "row_id": "V04-R321", "length_m": 7.51 }, "geometry": { "type": "LineString", "coordinates": [ [ 28.701022, 47.1273232 ], [ 28.7009735, 47.127382 ] ] } },
{ "type": "Feature", "properties": { "row_id": "V06-R002", "length_m": 11.3 }, "geometry": { "type": "LineString", "coordinates": [ [ 28.7055366, 47.1264391 ], [ 28.7054863, 47.1263434 ] ] } },
{ "type": "Feature", "properties": { "row_id": "V06-R003", "length_m": 7.4 }, "geometry": { "type": "LineString", "coordinates": [ [ 28.7056376, 47.1265655 ], [ 28.7056059, 47.1265026 ] ] } },
{ "type": "Feature", "properties": { "row_id": "V06-R010", "length_m": 6.31 }, "geometry": { "type": "LineString", "coordinates": [ [ 28.705935, 47.1266969 ], [ 28.7059131, 47.1266421 ] ] } },
{ "type": "Feature", "properties": { "row_id": "V06-R012", "length_m": 5.15 }, "geometry": { "type": "LineString", "coordinates": [ [ 28.7056594, 47.1260901 ], [ 28.7056402, 47.1260456 ] ] } },
{ "type": "Feature", "properties": { "row_id": "V07-R003", "length_m": 5.3 }, "geometry": { "type": "LineString", "coordinates": [ [ 28.7035672, 47.1263584 ], [ 28.7035062, 47.1263817 ] ] } },
{ "type": "Feature", "properties": { "row_id": "V07-R004", "length_m": 5.35 }, "geometry": { "type": "LineString", "coordinates": [ [ 28.7035616, 47.1263405 ], [ 28.7034996, 47.1263635 ] ] } },
{ "type": "Feature", "properties": { "row_id": "V07-R018", "length_m": 5.26 }, "geometry": { "type": "LineString", "coordinates": [ [ 28.7036458, 47.1260701 ], [ 28.7035871, 47.1260952 ] ] } },
{ "type": "Feature", "properties": { "row_id": "V07-R037", "length_m": 7.8 }, "geometry": { "type": "LineString", "coordinates": [ [ 28.7035381, 47.1257361 ], [ 28.703448, 47.1257699 ] ] } },
{ "type": "Feature", "properties": { "row_id": "V07-R038", "length_m": 6.15 }, "geometry": { "type": "LineString", "coordinates": [ [ 28.7034882, 47.1257351 ], [ 28.7034181, 47.1257629 ] ] } },
{ "type": "Feature", "properties": { "row_id": "V07-R040", "length_m": 7.95 }, "geometry": { "type": "LineString", "coordinates": [ [ 28.7032513, 47.1257897 ], [ 28.703159, 47.1258237 ] ] } },
{ "type": "Feature", "properties": { "row_id": "V07-R044", "length_m": 12.07 }, "geometry": { "type": "LineString", "coordinates": [ [ 28.7031048, 47.1257756 ], [ 28.7029716, 47.125835 ] ] } },
{ "type": "Feature", "properties": { "row_id": "V07-R046", "length_m": 11.35 }, "geometry": { "type": "LineString", "coordinates": [ [ 28.7032366, 47.1256936 ], [ 28.7031054, 47.1257428 ] ] } },
{ "type": "Feature", "properties": { "row_id": "V07-R046", "length_m": 5.31 }, "geometry": { "type": "LineString", "coordinates": [ [ 28.7030759, 47.1257538 ], [ 28.7030135, 47.1257753 ] ] } },
{ "type": "Feature", "properties": { "row_id": "V07-R047", "length_m": 7.87 }, "geometry": { "type": "LineString", "coordinates": [ [ 28.7032292, 47.125693 ], [ 28.7031466, 47.1257357 ] ] } },
{ "type": "Feature", "properties": { "row_id": "V07-R050", "length_m": 5.05 }, "geometry": { "type": "LineString", "coordinates": [ [ 28.7037676, 47.1254075 ], [ 28.70371, 47.1254302 ] ] } },
{ "type": "Feature", "properties": { "row_id": "V07-R050", "length_m": 7.15 }, "geometry": { "type": "LineString", "coordinates": [ [ 28.7033677, 47.1255654 ], [ 28.7032858, 47.1255973 ] ] } },
{ "type": "Feature", "properties": { "row_id": "V07-R050", "length_m": 6.95 }, "geometry": { "type": "LineString", "coordinates": [ [ 28.7030144, 47.125702 ], [ 28.7029351, 47.1257332 ] ] } },
{ "type": "Feature", "properties": { "row_id": "V07-R052", "length_m": 5.25 }, "geometry": { "type": "LineString", "coordinates": [ [ 28.7036806, 47.1254187 ], [ 28.7036205, 47.1254421 ] ] } },
{ "type": "Feature", "properties": { "row_id": "V07-R052", "length_m": 5.85 }, "geometry": { "type": "LineString", "coordinates": [ [ 28.7031216, 47.1256378 ], [ 28.7030546, 47.1256638 ] ] } },
{ "type": "Feature", "properties": { "row_id": "V07-R057", "length_m": 5.6 }, "geometry": { "type": "LineString", "coordinates": [ [ 28.7037825, 47.1252801 ], [ 28.703718, 47.1253045 ] ] } },
{ "type": "Feature", "properties": { "row_id": "V07-R060", "length_m": 5.8 }, "geometry": { "type": "LineString", "coordinates": [ [ 28.7037197, 47.1252367 ], [ 28.7036533, 47.1252626 ] ] } },
{ "type": "Feature", "properties": { "row_id": "V07-R060", "length_m": 9.0 }, "geometry": { "type": "LineString", "coordinates": [ [ 28.7036504, 47.1252637 ], [ 28.7035473, 47.1253037 ] ] } },
{ "type": "Feature", "properties": { "row_id": "V07-R060", "length_m": 10.75 }, "geometry": { "type": "LineString", "coordinates": [ [ 28.7034082, 47.1253579 ], [ 28.7032851, 47.1254058 ] ] } },
{ "type": "Feature", "properties": { "row_id": "V07-R061", "length_m": 11.05 }, "geometry": { "type": "LineString", "coordinates": [ [ 28.7033955, 47.12534 ], [ 28.7032693, 47.1253896 ] ] } },
{ "type": "Feature", "properties": { "row_id": "V08-R003", "length_m": 7.2 }, "geometry": { "type": "LineString", "coordinates": [ [ 28.7069482, 47.1257564 ], [ 28.7068557, 47.1257419 ] ] } },
{ "type": "Feature", "properties": { "row_id": "V08-R010", "length_m": 7.92 }, "geometry": { "type": "LineString", "coordinates": [ [ 28.7071311, 47.1256804 ], [ 28.7070311, 47.1256599 ] ] } },
{ "type": "Feature", "properties": { "row_id": "V08-R014", "length_m": 18.42 }, "geometry": { "type": "LineString", "coordinates": [ [ 28.7073147, 47.1256324 ], [ 28.7070755, 47.1256038 ] ] } },
{ "type": "Feature", "properties": { "row_id": "V08-R014", "length_m": 8.06 }, "geometry": { "type": "LineString", "coordinates": [ [ 28.7070293, 47.1255984 ], [ 28.7069246, 47.1255861 ] ] } },
{ "type": "Feature", "properties": { "row_id": "V08-R016", "length_m": 18.95 }, "geometry": { "type": "LineString", "coordinates": [ [ 28.7073478, 47.1256182 ], [ 28.7071042, 47.1255805 ] ] } },
{ "type": "Feature", "properties": { "row_id": "V08-R016", "length_m": 11.6 }, "geometry": { "type": "LineString", "coordinates": [ [ 28.7071017, 47.1255801 ], [ 28.7069525, 47.125557 ] ] } },
{ "type": "Feature", "properties": { "row_id": "V08-R018", "length_m": 17.44 }, "geometry": { "type": "LineString", "coordinates": [ [ 28.7072981, 47.1255729 ], [ 28.7070708, 47.1255491 ] ] } },
{ "type": "Feature", "properties": { "row_id": "V08-R018", "length_m": 7.62 }, "geometry": { "type": "LineString", "coordinates": [ [ 28.7070695, 47.1255489 ], [ 28.7069702, 47.1255385 ] ] } },
{ "type": "Feature", "properties": { "row_id": "V08-R020", "length_m": 13.45 }, "geometry": { "type": "LineString", "coordinates": [ [ 28.707236, 47.1255423 ], [ 28.7070632, 47.1255152 ] ] } },
{ "type": "Feature", "properties": { "row_id": "V08-R020", "length_m": 6.4 }, "geometry": { "type": "LineString", "coordinates": [ [ 28.7070574, 47.1255142 ], [ 28.7069756, 47.1255 ] ] } },
{ "type": "Feature", "properties": { "row_id": "V08-R021", "length_m": 5.75 }, "geometry": { "type": "LineString", "coordinates": [ [ 28.707244, 47.1255262 ], [ 28.7071705, 47.1255137 ] ] } },
{ "type": "Feature", "properties": { "row_id": "V08-R021", "length_m": 9.3 }, "geometry": { "type": "LineString", "coordinates": [ [ 28.7071096, 47.1255036 ], [ 28.7069904, 47.1254842 ] ] } },
{ "type": "Feature", "properties": { "row_id": "V09-R003", "length_m": 10.25 }, "geometry": { "type": "LineString", "coordinates": [ [ 28.7074207, 47.1254891 ], [ 28.707289, 47.1254686 ] ] } },
{ "type": "Feature", "properties": { "row_id": "V09-R010", "length_m": 6.6 }, "geometry": { "type": "LineString", "coordinates": [ [ 28.7073029, 47.1253599 ], [ 28.7072185, 47.1253457 ] ] } },
{ "type": "Feature", "properties": { "row_id": "V10-R012", "length_m": 36.1 }, "geometry": { "type": "LineString", "coordinates": [ [ 28.7103761, 47.1223284 ], [ 28.7100973, 47.1225916 ] ] } },
{ "type": "Feature", "properties": { "row_id": "V10-R012", "length_m": 27.35 }, "geometry": { "type": "LineString", "coordinates": [ [ 28.7100757, 47.122612 ], [ 28.7098641, 47.1228112 ] ] } },
{ "type": "Feature", "properties": { "row_id": "V10-R014", "length_m": 5.01 }, "geometry": { "type": "LineString", "coordinates": [ [ 28.7092197, 47.1233746 ], [ 28.7091835, 47.1234122 ] ] } },
{ "type": "Feature", "properties": { "row_id": "V10-R019", "length_m": 5.36 }, "geometry": { "type": "LineString", "coordinates": [ [ 28.7091495, 47.1233559 ], [ 28.7091045, 47.123393 ] ] } },
{ "type": "Feature", "properties": { "row_id": "V10-R037", "length_m": 5.75 }, "geometry": { "type": "LineString", "coordinates": [ [ 28.7105154, 47.1217105 ], [ 28.7104693, 47.1217516 ] ] } },
{ "type": "Feature", "properties": { "row_id": "V10-R042", "length_m": 9.75 }, "geometry": { "type": "LineString", "coordinates": [ [ 28.7108251, 47.1212663 ], [ 28.7107527, 47.1213388 ] ] } },
{ "type": "Feature", "properties": { "row_id": "V10-R042", "length_m": 6.21 }, "geometry": { "type": "LineString", "coordinates": [ [ 28.7103949, 47.1217169 ], [ 28.7103508, 47.121764 ] ] } },
{ "type": "Feature", "properties": { "row_id": "V10-R044", "length_m": 5.1 }, "geometry": { "type": "LineString", "coordinates": [ [ 28.7087006, 47.1232798 ], [ 28.7086619, 47.1233173 ] ] } },
{ "type": "Feature", "properties": { "row_id": "V10-R049", "length_m": 5.1 }, "geometry": { "type": "LineString", "coordinates": [ [ 28.7102984, 47.1217057 ], [ 28.7102589, 47.1217428 ] ] } },
{ "type": "Feature", "properties": { "row_id": "V10-R049", "length_m": 6.05 }, "geometry": { "type": "LineString", "coordinates": [ [ 28.7096578, 47.1223038 ], [ 28.7096105, 47.1223476 ] ] } },
{ "type": "Feature", "properties": { "row_id": "V10-R085", "length_m": 17.43 }, "geometry": { "type": "LineString", "coordinates": [ [ 28.7105726, 47.1209218 ], [ 28.7104205, 47.1210393 ] ] } },
{ "type": "Feature", "properties": { "row_id": "V10-R153", "length_m": 5.15 }, "geometry": { "type": "LineString", "coordinates": [ [ 28.7078871, 47.1224414 ], [ 28.7078474, 47.122479 ] ] } },
{ "type": "Feature", "properties": { "row_id": "V10-R153", "length_m": 5.8 }, "geometry": { "type": "LineString", "coordinates": [ [ 28.7075536, 47.1227553 ], [ 28.7075085, 47.1227974 ] ] } },
{ "type": "Feature", "properties": { "row_id": "V10-R161", "length_m": 7.38 }, "geometry": { "type": "LineString", "coordinates": [ [ 28.7081172, 47.1220845 ], [ 28.7080667, 47.1221412 ] ] } },
{ "type": "Feature", "properties": { "row_id": "V10-R162", "length_m": 5.1 }, "geometry": { "type": "LineString", "coordinates": [ [ 28.7082946, 47.121851 ], [ 28.7082543, 47.1218877 ] ] } },
{ "type": "Feature", "properties": { "row_id": "V11-R006", "length_m": 6.05 }, "geometry": { "type": "LineString", "coordinates": [ [ 28.7121684, 47.1205325 ], [ 28.7121215, 47.1205765 ] ] } },
{ "type": "Feature", "properties": { "row_id": "V12-R002", "length_m": 5.05 }, "geometry": { "type": "LineString", "coordinates": [ [ 28.7109521, 47.1206201 ], [ 28.7109124, 47.1206566 ] ] } },
{ "type": "Feature", "properties": { "row_id": "V12-R004", "length_m": 5.9 }, "geometry": { "type": "LineString", "coordinates": [ [ 28.7112742, 47.1202916 ], [ 28.7112269, 47.1203338 ] ] } },
{ "type": "Feature", "properties": { "row_id": "V12-R005", "length_m": 5.85 }, "geometry": { "type": "LineString", "coordinates": [ [ 28.711259, 47.1202858 ], [ 28.7112124, 47.1203277 ] ] } },
{ "type": "Feature", "properties": { "row_id": "V14-R005", "length_m": 7.4 }, "geometry": { "type": "LineString", "coordinates": [ [ 28.7119294, 47.1206108 ], [ 28.7118716, 47.1206644 ] ] } },
{ "type": "Feature", "properties": { "row_id": "V14-R005", "length_m": 10.35 }, "geometry": { "type": "LineString", "coordinates": [ [ 28.7118704, 47.1206655 ], [ 28.7117895, 47.1207405 ] ] } },
{ "type": "Feature", "properties": { "row_id": "V14-R009", "length_m": 7.95 }, "geometry": { "type": "LineString", "coordinates": [ [ 28.7134989, 47.1190807 ], [ 28.7134375, 47.1191387 ] ] } },
{ "type": "Feature", "properties": { "row_id": "V14-R014", "length_m": 6.76 }, "geometry": { "type": "LineString", "coordinates": [ [ 28.713133, 47.1193237 ], [ 28.7130895, 47.1193768 ] ] } },
{ "type": "Feature", "properties": { "row_id": "V14-R014", "length_m": 5.44 }, "geometry": { "type": "LineString", "coordinates": [ [ 28.7130892, 47.1193772 ], [ 28.7130537, 47.1194198 ] ] } },
{ "type": "Feature", "properties": { "row_id": "V14-R020", "length_m": 5.72 }, "geometry": { "type": "LineString", "coordinates": [ [ 28.7130858, 47.1193299 ], [ 28.7130461, 47.1193737 ] ] } },
{ "type": "Feature", "properties": { "row_id": "V14-R023", "length_m": 7.71 }, "geometry": { "type": "LineString", "coordinates": [ [ 28.7137481, 47.118681 ], [ 28.7136913, 47.1187385 ] ] } },
{ "type": "Feature", "properties": { "row_id": "V14-R025", "length_m": 7.2 }, "geometry": { "type": "LineString", "coordinates": [ [ 28.7137311, 47.1186763 ], [ 28.7136745, 47.1187283 ] ] } },
{ "type": "Feature", "properties": { "row_id": "V14-R026", "length_m": 16.53 }, "geometry": { "type": "LineString", "coordinates": [ [ 28.7123255, 47.1200125 ], [ 28.7121804, 47.1201235 ] ] } },
{ "type": "Feature", "properties": { "row_id": "V14-R026", "length_m": 5.47 }, "geometry": { "type": "LineString", "coordinates": [ [ 28.7121612, 47.1201384 ], [ 28.7121136, 47.1201755 ] ] } },
{ "type": "Feature", "properties": { "row_id": "V14-R028", "length_m": 5.2 }, "geometry": { "type": "LineString", "coordinates": [ [ 28.7128301, 47.1195084 ], [ 28.7127886, 47.1195456 ] ] } },
{ "type": "Feature", "properties": { "row_id": "V14-R028", "length_m": 6.95 }, "geometry": { "type": "LineString", "coordinates": [ [ 28.7127822, 47.1195513 ], [ 28.7127273, 47.1196013 ] ] } },
{ "type": "Feature", "properties": { "row_id": "V14-R028", "length_m": 15.25 }, "geometry": { "type": "LineString", "coordinates": [ [ 28.7127115, 47.1196157 ], [ 28.7125906, 47.1197254 ] ] } },
{ "type": "Feature", "properties": { "row_id": "V14-R031", "length_m": 8.65 }, "geometry": { "type": "LineString", "coordinates": [ [ 28.7127303, 47.1195551 ], [ 28.7126622, 47.1196175 ] ] } },
{ "type": "Feature", "properties": { "row_id": "V14-R035", "length_m": 5.65 }, "geometry": { "type": "LineString", "coordinates": [ [ 28.7126798, 47.1195586 ], [ 28.7126352, 47.1195992 ] ] } },
{ "type": "Feature", "properties": { "row_id": "V14-R035", "length_m": 6.5 }, "geometry": { "type": "LineString", "coordinates": [ [ 28.7126336, 47.1196007 ], [ 28.7125819, 47.1196473 ] ] } },
{ "type": "Feature", "properties": { "row_id": "V14-R035", "length_m": 5.65 }, "geometry": { "type": "LineString", "coordinates": [ [ 28.7125779, 47.1196509 ], [ 28.712533, 47.1196914 ] ] } },
{ "type": "Feature", "properties": { "row_id": "V14-R035", "length_m": 5.3 }, "geometry": { "type": "LineString", "coordinates": [ [ 28.7124592, 47.1197582 ], [ 28.7124172, 47.1197963 ] ] } },
{ "type": "Feature", "properties": { "row_id": "V14-R037", "length_m": 7.37 }, "geometry": { "type": "LineString", "coordinates": [ [ 28.7119402, 47.1202162 ], [ 28.7118776, 47.1202669 ] ] } },
{ "type": "Feature", "properties": { "row_id": "V14-R039", "length_m": 5.1 }, "geometry": { "type": "LineString", "coordinates": [ [ 28.712573, 47.1196118 ], [ 28.7125317, 47.1196481 ] ] } },
{ "type": "Feature", "properties": { "row_id": "V14-R050", "length_m": 6.8 }, "geometry": { "type": "LineString", "coordinates": [ [ 28.7121509, 47.119858 ], [ 28.7120973, 47.119907 ] ] } },
{ "type": "Feature", "properties": { "row_id": "V14-R051", "length_m": 10.32 }, "geometry": { "type": "LineString", "coordinates": [ [ 28.7127502, 47.1192821 ], [ 28.712676, 47.1193599 ] ] } },
{ "type": "Feature", "properties": { "row_id": "V14-R051", "length_m": 7.37 }, "geometry": { "type": "LineString", "coordinates": [ [ 28.7126734, 47.1193625 ], [ 28.7126204, 47.1194181 ] ] } },
{ "type": "Feature", "properties": { "row_id": "V14-R051", "length_m": 6.95 }, "geometry": { "type": "LineString", "coordinates": [ [ 28.7124253, 47.1196072 ], [ 28.7123709, 47.1196575 ] ] } },
{ "type": "Feature", "properties": { "row_id": "V14-R051", "length_m": 5.3 }, "geometry": { "type": "LineString", "coordinates": [ [ 28.7123454, 47.119681 ], [ 28.7123028, 47.1197188 ] ] } },
{ "type": "Feature", "properties": { "row_id": "V14-R053", "length_m": 6.35 }, "geometry": { "type": "LineString", "coordinates": [ [ 28.71172, 47.120222 ], [ 28.7116692, 47.1202674 ] ] } },
{ "type": "Feature", "properties": { "row_id": "V14-R056", "length_m": 6.25 }, "geometry": { "type": "LineString", "coordinates": [ [ 28.7136091, 47.1184506 ], [ 28.7135593, 47.1184954 ] ] } },
{ "type": "Feature", "properties": { "row_id": "V14-R056", "length_m": 6.4 }, "geometry": { "type": "LineString", "coordinates": [ [ 28.7135411, 47.118512 ], [ 28.7134905, 47.118558 ] ] } },
{ "type": "Feature", "properties": { "row_id": "V14-R058", "length_m": 5.05 }, "geometry": { "type": "LineString", "coordinates": [ [ 28.7126532, 47.1193123 ], [ 28.7126131, 47.1193486 ] ] } },
{ "type": "Feature", "properties": { "row_id": "V14-R058", "length_m": 10.15 }, "geometry": { "type": "LineString", "coordinates": [ [ 28.7125819, 47.119377 ], [ 28.7125017, 47.1194501 ] ] } },
{ "type": "Feature", "properties": { "row_id": "V14-R058", "length_m": 7.05 }, "geometry": { "type": "LineString", "coordinates": [ [ 28.7124753, 47.1194743 ], [ 28.7124196, 47.119525 ] ] } },
{ "type": "Feature", "properties": { "row_id": "V14-R061", "length_m": 5.56 }, "geometry": { "type": "LineString", "coordinates": [ [ 28.7135657, 47.1184532 ], [ 28.713519, 47.1184917 ] ] } },
{ "type": "Feature", "properties": { "row_id": "V14-R073", "length_m": 6.35 }, "geometry": { "type": "LineString", "coordinates": [ [ 28.7126896, 47.1191135 ], [ 28.7126401, 47.1191595 ] ] } },
{ "type": "Feature", "properties": { "row_id": "V15-R001", "length_m": 26.6 }, "geometry": { "type": "LineString", "coordinates": [ [ 28.7115792, 47.1181841 ], [ 28.7113843, 47.118383 ] ] } },
{ "type": "Feature", "properties": { "row_id": "V15-R004", "length_m": 8.4 }, "geometry": { "type": "LineString", "coordinates": [ [ 28.7114289, 47.1182767 ], [ 28.71137, 47.1183408 ] ] } },
{ "type": "Feature", "properties": { "row_id": "V15-R004", "length_m": 10.2 }, "geometry": { "type": "LineString", "coordinates": [ [ 28.7113458, 47.1183671 ], [ 28.7112743, 47.1184448 ] ] } },
{ "type": "Feature", "properties": { "row_id": "V15-R005", "length_m": 5.55 }, "geometry": { "type": "LineString", "coordinates": [ [ 28.7116099, 47.1180639 ], [ 28.7115686, 47.1181051 ] ] } },
{ "type": "Feature", "properties": { "row_id": "V15-R005", "length_m": 6.4 }, "geometry": { "type": "LineString", "coordinates": [ [ 28.7115367, 47.1181371 ], [ 28.7114891, 47.1181846 ] ] } },
{ "type": "Feature", "properties": { "row_id": "V15-R005", "length_m": 18.95 }, "geometry": { "type": "LineString", "coordinates": [ [ 28.7114096, 47.1182642 ], [ 28.7112708, 47.1184059 ] ] } },
{ "type": "Feature", "properties": { "row_id": "V15-R016", "length_m": 6.31 }, "geometry": { "type": "LineString", "coordinates": [ [ 28.7113722, 47.1177811 ], [ 28.7113228, 47.1178267 ] ] } },
{ "type": "Feature", "properties": { "row_id": "V15-R017", "length_m": 7.2 }, "geometry": { "type": "LineString", "coordinates": [ [ 28.7111709, 47.1179549 ], [ 28.7111168, 47.1180081 ] ] } },
{ "type": "Feature", "properties": { "row_id": "V16-R006", "length_m": 6.0 }, "geometry": { "type": "LineString", "coordinates": [ [ 28.7169776, 47.1175727 ], [ 28.71694, 47.1176202 ] ] } },
{ "type": "Feature", "properties": { "row_id": "V16-R006", "length_m": 15.1 }, "geometry": { "type": "LineString", "coordinates": [ [ 28.7169261, 47.1176376 ], [ 28.7168314, 47.117757 ] ] } },
{ "type": "Feature", "properties": { "row_id": "V16-R006", "length_m": 8.57 }, "geometry": { "type": "LineString", "coordinates": [ [ 28.7165475, 47.1182245 ], [ 28.7165082, 47.1182968 ] ] } },
{ "type": "Feature", "properties": { "row_id": "V16-R007", "length_m": 6.2 }, "geometry": { "type": "LineString", "coordinates": [ [ 28.7168549, 47.1176928 ], [ 28.7168167, 47.1177421 ] ] } },
{ "type": "Feature", "properties": { "row_id": "V16-R014", "length_m": 5.5 }, "geometry": { "type": "LineString", "coordinates": [ [ 28.7161596, 47.118368 ], [ 28.7161231, 47.1184108 ] ] } },
{ "type": "Feature", "properties": { "row_id": "V16-R018", "length_m": 5.75 }, "geometry": { "type": "LineString", "coordinates": [ [ 28.7161224, 47.1182961 ], [ 28.7160892, 47.1183426 ] ] } },
{ "type": "Feature", "properties": { "row_id": "V16-R019", "length_m": 8.0 }, "geometry": { "type": "LineString", "coordinates": [ [ 28.7162135, 47.118128 ], [ 28.7161643, 47.1181916 ] ] } },
{ "type": "Feature", "properties": { "row_id": "V16-R019", "length_m": 6.45 }, "geometry": { "type": "LineString", "coordinates": [ [ 28.7161012, 47.1182732 ], [ 28.7160615, 47.1183245 ] ] } },
{ "type": "Feature", "properties": { "row_id": "V17-R013", "length_m": 23.1 }, "geometry": { "type": "LineString", "coordinates": [ [ 28.7119753, 47.1177764 ], [ 28.7117787, 47.1176177 ] ] } },
{ "type": "Feature", "properties": { "row_id": "V17-R013", "length_m": 5.55 }, "geometry": { "type": "LineString", "coordinates": [ [ 28.7117643, 47.117606 ], [ 28.711717, 47.1175678 ] ] } },
{ "type": "Feature", "properties": { "row_id": "V17-R021", "length_m": 12.71 }, "geometry": { "type": "LineString", "coordinates": [ [ 28.7120701, 47.1176337 ], [ 28.71196, 47.1175476 ] ] } },
{ "type": "Feature", "properties": { "row_id": "V17-R022", "length_m": 6.81 }, "geometry": { "type": "LineString", "coordinates": [ [ 28.712035, 47.1175859 ], [ 28.711974, 47.1175409 ] ] } },
{ "type": "Feature", "properties": { "row_id": "V17-R022", "length_m": 6.46 }, "geometry": { "type": "LineString", "coordinates": [ [ 28.7119681, 47.1175366 ], [ 28.7119102, 47.117494 ] ] } },
{ "type": "Feature", "properties": { "row_id": "V18-R003", "length_m": 6.7 }, "geometry": { "type": "LineString", "coordinates": [ [ 28.7136689, 47.1174658 ], [ 28.7136101, 47.1174208 ] ] } },
{ "type": "Feature", "properties": { "row_id": "V18-R005", "length_m": 9.21 }, "geometry": { "type": "LineString", "coordinates": [ [ 28.713693, 47.1174481 ], [ 28.7136085, 47.1173886 ] ] } },
{ "type": "Feature", "properties": { "row_id": "V18-R011", "length_m": 5.55 }, "geometry": { "type": "LineString", "coordinates": [ [ 28.7138832, 47.1174022 ], [ 28.7138349, 47.1173647 ] ] } },
{ "type": "Feature", "properties": { "row_id": "V18-R011", "length_m": 5.6 }, "geometry": { "type": "LineString", "coordinates": [ [ 28.7138288, 47.11736 ], [ 28.7137797, 47.1173224 ] ] } },
{ "type": "Feature", "properties": { "row_id": "V18-R020", "length_m": 7.05 }, "geometry": { "type": "LineString", "coordinates": [ [ 28.7140407, 47.1173323 ], [ 28.7139782, 47.1172853 ] ] } },
{ "type": "Feature", "properties": { "row_id": "V18-R020", "length_m": 5.3 }, "geometry": { "type": "LineString", "coordinates": [ [ 28.7138848, 47.1172139 ], [ 28.7138383, 47.1171783 ] ] } },
{ "type": "Feature", "properties": { "row_id": "V18-R022", "length_m": 11.2 }, "geometry": { "type": "LineString", "coordinates": [ [ 28.7140936, 47.1173423 ], [ 28.7139954, 47.1172671 ] ] } },
{ "type": "Feature", "properties": { "row_id": "V18-R022", "length_m": 7.35 }, "geometry": { "type": "LineString", "coordinates": [ [ 28.7138872, 47.1171846 ], [ 28.713822, 47.1171358 ] ] } },
{ "type": "Feature", "properties": { "row_id": "V19-R017", "length_m": 5.45 }, "geometry": { "type": "LineString", "coordinates": [ [ 28.7128054, 47.1167745 ], [ 28.7127587, 47.1167373 ] ] } },
{ "type": "Feature", "properties": { "row_id": "V20-R013", "length_m": 13.25 }, "geometry": { "type": "LineString", "coordinates": [ [ 28.7154357, 47.1163058 ], [ 28.7153237, 47.1162143 ] ] } },
{ "type": "Feature", "properties": { "row_id": "V20-R014", "length_m": 8.85 }, "geometry": { "type": "LineString", "coordinates": [ [ 28.7154523, 47.1162536 ], [ 28.7153772, 47.1161927 ] ] } },
{ "type": "Feature", "properties": { "row_id": "V21-R004", "length_m": 8.05 }, "geometry": { "type": "LineString", "coordinates": [ [ 28.7137921, 47.1165988 ], [ 28.7137221, 47.1165443 ] ] } },
{ "type": "Feature", "properties": { "row_id": "V21-R004", "length_m": 15.25 }, "geometry": { "type": "LineString", "coordinates": [ [ 28.713716, 47.1165396 ], [ 28.7135819, 47.1164374 ] ] } },
{ "type": "Feature", "properties": { "row_id": "V21-R005", "length_m": 6.0 }, "geometry": { "type": "LineString", "coordinates": [ [ 28.7137375, 47.1165234 ], [ 28.7136861, 47.1164824 ] ] } },
{ "type": "Feature", "properties": { "row_id": "V21-R005", "length_m": 8.05 }, "geometry": { "type": "LineString", "coordinates": [ [ 28.7136826, 47.1164796 ], [ 28.7136136, 47.1164246 ] ] } },
{ "type": "Feature", "properties": { "row_id": "V21-R006", "length_m": 6.05 }, "geometry": { "type": "LineString", "coordinates": [ [ 28.7136986, 47.1164637 ], [ 28.7136458, 47.1164229 ] ] } },
{ "type": "Feature", "properties": { "row_id": "V21-R015", "length_m": 5.36 }, "geometry": { "type": "LineString", "coordinates": [ [ 28.71379, 47.1163181 ], [ 28.7137476, 47.1162795 ] ] } },
{ "type": "Feature", "properties": { "row_id": "V21-R022", "length_m": 5.4 }, "geometry": { "type": "LineString", "coordinates": [ [ 28.7139466, 47.1162839 ], [ 28.7139001, 47.1162472 ] ] } },
{ "type": "Feature", "properties": { "row_id": "V21-R025", "length_m": 17.15 }, "geometry": { "type": "LineString", "coordinates": [ [ 28.7139412, 47.1162194 ], [ 28.7137933, 47.1161027 ] ] } },
{ "type": "Feature", "properties": { "row_id": "V21-R027", "length_m": 10.55 }, "geometry": { "type": "LineString", "coordinates": [ [ 28.7140476, 47.1162469 ], [ 28.7139591, 47.1161737 ] ] } },
{ "type": "Feature", "properties": { "row_id": "V22-R001", "length_m": 9.05 }, "geometry": { "type": "LineString", "coordinates": [ [ 28.7181427, 47.1157721 ], [ 28.7180497, 47.1157211 ] ] } },
{ "type": "Feature", "properties": { "row_id": "V22-R006", "length_m": 5.45 }, "geometry": { "type": "LineString", "coordinates": [ [ 28.7181286, 47.1156243 ], [ 28.7180732, 47.1155931 ] ] } },
{ "type": "Feature", "properties": { "row_id": "V23-R003", "length_m": 7.4 }, "geometry": { "type": "LineString", "coordinates": [ [ 28.7151206, 47.1157045 ], [ 28.7150566, 47.1156542 ] ] } },
{ "type": "Feature", "properties": { "row_id": "V23-R004", "length_m": 6.86 }, "geometry": { "type": "LineString", "coordinates": [ [ 28.7153211, 47.1158435 ], [ 28.7152594, 47.1157983 ] ] } },
{ "type": "Feature", "properties": { "row_id": "V23-R004", "length_m": 6.76 }, "geometry": { "type": "LineString", "coordinates": [ [ 28.7151257, 47.1156981 ], [ 28.7150658, 47.1156531 ] ] } },
{ "type": "Feature", "properties": { "row_id": "V23-R006", "length_m": 9.06 }, "geometry": { "type": "LineString", "coordinates": [ [ 28.7151212, 47.1157228 ], [ 28.7150561, 47.1156545 ] ] } },
{ "type": "Feature", "properties": { "row_id": "V23-R017", "length_m": 5.2 }, "geometry": { "type": "LineString", "coordinates": [ [ 28.7153816, 47.1155869 ], [ 28.715338, 47.1155508 ] ] } },
{ "type": "Feature", "properties": { "row_id": "V23-R019", "length_m": 7.0 }, "geometry": { "type": "LineString", "coordinates": [ [ 28.7153987, 47.1155511 ], [ 28.7153413, 47.1155017 ] ] } },
{ "type": "Feature", "properties": { "row_id": "V23-R020", "length_m": 6.45 }, "geometry": { "type": "LineString", "coordinates": [ [ 28.7154914, 47.1155922 ], [ 28.7154296, 47.1155523 ] ] } },
{ "type": "Feature", "properties": { "row_id": "V23-R020", "length_m": 7.26 }, "geometry": { "type": "LineString", "coordinates": [ [ 28.7154171, 47.1155442 ], [ 28.7153473, 47.1154995 ] ] } },
{ "type": "Feature", "properties": { "row_id": "V24-R004", "length_m": 5.81 }, "geometry": { "type": "LineString", "coordinates": [ [ 28.7174583, 47.1155518 ], [ 28.7174135, 47.1155095 ] ] } },
{ "type": "Feature", "properties": { "row_id": "V24-R004", "length_m": 8.02 }, "geometry": { "type": "LineString", "coordinates": [ [ 28.7171488, 47.1152621 ], [ 28.7170847, 47.1152047 ] ] } },
{ "type": "Feature", "properties": { "row_id": "V24-R007", "length_m": 9.46 }, "geometry": { "type": "LineString", "coordinates": [ [ 28.7174784, 47.1154939 ], [ 28.7174059, 47.1154247 ] ] } },
{ "type": "Feature", "properties": { "row_id": "V24-R008", "length_m": 8.65 }, "geometry": { "type": "LineString", "coordinates": [ [ 28.7174607, 47.1154556 ], [ 28.7173971, 47.115391 ] ] } },
{ "type": "Feature", "properties": { "row_id": "V24-R014", "length_m": 10.0 }, "geometry": { "type": "LineString", "coordinates": [ [ 28.7176506, 47.115436 ], [ 28.7175777, 47.115361 ] ] } },
{ "type": "Feature", "properties": { "row_id": "V24-R021", "length_m": 15.35 }, "geometry": { "type": "LineString", "coordinates": [ [ 28.7178026, 47.1153102 ], [ 28.7176904, 47.1151952 ] ] } },
{ "type": "Feature", "properties": { "row_id": "V24-R021", "length_m": 5.35 }, "geometry": { "type": "LineString", "coordinates": [ [ 28.7176901, 47.1151949 ], [ 28.717651, 47.1151548 ] ] } },
{ "type": "Feature", "properties": { "row_id": "V24-R025", "length_m": 6.35 }, "geometry": { "type": "LineString", "coordinates": [ [ 28.7177902, 47.1151459 ], [ 28.7177427, 47.1150988 ] ] } },
{ "type": "Feature", "properties": { "row_id": "V24-R026", "length_m": 9.8 }, "geometry": { "type": "LineString", "coordinates": [ [ 28.717829, 47.1151453 ], [ 28.7177559, 47.1150726 ] ] } },
{ "type": "Feature", "properties": { "row_id": "V24-R027", "length_m": 9.36 }, "geometry": { "type": "LineString", "coordinates": [ [ 28.7178528, 47.115132 ], [ 28.7177819, 47.1150631 ] ] } },
{ "type": "Feature", "properties": { "row_id": "V24-R030", "length_m": 7.0 }, "geometry": { "type": "LineString", "coordinates": [ [ 28.7178165, 47.1150176 ], [ 28.7177644, 47.1149656 ] ] } },
{ "type": "Feature", "properties": { "row_id": "V24-R030", "length_m": 5.8 }, "geometry": { "type": "LineString", "coordinates": [ [ 28.7176141, 47.1148107 ], [ 28.7175724, 47.114767 ] ] } },
{ "type": "Feature", "properties": { "row_id": "V24-R031", "length_m": 6.7 }, "geometry": { "type": "LineString", "coordinates": [ [ 28.7179011, 47.1150454 ], [ 28.7178527, 47.114995 ] ] } },
{ "type": "Feature", "properties": { "row_id": "V24-R032", "length_m": 6.35 }, "geometry": { "type": "LineString", "coordinates": [ [ 28.7179506, 47.1150599 ], [ 28.7179048, 47.1150121 ] ] } },
{ "type": "Feature", "properties": { "row_id": "V24-R033", "length_m": 6.45 }, "geometry": { "type": "LineString", "coordinates": [ [ 28.717962, 47.1150295 ], [ 28.7179147, 47.1149813 ] ] } },
{ "type": "Feature", "properties": { "row_id": "V24-R033", "length_m": 7.8 }, "geometry": { "type": "LineString", "coordinates": [ [ 28.7178059, 47.1148649 ], [ 28.7177497, 47.1148062 ] ] } },
{ "type": "Feature", "properties": { "row_id": "V24-R034", "length_m": 9.3 }, "geometry": { "type": "LineString", "coordinates": [ [ 28.7179199, 47.1149484 ], [ 28.7178527, 47.1148784 ] ] } },
{ "type": "Feature", "properties": { "row_id": "V24-R035", "length_m": 5.65 }, "geometry": { "type": "LineString", "coordinates": [ [ 28.7176984, 47.1146748 ], [ 28.7176572, 47.1146325 ] ] } },
{ "type": "Feature", "properties": { "row_id": "V24-R042", "length_m": 6.75 }, "geometry": { "type": "LineString", "coordinates": [ [ 28.7182968, 47.115028 ], [ 28.7182496, 47.1149765 ] ] } },
{ "type": "Feature", "properties": { "row_id": "V24-R042", "length_m": 12.0 }, "geometry": { "type": "LineString", "coordinates": [ [ 28.7179797, 47.1146934 ], [ 28.7178934, 47.1146029 ] ] } },
{ "type": "Feature", "properties": { "row_id": "V24-R051", "length_m": 5.7 }, "geometry": { "type": "LineString", "coordinates": [ [ 28.7181269, 47.1146338 ], [ 28.7180781, 47.1145948 ] ] } },
{ "type": "Feature", "properties": { "row_id": "V24-R053", "length_m": 7.77 }, "geometry": { "type": "LineString", "coordinates": [ [ 28.7180712, 47.1145562 ], [ 28.7180103, 47.1145001 ] ] } },
{ "type": "Feature", "properties": { "row_id": "V26-R006", "length_m": 8.7 }, "geometry": { "type": "LineString", "coordinates": [ [ 28.7169586, 47.1146557 ], [ 28.7168947, 47.1145907 ] ] } },
{ "type": "Feature", "properties": { "row_id": "V26-R009", "length_m": 5.65 }, "geometry": { "type": "LineString", "coordinates": [ [ 28.716952, 47.1148565 ], [ 28.7169105, 47.1148143 ] ] } },
{ "type": "Feature", "properties": { "row_id": "V26-R009", "length_m": 10.55 }, "geometry": { "type": "LineString", "coordinates": [ [ 28.7166968, 47.1145979 ], [ 28.7166193, 47.1145191 ] ] } },
{ "type": "Feature", "properties": { "row_id": "V26-R009", "length_m": 5.1 }, "geometry": { "type": "LineString", "coordinates": [ [ 28.7165929, 47.1144922 ], [ 28.7165557, 47.114454 ] ] } },
{ "type": "Feature", "properties": { "row_id": "V26-R012", "length_m": 6.95 }, "geometry": { "type": "LineString", "coordinates": [ [ 28.7170237, 47.1146806 ], [ 28.7169727, 47.1146286 ] ] } },
{ "type": "Feature", "properties": { "row_id": "V26-R012", "length_m": 7.85 }, "geometry": { "type": "LineString", "coordinates": [ [ 28.7168888, 47.1145441 ], [ 28.7168305, 47.1144857 ] ] } },
{ "type": "Feature", "properties": { "row_id": "V26-R015", "length_m": 10.33 }, "geometry": { "type": "LineString", "coordinates": [ [ 28.7172814, 47.1147976 ], [ 28.7171972, 47.1147246 ] ] } },
{ "type": "Feature", "properties": { "row_id": "V26-R015", "length_m": 12.25 }, "geometry": { "type": "LineString", "coordinates": [ [ 28.7170669, 47.1145941 ], [ 28.7169769, 47.1145026 ] ] } },
{ "type": "Feature", "properties": { "row_id": "V26-R017", "length_m": 7.8 }, "geometry": { "type": "LineString", "coordinates": [ [ 28.7169252, 47.1144927 ], [ 28.716868, 47.1144344 ] ] } },
{ "type": "Feature", "properties": { "row_id": "V26-R017", "length_m": 5.1 }, "geometry": { "type": "LineString", "coordinates": [ [ 28.7168586, 47.1144246 ], [ 28.7168215, 47.1143864 ] ] } },
{ "type": "Feature", "properties": { "row_id": "V26-R018", "length_m": 5.26 }, "geometry": { "type": "LineString", "coordinates": [ [ 28.7171454, 47.1145152 ], [ 28.7171035, 47.1144775 ] ] } },
{ "type": "Feature", "properties": { "row_id": "V26-R018", "length_m": 7.41 }, "geometry": { "type": "LineString", "coordinates": [ [ 28.7170281, 47.1144097 ], [ 28.7169691, 47.1143566 ] ] } },
{ "type": "Feature", "properties": { "row_id": "V26-R021", "length_m": 7.36 }, "geometry": { "type": "LineString", "coordinates": [ [ 28.7171686, 47.1146277 ], [ 28.71711, 47.1145749 ] ] } },
{ "type": "Feature", "properties": { "row_id": "V26-R021", "length_m": 5.06 }, "geometry": { "type": "LineString", "coordinates": [ [ 28.7170132, 47.1144876 ], [ 28.716973, 47.1144513 ] ] } },
{ "type": "Feature", "properties": { "row_id": "V26-R031", "length_m": 5.5 }, "geometry": { "type": "LineString", "coordinates": [ [ 28.7163502, 47.1142571 ], [ 28.716294, 47.1142884 ] ] } },
{ "type": "Feature", "properties": { "row_id": "V26-R031", "length_m": 5.15 }, "geometry": { "type": "LineString", "coordinates": [ [ 28.7161703, 47.1143571 ], [ 28.7161177, 47.1143864 ] ] } },
{ "type": "Feature", "properties": { "row_id": "V26-R034", "length_m": 8.55 }, "geometry": { "type": "LineString", "coordinates": [ [ 28.7173838, 47.1144178 ], [ 28.7173195, 47.1143547 ] ] } },
{ "type": "Feature", "properties": { "row_id": "V26-R034", "length_m": 5.9 }, "geometry": { "type": "LineString", "coordinates": [ [ 28.7173131, 47.1143484 ], [ 28.7172687, 47.1143048 ] ] } },
{ "type": "Feature", "properties": { "row_id": "V26-R034", "length_m": 10.75 }, "geometry": { "type": "LineString", "coordinates": [ [ 28.7171988, 47.1142366 ], [ 28.7171177, 47.1141573 ] ] } },
{ "type": "Feature", "properties": { "row_id": "V26-R035", "length_m": 10.94 }, "geometry": { "type": "LineString", "coordinates": [ [ 28.7171923, 47.1142407 ], [ 28.7171214, 47.1141551 ] ] } },
{ "type": "Feature", "properties": { "row_id": "V26-R035", "length_m": 6.42 }, "geometry": { "type": "LineString", "coordinates": [ [ 28.7170967, 47.1141252 ], [ 28.717055, 47.1140749 ] ] } },
{ "type": "Feature", "properties": { "row_id": "V26-R035", "length_m": 10.03 }, "geometry": { "type": "LineString", "coordinates": [ [ 28.7170537, 47.1140733 ], [ 28.7169887, 47.1139947 ] ] } },
{ "type": "Feature", "properties": { "row_id": "V26-R037", "length_m": 8.0 }, "geometry": { "type": "LineString", "coordinates": [ [ 28.716724, 47.1141024 ], [ 28.7166408, 47.1141466 ] ] } },
{ "type": "Feature", "properties": { "row_id": "V26-R039", "length_m": 11.65 }, "geometry": { "type": "LineString", "coordinates": [ [ 28.716942, 47.113954 ], [ 28.7168219, 47.1140193 ] ] } },
{ "type": "Feature", "properties": { "row_id": "V26-R039", "length_m": 8.05 }, "geometry": { "type": "LineString", "coordinates": [ [ 28.7167112, 47.1140796 ], [ 28.7166286, 47.114125 ] ] } },
{ "type": "Feature", "properties": { "row_id": "V26-R039", "length_m": 7.45 }, "geometry": { "type": "LineString", "coordinates": [ [ 28.7163997, 47.114253 ], [ 28.7163238, 47.1142955 ] ] } },
{ "type": "Feature", "properties": { "row_id": "V26-R039", "length_m": 6.65 }, "geometry": { "type": "LineString", "coordinates": [ [ 28.7162085, 47.114362 ], [ 28.7161423, 47.1144012 ] ] } },
{ "type": "Feature", "properties": { "row_id": "V26-R040", "length_m": 6.55 }, "geometry": { "type": "LineString", "coordinates": [ [ 28.7173972, 47.1143872 ], [ 28.7173501, 47.1143378 ] ] } },
{ "type": "Feature", "properties": { "row_id": "V26-R040", "length_m": 6.4 }, "geometry": { "type": "LineString", "coordinates": [ [ 28.7172625, 47.1142473 ], [ 28.7172169, 47.1141989 ] ] } },
{ "type": "Feature", "properties": { "row_id": "V26-R044", "length_m": 8.9 }, "geometry": { "type": "LineString", "coordinates": [ [ 28.7172596, 47.1142623 ], [ 28.7171955, 47.1141952 ] ] } },
{ "type": "Feature", "properties": { "row_id": "V26-R044", "length_m": 6.9 }, "geometry": { "type": "LineString", "coordinates": [ [ 28.7171934, 47.1141929 ], [ 28.7171437, 47.1141409 ] ] } },
{ "type": "Feature", "properties": { "row_id": "V26-R047", "length_m": 6.45 }, "geometry": { "type": "LineString", "coordinates": [ [ 28.7169382, 47.1138796 ], [ 28.7168723, 47.1139163 ] ] } },
{ "type": "Feature", "properties": { "row_id": "V26-R050", "length_m": 5.31 }, "geometry": { "type": "LineString", "coordinates": [ [ 28.7170165, 47.1137765 ], [ 28.7169604, 47.113805 ] ] } },
{ "type": "Feature", "properties": { "row_id": "V26-R050", "length_m": 5.75 }, "geometry": { "type": "LineString", "coordinates": [ [ 28.7159628, 47.1143571 ], [ 28.7159038, 47.1143896 ] ] } },
{ "type": "Feature", "properties": { "row_id": "V26-R057", "length_m": 5.05 }, "geometry": { "type": "LineString", "coordinates": [ [ 28.7164541, 47.1139592 ], [ 28.7164024, 47.1139878 ] ] } },
{ "type": "Feature", "properties": { "row_id": "V26-R057", "length_m": 6.0 }, "geometry": { "type": "LineString", "coordinates": [ [ 28.71629, 47.1140503 ], [ 28.7162298, 47.1140853 ] ] } },
{ "type": "Feature", "properties": { "row_id": "V26-R057", "length_m": 8.72 }, "geometry": { "type": "LineString", "coordinates": [ [ 28.7159511, 47.1142357 ], [ 28.7158572, 47.1142809 ] ] } },
{ "type": "Feature", "properties": { "row_id": "V26-R058", "length_m": 8.4 }, "geometry": { "type": "LineString", "coordinates": [ [ 28.7168453, 47.1136767 ], [ 28.7167595, 47.1137245 ] ] } },
{ "type": "Feature", "properties": { "row_id": "V26-R058", "length_m": 5.2 }, "geometry": { "type": "LineString", "coordinates": [ [ 28.7158765, 47.1142195 ], [ 28.7158234, 47.1142491 ] ] } },
{ "type": "Feature", "properties": { "row_id": "V26-R076", "length_m": 5.7 }, "geometry": { "type": "LineString", "coordinates": [ [ 28.7160179, 47.1138171 ], [ 28.7159603, 47.11385 ] ] } },
{ "type": "Feature", "properties": { "row_id": "V26-R076", "length_m": 5.55 }, "geometry": { "type": "LineString", "coordinates": [ [ 28.7159136, 47.1138763 ], [ 28.715857, 47.113908 ] ] } }
]
}
