{
"type": "FeatureCollection",
"name": "waste",
"crs": { "type": "name", "properties": { "name": "urn:ogc:def:crs:OGC:1.3:CRS84" } },
"xy_coordinate_resolution": 1e-07,
"features": [
{ "type": "Feature", "properties": { "waste_id": "W0001", "vineyard_id": "V04", "kind": "bright" }, "geometry": { "type": "Polygon", "coordinates": [ [ [ 28.7024193, 47.1284549 ], [ 28.7024195, 47.1284589 ], [ 28.7024109, 47.128459 ], [ 28.7024108, 47.128455 ], [ 28.7024193, 47.1284549 ] ] ] } },
{ "type": "Feature", "properties": { "waste_id": "W0002", "vineyard_id": "V04", "kind": "bright" }, "geometry": { "type": "Polygon", "coordinates": [ [ [ 28.7021234, 47.1284372 ], [ 28.7021235, 47.1284408 ], [ 28.7021189, 47.1284409 ], [ 28.7021188, 47.1284373 ], [ 28.7021234, 47.1284372 ] ] ] } },
{ "type": "Feature", "properties": { "waste_id": "W0003", "vineyard_id": "", "kind": "bright" }, "geometry": { "type": "Polygon", "coordinates": [ [ [ 28.7020788, 47.128257 ], [ 28.702079, 47.1282642 ], [ 28.7020711, 47.1282643 ], [ 28.7020709, 47.1282571 ], [ 28.7020788, 47.128257 ] ] ] } },
{ "type": "Feature", "properties": { "waste_id": "W0004", "vineyard_id": "V04", "kind": "bright" }, "geometry": { "type": "Polygon", "coordinates": [ [ [ 28.7021432, 47.1282515 ], [ 28.7021434, 47.1282587 ], [ 28.7021349, 47.1282589 ], [ 28.7021346, 47.1282517 ], [ 28.7021432, 47.1282515 ] ] ] } },
{ "type": "Feature", "properties": { "waste_id": "W0005", "vineyard_id": "V04", "kind": "bright" }, "geometry": { "type": "Polygon", "coordinates": [ [ [ 28.7021601, 47.128222 ], [ 28.7021603, 47.1282297 ], [ 28.7021478, 47.1282299 ], [ 28.7021475, 47.1282222 ], [ 28.7021601, 47.128222 ] ] ] } },
{ "type": "Feature", "properties": { "waste_id": "W0006", "vineyard_id": "", "kind": "bright" }, "geometry": { "type": "Polygon", "coordinates": [ [ [ 28.7020265, 47.128211 ], [ 28.702027, 47.1282258 ], [ 28.7020059, 47.1282261 ], [ 28.7020055, 47.1282113 ], [ 28.7020265, 47.128211 ] ] ] } },
{ "type": "Feature", "properties": { "waste_id": "W0007", "vineyard_id": "V04", "kind": "bright" }, "geometry": { "type": "Polygon", "coordinates": [ [ [ 28.7023268, 47.1281773 ], [ 28.7023269, 47.1281818 ], [ 28.7023203, 47.1281819 ], [ 28.7023202, 47.1281774 ], [ 28.7023268, 47.1281773 ] ] ] } },
{ "type": "Feature", "properties": { "waste_id": "W0008", "vineyard_id": "", "kind": "bright" }, "geometry": { "type": "Polygon", "coordinates": [ [ [ 28.7021908, 47.1281739 ], [ 28.702191, 47.1281779 ], [ 28.7021844, 47.128178 ], [ 28.7021842, 47.128174 ], [ 28.7021908, 47.1281739 ] ] ] } },
{ "type": "Feature", "properties": { "waste_id": "W0009", "vineyard_id": "", "kind": "bright" }, "geometry": { "type": "Polygon", "coordinates": [ [ [ 28.7020865, 47.12817 ], [ 28.7020867, 47.1281732 ], [ 28.7020807, 47.1281733 ], [ 28.7020806, 47.1281701 ], [ 28.7020865, 47.12817 ] ] ] } },
{ "type": "Feature", "properties": { "waste_id": "W0010", "vineyard_id": "", "kind": "bright" }, "geometry": { "type": "Polygon", "coordinates": [ [ [ 28.7021108, 47.1281661 ], [ 28.7021109, 47.1281697 ], [ 28.7021037, 47.1281698 ], [ 28.7021036, 47.1281662 ], [ 28.7021108, 47.1281661 ] ] ] } },
{ "type": "Feature", "properties": { "waste_id": "W0011", "vineyard_id": "V04", "kind": "bright" }, "geometry": { "type": "Polygon", "coordinates": [ [ [ 28.7023305, 47.1281502 ], [ 28.7023307, 47.1281552 ], [ 28.7023261, 47.1281552 ], [ 28.7023259, 47.1281503 ], [ 28.7023305, 47.1281502 ] ] ] } },
{ "type": "Feature", "properties": { "waste_id": "W0012", "vineyard_id": "V04", "kind": "bright" }, "geometry": { "type": "Polygon", "coordinates": [ [ [ 28.7021179, 47.128098 ], [ 28.7021179, 47.1281003 ], [ 28.702112, 47.1281004 ], [ 28.7021119, 47.1280981 ], [ 28.7021179, 47.128098 ] ] ] } },
{ "type": "Feature", "properties": { "waste_id": "W0013", "vineyard_id": "V04", "kind": "bright" }, "geometry": { "type": "Polygon", "coordinates": [ [ [ 28.7018528, 47.1279328 ], [ 28.7018531, 47.1279409 ], [ 28.7018465, 47.127941 ], [ 28.7018463, 47.1279329 ], [ 28.7018528, 47.1279328 ] ] ] } },
{ "type": "Feature", "properties": { "waste_id": "W0014", "vineyard_id": "V04", "kind": "bright" }, "geometry": { "type": "Polygon", "coordinates": [ [ [ 28.7018906, 47.1278139 ], [ 28.7018907, 47.1278179 ], [ 28.7018835, 47.127818 ], [ 28.7018833, 47.127814 ], [ 28.7018906, 47.1278139 ] ] ] } },
{ "type": "Feature", "properties": { "waste_id": "W0015", "vineyard_id": "V04", "kind": "bright" }, "geometry": { "type": "Polygon", "coordinates": [ [ [ 28.7047517, 47.1277479 ], [ 28.704752, 47.1277578 ], [ 28.7047428, 47.127758 ], [ 28.7047425, 47.1277481 ], [ 28.7047517, 47.1277479 ] ] ] } },
{ "type": "Feature", "properties": { "waste_id": "W0016", "vineyard_id": "", "kind": "bright" }, "geometry": { "type": "Polygon", "coordinates": [ [ [ 28.7010958, 47.1277596 ], [ 28.7010958, 47.1277618 ], [ 28.701084, 47.127762 ], [ 28.7010839, 47.1277597 ], [ 28.7010958, 47.1277596 ] ] ] } },
{ "type": "Feature", "properties": { "waste_id": "W0017", "vineyard_id": "V04", "kind": "bright" }, "geometry": { "type": "Polygon", "coordinates": [ [ [ 28.7048032, 47.1276689 ], [ 28.7048036, 47.127681 ], [ 28.7047825, 47.1276813 ], [ 28.7047821, 47.1276692 ], [ 28.7048032, 47.1276689 ] ] ] } },
{ "type": "Feature", "properties": { "waste_id": "W0018", "vineyard_id": "", "kind": "bright" }, "geometry": { "type": "Polygon", "coordinates": [ [ [ 28.7047527, 47.1275315 ], [ 28.7047529, 47.1275382 ], [ 28.7047483, 47.1275383 ], [ 28.7047481, 47.1275316 ], [ 28.7047527, 47.1275315 ] ] ] } },
{ "type": "Feature", "properties": { "waste_id": "W0019", "vineyard_id": "", "kind": "bright" }, "geometry": { "type": "Polygon", "coordinates": [ [ [ 28.7047716, 47.1275245 ], [ 28.7047717, 47.1275285 ], [ 28.7047631, 47.1275286 ], [ 28.704763, 47.1275246 ], [ 28.7047716, 47.1275245 ] ] ] } },
{ "type": "Feature", "properties": { "waste_id": "W0020", "vineyard_id": "V04", "kind": "bright" }, "geometry": { "type": "Polygon", "coordinates": [ [ [ 28.7044947, 47.127525 ], [ 28.7044949, 47.1275304 ], [ 28.7044896, 47.1275305 ], [ 28.7044894, 47.1275251 ], [ 28.7044947, 47.127525 ] ] ] } },
{ "type": "Feature", "properties": { "waste_id": "W0021", "vineyard_id": "V04", "kind": "bright" }, "geometry": { "type": "Polygon", "coordinates": [ [ [ 28.7043218, 47.1274772 ], [ 28.7043219, 47.1274812 ], [ 28.7043146, 47.1274813 ], [ 28.7043145, 47.1274773 ], [ 28.7043218, 47.1274772 ] ] ] } },
{ "type": "Feature", "properties": { "waste_id": "W0022", "vineyard_id": "V04", "kind": "bright" }, "geometry": { "type": "Polygon", "coordinates": [ [ [ 28.7042182, 47.1274333 ], [ 28.7042183, 47.1274364 ], [ 28.7042117, 47.1274365 ], [ 28.7042116, 47.1274334 ], [ 28.7042182, 47.1274333 ] ] ] } },
{ "type": "Feature", "properties": { "waste_id": "W0023", "vineyard_id": "V04", "kind": "bright" }, "geometry": { "type": "Polygon", "coordinates": [ [ [ 28.7036003, 47.1272233 ], [ 28.7036004, 47.127226 ], [ 28.7035932, 47.1272262 ], [ 28.7035931, 47.1272235 ], [ 28.7036003, 47.1272233 ] ] ] } },
{ "type": "Feature", "properties": { "waste_id": "W0024", "vineyard_id": "", "kind": "bright" }, "geometry": { "type": "Polygon", "coordinates": [ [ [ 28.7040744, 47.1271825 ], [ 28.7040745, 47.1271866 ], [ 28.7040639, 47.1271867 ], [ 28.7040638, 47.1271827 ], [ 28.7040744, 47.1271825 ] ] ] } },
{ "type": "Feature", "properties": { "waste_id": "W0025", "vineyard_id": "", "kind": "bright" }, "geometry": { "type": "Polygon", "coordinates": [ [ [ 28.7039391, 47.1271571 ], [ 28.7039392, 47.127163 ], [ 28.703934, 47.127163 ], [ 28.7039338, 47.1271572 ], [ 28.7039391, 47.1271571 ] ] ] } },
{ "type": "Feature", "properties": { "waste_id": "W0026", "vineyard_id": "V04", "kind": "bright" }, "geometry": { "type": "Polygon", "coordinates": [ [ [ 28.7032878, 47.1271173 ], [ 28.7032879, 47.1271223 ], [ 28.7032787, 47.1271224 ], [ 28.7032785, 47.1271174 ], [ 28.7032878, 47.1271173 ] ] ] } },
{ "type": "Feature", "properties": { "waste_id": "W0027", "vineyard_id": "", "kind": "bright" }, "geometry": { "type": "Polygon", "coordinates": [ [ [ 28.7055043, 47.1267302 ], [ 28.7055045, 47.126737 ], [ 28.705496, 47.1267371 ], [ 28.7054958, 47.1267303 ], [ 28.7055043, 47.1267302 ] ] ] } },
{ "type": "Feature", "properties": { "waste_id": "W0028", "vineyard_id": "", "kind": "bright" }, "geometry": { "type": "Polygon", "coordinates": [ [ [ 28.7022374, 47.1266591 ], [ 28.7022376, 47.1266654 ], [ 28.7022317, 47.1266655 ], [ 28.7022315, 47.1266592 ], [ 28.7022374, 47.1266591 ] ] ] } },
{ "type": "Feature", "properties": { "waste_id": "W0029", "vineyard_id": "V07", "kind": "bright" }, "geometry": { "type": "Polygon", "coordinates": [ [ [ 28.7035831, 47.1264767 ], [ 28.7035839, 47.126501 ], [ 28.7035661, 47.1265012 ], [ 28.7035653, 47.126477 ], [ 28.7035831, 47.1264767 ] ] ] } },
{ "type": "Feature", "properties": { "waste_id": "W0030", "vineyard_id": "V07", "kind": "bright" }, "geometry": { "type": "Polygon", "coordinates": [ [ [ 28.7036043, 47.126439 ], [ 28.7036046, 47.1264494 ], [ 28.7035802, 47.1264497 ], [ 28.7035799, 47.1264394 ], [ 28.7036043, 47.126439 ] ] ] } },
{ "type": "Feature", "properties": { "waste_id": "W0031", "vineyard_id": "", "kind": "bright" }, "geometry": { "type": "Polygon", "coordinates": [ [ [ 28.7070519, 47.1259553 ], [ 28.7070521, 47.1259638 ], [ 28.707033, 47.1259641 ], [ 28.7070327, 47.1259556 ], [ 28.7070519, 47.1259553 ] ] ] } },
{ "type": "Feature", "properties": { "waste_id": "W0032", "vineyard_id": "", "kind": "bright" }, "geometry": { "type": "Polygon", "coordinates": [ [ [ 28.707018, 47.1259464 ], [ 28.707018, 47.1259491 ], [ 28.7070121, 47.1259491 ], [ 28.707012, 47.1259464 ], [ 28.707018, 47.1259464 ] ] ] } },
{ "type": "Feature", "properties": { "waste_id": "W0033", "vineyard_id": "V08", "kind": "bright" }, "geometry": { "type": "Polygon", "coordinates": [ [ [ 28.7070882, 47.1258972 ], [ 28.7070883, 47.1258994 ], [ 28.7070784, 47.1258996 ], [ 28.7070784, 47.1258973 ], [ 28.7070882, 47.1258972 ] ] ] } },
{ "type": "Feature", "properties": { "waste_id": "W0034", "vineyard_id": "V08", "kind": "bright" }, "geometry": { "type": "Polygon", "coordinates": [ [ [ 28.7071092, 47.1258919 ], [ 28.7071094, 47.1258982 ], [ 28.7070982, 47.1258984 ], [ 28.707098, 47.1258921 ], [ 28.7071092, 47.1258919 ] ] ] } },
{ "type": "Feature", "properties": { "waste_id": "W0035", "vineyard_id": "V08", "kind": "bright" }, "geometry": { "type": "Polygon", "coordinates": [ [ [ 28.7071166, 47.1258783 ], [ 28.7071169, 47.1258855 ], [ 28.7070997, 47.1258857 ], [ 28.7070995, 47.1258785 ], [ 28.7071166, 47.1258783 ] ] ] } },
{ "type": "Feature", "properties": { "waste_id": "W0036", "vineyard_id": "V07", "kind": "bright" }, "geometry": { "type": "Polygon", "coordinates": [ [ [ 28.7037935, 47.1258823 ], [ 28.7037937, 47.1258882 ], [ 28.7037884, 47.1258883 ], [ 28.7037882, 47.1258824 ], [ 28.7037935, 47.1258823 ] ] ] } },
{ "type": "Feature", "properties": { "waste_id": "W0037", "vineyard_id": "", "kind": "bright" }, "geometry": { "type": "Polygon", "coordinates": [ [ [ 28.7065805, 47.1258102 ], [ 28.7065813, 47.125835 ], [ 28.7065701, 47.1258351 ], [ 28.7065693, 47.1258104 ], [ 28.7065805, 47.1258102 ] ] ] } },
{ "type": "Feature", "properties": { "waste_id": "W0038", "vineyard_id": "", "kind": "bright" }, "geometry": { "type": "Polygon", "coordinates": [ [ [ 28.7039783, 47.1258045 ], [ 28.7039784, 47.1258103 ], [ 28.7039659, 47.1258105 ], [ 28.7039657, 47.1258046 ], [ 28.7039783, 47.1258045 ] ] ] } },
{ "type": "Feature", "properties": { "waste_id": "W0039", "vineyard_id": "", "kind": "bright" }, "geometry": { "type": "Polygon", "coordinates": [ [ [ 28.703932, 47.1257804 ], [ 28.7039321, 47.1257831 ], [ 28.7039281, 47.1257831 ], [ 28.703928, 47.1257805 ], [ 28.703932, 47.1257804 ] ] ] } },
{ "type": "Feature", "properties": { "waste_id": "W0040", "vineyard_id": "V07", "kind": "bright" }, "geometry": { "type": "Polygon", "coordinates": [ [ [ 28.703888, 47.1257442 ], [ 28.7038882, 47.12575 ], [ 28.7038809, 47.1257501 ], [ 28.7038807, 47.1257443 ], [ 28.703888, 47.1257442 ] ] ] } },
{ "type": "Feature", "properties": { "waste_id": "W0041", "vineyard_id": "V08", "kind": "bright" }, "geometry": { "type": "Polygon", "coordinates": [ [ [ 28.7066606, 47.125594 ], [ 28.7066607, 47.1255989 ], [ 28.7066568, 47.125599 ], [ 28.7066566, 47.125594 ], [ 28.7066606, 47.125594 ] ] ] } },
{ "type": "Feature", "properties": { "waste_id": "W0042", "vineyard_id": "V08", "kind": "bright" }, "geometry": { "type": "Polygon", "coordinates": [ [ [ 28.706771, 47.125541 ], [ 28.7067713, 47.1255514 ], [ 28.7067621, 47.1255515 ], [ 28.7067617, 47.1255412 ], [ 28.706771, 47.125541 ] ] ] } },
{ "type": "Feature", "properties": { "waste_id": "W0043", "vineyard_id": "V09", "kind": "bright" }, "geometry": { "type": "Polygon", "coordinates": [ [ [ 28.7070825, 47.1253456 ], [ 28.7070827, 47.1253524 ], [ 28.7070767, 47.1253525 ], [ 28.7070765, 47.1253457 ], [ 28.7070825, 47.1253456 ] ] ] } },
{ "type": "Feature", "properties": { "waste_id": "W0044", "vineyard_id": "V09", "kind": "bright" }, "geometry": { "type": "Polygon", "coordinates": [ [ [ 28.7071547, 47.1252145 ], [ 28.7071549, 47.1252199 ], [ 28.707147, 47.12522 ], [ 28.7071468, 47.1252146 ], [ 28.7071547, 47.1252145 ] ] ] } },
{ "type": "Feature", "properties": { "waste_id": "W0045", "vineyard_id": "", "kind": "bright" }, "geometry": { "type": "Polygon", "coordinates": [ [ [ 28.7069063, 47.1251957 ], [ 28.7069064, 47.1252002 ], [ 28.7069018, 47.1252003 ], [ 28.7069016, 47.1251958 ], [ 28.7069063, 47.1251957 ] ] ] } },
{ "type": "Feature", "properties": { "waste_id": "W0046", "vineyard_id": "V09", "kind": "bright" }, "geometry": { "type": "Polygon", "coordinates": [ [ [ 28.7072954, 47.1251593 ], [ 28.7072954, 47.1251611 ], [ 28.7072895, 47.1251612 ], [ 28.7072894, 47.1251594 ], [ 28.7072954, 47.1251593 ] ] ] } },
{ "type": "Feature", "properties": { "waste_id": "W0047", "vineyard_id": "V07", "kind": "bright" }, "geometry": { "type": "Polygon", "coordinates": [ [ [ 28.7035759, 47.1251787 ], [ 28.7035762, 47.1251868 ], [ 28.7035636, 47.125187 ], [ 28.7035634, 47.1251789 ], [ 28.7035759, 47.1251787 ] ] ] } },
{ "type": "Feature", "properties": { "waste_id": "W0048", "vineyard_id": "", "kind": "bright" }, "geometry": { "type": "Polygon", "coordinates": [ [ [ 28.7091552, 47.1236009 ], [ 28.7091553, 47.1236045 ], [ 28.7091514, 47.1236045 ], [ 28.7091513, 47.1236009 ], [ 28.7091552, 47.1236009 ] ] ] } },
{ "type": "Feature", "properties": { "waste_id": "W0049", "vineyard_id": "", "kind": "bright" }, "geometry": { "type": "Polygon", "coordinates": [ [ [ 28.7093179, 47.123575 ], [ 28.7093185, 47.1235926 ], [ 28.709296, 47.1235929 ], [ 28.7092955, 47.1235754 ], [ 28.7093179, 47.123575 ] ] ] } },
{ "type": "Feature", "properties": { "waste_id": "W0050", "vineyard_id": "", "kind": "bright" }, "geometry": { "type": "Polygon", "coordinates": [ [ [ 28.707298, 47.1226891 ], [ 28.7072986, 47.1227053 ], [ 28.707292, 47.1227054 ], [ 28.7072915, 47.1226892 ], [ 28.707298, 47.1226891 ] ] ] } },
{ "type": "Feature", "properties": { "waste_id": "W0051", "vineyard_id": "", "kind": "bright" }, "geometry": { "type": "Polygon", "coordinates": [ [ [ 28.7111353, 47.1221148 ], [ 28.7111355, 47.122122 ], [ 28.7111276, 47.1221221 ], [ 28.7111274, 47.122115 ], [ 28.7111353, 47.1221148 ] ] ] } },
{ "type": "Feature", "properties": { "waste_id": "W0052", "vineyard_id": "", "kind": "bright" }, "geometry": { "type": "Polygon", "coordinates": [ [ [ 28.7085473, 47.1214349 ], [ 28.7085474, 47.1214385 ], [ 28.7085382, 47.1214387 ], [ 28.7085381, 47.1214351 ], [ 28.7085473, 47.1214349 ] ] ] } },
{ "type": "Feature", "properties": { "waste_id": "W0053", "vineyard_id": "", "kind": "bright" }, "geometry": { "type": "Polygon", "coordinates": [ [ [ 28.7111869, 47.1211962 ], [ 28.7111873, 47.1212065 ], [ 28.7111721, 47.1212068 ], [ 28.7111718, 47.1211964 ], [ 28.7111869, 47.1211962 ] ] ] } },
{ "type": "Feature", "properties": { "waste_id": "W0054", "vineyard_id": "", "kind": "bright" }, "geometry": { "type": "Polygon", "coordinates": [ [ [ 28.7117308, 47.1211764 ], [ 28.7117314, 47.1211943 ], [ 28.7117129, 47.1211946 ], [ 28.7117123, 47.1211766 ], [ 28.7117308, 47.1211764 ] ] ] } },
{ "type": "Feature", "properties": { "waste_id": "W0055", "vineyard_id": "", "kind": "bright" }, "geometry": { "type": "Polygon", "coordinates": [ [ [ 28.7115105, 47.1211738 ], [ 28.7115107, 47.1211783 ], [ 28.7115015, 47.1211784 ], [ 28.7115013, 47.1211739 ], [ 28.7115105, 47.1211738 ] ] ] } },
{ "type": "Feature", "properties": { "waste_id": "W0056", "vineyard_id": "", "kind": "bright" }, "geometry": { "type": "Polygon", "coordinates": [ [ [ 28.71134, 47.1211592 ], [ 28.7113402, 47.1211642 ], [ 28.7113309, 47.1211643 ], [ 28.7113308, 47.1211594 ], [ 28.71134, 47.1211592 ] ] ] } },
{ "type": "Feature", "properties": { "waste_id": "W0057", "vineyard_id": "V10", "kind": "bright" }, "geometry": { "type": "Polygon", "coordinates": [ [ [ 28.7110734, 47.1211502 ], [ 28.7110737, 47.1211596 ], [ 28.7110612, 47.1211598 ], [ 28.7110609, 47.1211504 ], [ 28.7110734, 47.1211502 ] ] ] } },
{ "type": "Feature", "properties": { "waste_id": "W0058", "vineyard_id": "", "kind": "bright" }, "geometry": { "type": "Polygon", "coordinates": [ [ [ 28.7117848, 47.1211144 ], [ 28.7117851, 47.1211215 ], [ 28.7117804, 47.1211216 ], [ 28.7117802, 47.1211144 ], [ 28.7117848, 47.1211144 ] ] ] } },
{ "type": "Feature", "properties": { "waste_id": "W0059", "vineyard_id": "", "kind": "bright" }, "geometry": { "type": "Polygon", "coordinates": [ [ [ 28.7118172, 47.1210945 ], [ 28.7118173, 47.1210977 ], [ 28.7118133, 47.1210977 ], [ 28.7118132, 47.1210946 ], [ 28.7118172, 47.1210945 ] ] ] } },
{ "type": "Feature", "properties": { "waste_id": "W0060", "vineyard_id": "V14", "kind": "bright" }, "geometry": { "type": "Polygon", "coordinates": [ [ [ 28.7117936, 47.1210805 ], [ 28.7117937, 47.1210836 ], [ 28.7117898, 47.1210837 ], [ 28.7117897, 47.1210805 ], [ 28.7117936, 47.1210805 ] ] ] } },
{ "type": "Feature", "properties": { "waste_id": "W0061", "vineyard_id": "", "kind": "bright" }, "geometry": { "type": "Polygon", "coordinates": [ [ [ 28.7125043, 47.1207144 ], [ 28.7125047, 47.1207243 ], [ 28.7124882, 47.1207245 ], [ 28.7124879, 47.1207146 ], [ 28.7125043, 47.1207144 ] ] ] } },
{ "type": "Feature", "properties": { "waste_id": "W0062", "vineyard_id": "", "kind": "bright" }, "geometry": { "type": "Polygon", "coordinates": [ [ [ 28.7125866, 47.120688 ], [ 28.7125867, 47.1206925 ], [ 28.7125722, 47.1206927 ], [ 28.7125721, 47.1206882 ], [ 28.7125866, 47.120688 ] ] ] } },
{ "type": "Feature", "properties": { "waste_id": "W0063", "vineyard_id": "", "kind": "bright" }, "geometry": { "type": "Polygon", "coordinates": [ [ [ 28.7124839, 47.1206535 ], [ 28.7124841, 47.1206589 ], [ 28.7124782, 47.120659 ], [ 28.712478, 47.1206536 ], [ 28.7124839, 47.1206535 ] ] ] } },
{ "type": "Feature", "properties": { "waste_id": "W0064", "vineyard_id": "", "kind": "bright" }, "geometry": { "type": "Polygon", "coordinates": [ [ [ 28.713263, 47.1195017 ], [ 28.7132632, 47.1195066 ], [ 28.7132487, 47.1195069 ], [ 28.7132485, 47.1195019 ], [ 28.713263, 47.1195017 ] ] ] } },
{ "type": "Feature", "properties": { "waste_id": "W0065", "vineyard_id": "V14", "kind": "bright" }, "geometry": { "type": "Polygon", "coordinates": [ [ [ 28.7129118, 47.1189499 ], [ 28.7129119, 47.1189553 ], [ 28.7129047, 47.1189554 ], [ 28.7129045, 47.11895 ], [ 28.7129118, 47.1189499 ] ] ] } },
{ "type": "Feature", "properties": { "waste_id": "W0066", "vineyard_id": "", "kind": "vivid" }, "geometry": { "type": "Polygon", "coordinates": [ [ [ 28.7139276, 47.1187471 ], [ 28.7139282, 47.1187655 ], [ 28.7138972, 47.118766 ], [ 28.7138966, 47.1187476 ], [ 28.7139276, 47.1187471 ] ] ] } },
{ "type": "Feature", "properties": { "waste_id": "W0067", "vineyard_id": "V14", "kind": "bright" }, "geometry": { "type": "Polygon", "coordinates": [ [ [ 28.7139342, 47.1186656 ], [ 28.7139343, 47.1186687 ], [ 28.713929, 47.1186688 ], [ 28.7139289, 47.1186656 ], [ 28.7139342, 47.1186656 ] ] ] } },
{ "type": "Feature", "properties": { "waste_id": "W0068", "vineyard_id": "", "kind": "bright" }, "geometry": { "type": "Polygon", "coordinates": [ [ [ 28.7123754, 47.1177435 ], [ 28.7123755, 47.1177485 ], [ 28.7123637, 47.1177487 ], [ 28.7123635, 47.1177437 ], [ 28.7123754, 47.1177435 ] ] ] } },
{ "type": "Feature", "properties": { "waste_id": "W0069", "vineyard_id": "", "kind": "bright" }, "geometry": { "type": "Polygon", "coordinates": [ [ [ 28.7131696, 47.1173933 ], [ 28.7131698, 47.1173983 ], [ 28.7131645, 47.1173983 ], [ 28.7131643, 47.1173934 ], [ 28.7131696, 47.1173933 ] ] ] } },
{ "type": "Feature", "properties": { "waste_id": "W0070", "vineyard_id": "V18", "kind": "bright" }, "geometry": { "type": "Polygon", "coordinates": [ [ [ 28.7132585, 47.1172678 ], [ 28.7132587, 47.1172732 ], [ 28.7132514, 47.1172733 ], [ 28.7132513, 47.1172679 ], [ 28.7132585, 47.1172678 ] ] ] } },
{ "type": "Feature", "properties": { "waste_id": "W0071", "vineyard_id": "", "kind": "bright" }, "geometry": { "type": "Polygon", "coordinates": [ [ [ 28.7143609, 47.1166835 ], [ 28.7143611, 47.1166871 ], [ 28.7143558, 47.1166871 ], [ 28.7143557, 47.1166835 ], [ 28.7143609, 47.1166835 ] ] ] } },
{ "type": "Feature", "properties": { "waste_id": "W0072", "vineyard_id": "V20", "kind": "bright" }, "geometry": { "type": "Polygon", "coordinates": [ [ [ 28.7150379, 47.116173 ], [ 28.7150381, 47.1161779 ], [ 28.7150315, 47.116178 ], [ 28.7150314, 47.1161731 ], [ 28.7150379, 47.116173 ] ] ] } },
{ "type": "Feature", "properties": { "waste_id": "W0073", "vineyard_id": "", "kind": "bright" }, "geometry": { "type": "Polygon", "coordinates": [ [ [ 28.7152607, 47.1159888 ], [ 28.7152609, 47.1159937 ], [ 28.715255, 47.1159938 ], [ 28.7152548, 47.1159889 ], [ 28.7152607, 47.1159888 ] ] ] } },
{ "type": "Feature", "properties": { "waste_id": "W0074", "vineyard_id": "V23", "kind": "bright" }, "geometry": { "type": "Polygon", "coordinates": [ [ [ 28.7149994, 47.1151787 ], [ 28.7149995, 47.1151819 ], [ 28.7149916, 47.115182 ], [ 28.7149915, 47.1151789 ], [ 28.7149994, 47.1151787 ] ] ] } },
{ "type": "Feature", "properties": { "waste_id": "W0075", "vineyard_id": "", "kind": "bright" }, "geometry": { "type": "Polygon", "coordinates": [ [ [ 28.7151205, 47.1150901 ], [ 28.7151206, 47.115095 ], [ 28.7151127, 47.1150952 ], [ 28.7151126, 47.1150902 ], [ 28.7151205, 47.1150901 ] ] ] } },
{ "type": "Feature", "properties": { "waste_id": "W0076", "vineyard_id": "V24", "kind": "bright" }, "geometry": { "type": "Polygon", "coordinates": [ [ [ 28.7186441, 47.1148663 ], [ 28.7186443, 47.1148717 ], [ 28.718641, 47.1148717 ], [ 28.7186408, 47.1148663 ], [ 28.7186441, 47.1148663 ] ] ] } }
]
}
