{
  "type": "FeatureCollection",
  "features": [
    {
      "type": "Feature",
      "geometry": {
        "type": "LineString",
        "coordinates": [
          [
            629505.0,
            5220251.4
          ],
          [
            629505.0,
            5220253.4
          ],
          [
            629503.0,
            5220255.4
          ],
          [
            629503.0,
            5220257.4
          ],
          [
            629503.0,
            5220259.4
          ],
          [
            629503.0,
            5220261.4
          ],
          [
            629503.0,
            5220263.4
          ],
          [
            629503.0,
            5220265.4
          ],
          [
            629503.0,
            5220267.4
          ],
          [
            629503.0,
            5220269.4
          ],
          [
            629503.0,
            5220271.4
          ],
          [
            629503.0,
            5220273.4
          ],
          [
            629503.0,
            5220275.4
          ],
          [
            629503.0,
            5220277.4
          ],
          [
            629503.0,
            5220279.4
          ],
          [
            629503.0,
            5220281.4
          ],
          [
            629503.0,
            5220283.4
          ],
          [
            629503.0,
            5220285.4
          ],
          [
            629503.0,
            5220287.4
          ],
          [
            629503.0,
            5220289.4
          ],
          [
            629503.0,
            5220291.4
          ],
          [
            629503.0,
            5220293.4
          ],
          [
            629503.0,
            5220295.4
          ],
          [
            629503.0,
            5220297.4
          ],
          [
            629503.0,
            5220299.4
          ],
          [
            629503.0,
            5220301.4
          ],
          [
            629503.0,
            5220303.4
          ],
          [
            629503.0,
            5220305.4
          ],
          [
            629501.0,
            5220307.4
          ],
          [
            629501.0,
            5220309.4
          ],
          [
            629501.0,
            5220311.4
          ],
          [
            629501.0,
            5220313.4
          ],
          [
            629501.0,
            5220315.4
          ],
          [
            629501.0,
            5220317.4
          ],
          [
            629499.0,
            5220319.4
          ],
          [
            629499.0,
            5220321.4
          ],
          [
            629499.0,
            5220323.4
          ],
          [
            629497.0,
            5220325.4
          ],
          [
            629497.0,
            5220327.4
          ],
          [
            629495.0,
            5220329.4
          ],
          [
            629495.0,
            5220331.4
          ],
          [
            629493.0,
            5220333.4
          ],
          [
            629493.0,
            5220335.4
          ],
          [
            629491.0,
            5220337.4
          ],
          [
            629489.0,
            5220339.4
          ],
          [
            629489.0,
            5220341.4
          ],
          [
            629487.0,
            5220343.4
          ],
          [
            629487.0,
            5220345.4
          ],
          [
            629485.0,
            5220347.4
          ],
          [
            629485.0,
            5220349.4
          ],
          [
            629485.0,
            5220351.4
          ],
          [
            629483.0,
            5220353.4
          ],
          [
            629483.0,
            5220355.4
          ],
          [
            629483.0,
            5220357.4
          ],
          [
            629481.0,
            5220359.4
          ],
          [
            629481.0,
            5220361.4
          ],
          [
            629481.0,
            5220363.4
          ],
          [
            629479.0,
            5220365.4
          ],
          [
            629479.0,
            5220367.4
          ],
          [
            629477.0,
            5220369.4
          ],
          [
            629477.0,
            5220371.4
          ],
          [
            629477.0,
            5220373.4
          ],
          [
            629477.0,
            5220375.4
          ],
          [
            629477.0,
            5220377.4
          ],
          [
            629475.0,
            5220379.4
          ],
          [
            629475.0,
            5220381.4
          ],
          [
            629475.0,
            5220383.4
          ],
          [
            629473.0,
            5220385.4
          ],
          [
            629473.0,
            5220387.4
          ],
          [
            629473.0,
            5220389.4
          ],
          [
            629473.0,
            5220391.4
          ],
          [
            629471.0,
            5220393.4
          ],
          [
            629471.0,
            5220395.4
          ],
          [
            629471.0,
            5220397.4
          ],
          [
            629471.0,
            5220399.4
          ],
          [
            629471.0,
            5220401.4
          ],
          [
            629469.0,
            5220403.4
          ],
          [
            629469.0,
            5220405.4
          ],
          [
            629469.0,
            5220407.4
          ],
          [
            629469.0,
            5220409.4
          ],
          [
            629467.0,
            5220411.4
          ],
          [
            629467.0,
            5220413.4
          ],
          [
            629467.0,
            5220415.4
          ],
          [
            629467.0,
            5220417.4
          ],
          [
            629467.0,
            5220419.4
          ],
          [
            629465.0,
            5220421.4
          ],
          [
            629465.0,
            5220423.4
          ],
          [
            629465.0,
            5220425.4
          ],
          [
            629465.0,
            5220427.4
          ],
          [
            629463.0,
            5220429.4
          ],
          [
            629463.0,
            5220431.4
          ],
          [
            629463.0,
            5220433.4
          ],
          [
            629463.0,
            5220435.4
          ],
          [
            629463.0,
            5220437.4
          ],
          [
            629461.0,
            5220439.4
          ],
          [
            629461.0,
            5220441.4
          ],
          [
            629461.0,
            5220443.4
          ],
          [
            629461.0,
            5220445.4
          ],
          [
            629459.0,
            5220447.4
          ],
          [
            629459.0,
            5220449.4
          ],
          [
            629459.0,
            5220451.4
          ],
          [
            629459.0,
            5220453.4
          ],
          [
            629459.0,
            5220455.4
          ],
          [
            629457.0,
            5220457.4
          ],
          [
            629457.0,
            5220459.4
          ],
          [
            629457.0,
            5220461.4
          ],
          [
            629457.0,
            5220463.4
          ],
          [
            629455.0,
            5220465.4
          ],
          [
            629455.0,
            5220467.4
          ],
          [
            629453.0,
            5220469.4
          ],
          [
            629453.0,
            5220471.4
          ],
          [
            629453.0,
            5220473.4
          ],
          [
            629453.0,
            5220475.4
          ],
          [
            629453.0,
            5220477.4
          ],
          [
            629451.0,
            5220479.4
          ],
          [
            629451.0,
            5220481.4
          ],
          [
            629451.0,
            5220483.4
          ],
          [
            629449.0,
            5220485.4
          ],
          [
            629449.0,
            5220487.4
          ],
          [
            629449.0,
            5220489.4
          ],
          [
            629447.0,
            5220491.4
          ],
          [
            629447.0,
            5220493.4
          ],
          [
            629445.0,
            5220495.4
          ],
          [
            629445.0,
            5220497.4
          ],
          [
            629445.0,
            5220499.4
          ],
          [
            629443.0,
            5220501.4
          ],
          [
            629443.0,
            5220503.4
          ],
          [
            629441.0,
            5220505.4
          ],
          [
            629441.0,
            5220507.4
          ],
          [
            629439.0,
            5220509.4
          ],
          [
            629437.0,
            5220511.4
          ],
          [
            629435.0,
            5220513.4
          ],
          [
            629435.0,
            5220515.4
          ],
          [
            629433.0,
            5220517.4
          ],
          [
            629431.0,
            5220519.4
          ],
          [
            629429.0,
            5220521.4
          ],
          [
            629427.0,
            5220523.4
          ],
          [
            629425.0,
            5220525.4
          ],
          [
            629423.0,
            5220527.4
          ],
          [
            629421.0,
            5220529.4
          ],
          [
            629419.0,
            5220531.4
          ],
          [
            629417.0,
            5220531.4
          ],
          [
            629415.0,
            5220533.4
          ],
          [
            629413.0,
            5220535.4
          ],
          [
            629411.0,
            5220535.4
          ],
          [
            629409.0,
            5220537.4
          ],
          [
            629407.0,
            5220539.4
          ],
          [
            629405.0,
            5220539.4
          ],
          [
            629403.0,
            5220541.4
          ],
          [
            629401.0,
            5220543.4
          ],
          [
            629399.0,
            5220543.4
          ],
          [
            629397.0,
            5220545.4
          ],
          [
            629395.0,
            5220547.4
          ],
          [
            629393.0,
            5220547.4
          ],
          [
            629391.0,
            5220549.4
          ],
          [
            629389.0,
            5220551.4
          ],
          [
            629387.0,
            5220553.4
          ],
          [
            629385.0,
            5220553.4
          ],
          [
            629383.0,
            5220555.4
          ],
          [
            629381.0,
            5220557.4
          ],
          [
            629379.0,
            5220559.4
          ],
          [
            629377.0,
            5220559.4
          ],
          [
            629375.0,
            5220561.4
          ],
          [
            629373.0,
            5220563.4
          ],
          [
            629371.0,
            5220565.4
          ],
          [
            629369.0,
            5220565.4
          ],
          [
            629367.0,
            5220567.4
          ],
          [
            629365.0,
            5220569.4
          ],
          [
            629363.0,
            5220569.4
          ],
          [
            629361.0,
            5220571.4
          ],
          [
            629359.0,
            5220573.4
          ],
          [
            629357.0,
            5220575.4
          ],
          [
            629355.0,
            5220575.4
          ],
          [
            629353.0,
            5220577.4
          ],
          [
            629351.0,
            5220579.4
          ],
          [
            629349.0,
            5220581.4
          ],
          [
            629347.0,
            5220581.4
          ],
          [
            629345.0,
            5220583.4
          ],
          [
            629343.0,
            5220585.4
          ],
          [
            629341.0,
            5220587.4
          ],
          [
            629339.0,
            5220587.4
          ],
          [
            629337.0,
            5220589.4
          ],
          [
            629335.0,
            5220591.4
          ],
          [
            629333.0,
            5220593.4
          ],
          [
            629331.0,
            5220593.4
          ],
          [
            629329.0,
            5220595.4
          ],
          [
            629327.0,
            5220597.4
          ],
          [
            629325.0,
            5220597.4
          ],
          [
            629323.0,
            5220599.4
          ],
          [
            629321.0,
            5220601.4
          ],
          [
            629319.0,
            5220603.4
          ],
          [
            629317.0,
            5220603.4
          ],
          [
            629315.0,
            5220605.4
          ],
          [
            629313.0,
            5220607.4
          ],
          [
            629311.0,
            5220609.4
          ],
          [
            629309.0,
            5220609.4
          ],
          [
            629307.0,
            5220611.4
          ],
          [
            629305.0,
            5220613.4
          ],
          [
            629303.0,
            5220615.4
          ],
          [
            629301.0,
            5220615.4
          ],
          [
            629299.0,
            5220617.4
          ],
          [
            629297.0,
            5220619.4
          ],
          [
            629295.0,
            5220621.4
          ],
          [
            629293.0,
            5220621.4
          ],
          [
            629291.0,
            5220623.4
          ],
          [
            629289.0,
            5220625.4
          ],
          [
            629287.0,
            5220625.4
          ],
          [
            629285.0,
            5220627.4
          ],
          [
            629283.0,
            5220629.4
          ],
          [
            629281.0,
            5220631.4
          ],
          [
            629279.0,
            5220631.4
          ],
          [
            629277.0,
            5220633.4
          ],
          [
            629275.0,
            5220635.4
          ],
          [
            629273.0,
            5220637.4
          ],
          [
            629271.0,
            5220637.4
          ],
          [
            629269.0,
            5220639.4
          ],
          [
            629267.0,
            5220641.4
          ],
          [
            629265.0,
            5220643.4
          ],
          [
            629263.0,
            5220643.4
          ],
          [
            629261.0,
            5220645.4
          ],
          [
            629259.0,
            5220647.4
          ],
          [
            629257.0,
            5220649.4
          ],
          [
            629255.0,
            5220649.4
          ],
          [
            629253.0,
            5220651.4
          ],
          [
            629251.0,
            5220653.4
          ],
          [
            629249.0,
            5220653.4
          ],
          [
            629247.0,
            5220655.4
          ],
          [
            629245.0,
            5220657.4
          ],
          [
            629243.0,
            5220659.4
          ],
          [
            629241.0,
            5220659.4
          ],
          [
            629239.0,
            5220661.4
          ],
          [
            629237.0,
            5220663.4
          ],
          [
            629235.0,
            5220665.4
          ],
          [
            629233.0,
            5220665.4
          ],
          [
            629231.0,
            5220667.4
          ],
          [
            629229.0,
            5220669.4
          ],
          [
            629227.0,
            5220671.4
          ],
          [
            629225.0,
            5220671.4
          ],
          [
            629223.0,
            5220673.4
          ],
          [
            629221.0,
            5220675.4
          ],
          [
            629219.0,
            5220677.4
          ],
          [
            629217.0,
            5220677.4
          ],
          [
            629215.0,
            5220679.4
          ],
          [
            629213.0,
            5220681.4
          ],
          [
            629211.0,
            5220681.4
          ],
          [
            629209.0,
            5220683.4
          ],
          [
            629207.0,
            5220685.4
          ],
          [
            629205.0,
            5220685.4
          ],
          [
            629203.0,
            5220687.4
          ],
          [
            629201.0,
            5220689.4
          ],
          [
            629199.0,
            5220691.4
          ],
          [
            629197.0,
            5220691.4
          ],
          [
            629195.0,
            5220693.4
          ],
          [
            629193.0,
            5220695.4
          ],
          [
            629193.0,
            5220697.4
          ],
          [
            629191.0,
            5220699.4
          ],
          [
            629189.0,
            5220701.4
          ],
          [
            629187.0,
            5220701.4
          ],
          [
            629185.0,
            5220701.4
          ],
          [
            629183.0,
            5220701.4
          ],
          [
            629181.0,
            5220701.4
          ],
          [
            629179.0,
            5220701.4
          ],
          [
            629177.0,
            5220699.4
          ],
          [
            629175.0,
            5220699.4
          ],
          [
            629173.0,
            5220699.4
          ],
          [
            629171.0,
            5220697.4
          ],
          [
            629169.0,
            5220697.4
          ],
          [
            629167.0,
            5220695.4
          ],
          [
            629165.0,
            5220695.4
          ],
          [
            629163.0,
            5220697.4
          ],
          [
            629161.0,
            5220699.4
          ],
          [
            629161.0,
            5220701.4
          ],
          [
            629159.0,
            5220703.4
          ],
          [
            629159.0,
            5220705.4
          ],
          [
            629157.0,
            5220707.4
          ],
          [
            629157.0,
            5220709.4
          ],
          [
            629155.0,
            5220711.4
          ],
          [
            629155.0,
            5220713.4
          ],
          [
            629155.0,
            5220715.4
          ],
          [
            629153.0,
            5220717.4
          ],
          [
            629153.0,
            5220719.4
          ],
          [
            629151.0,
            5220721.4
          ],
          [
            629151.0,
            5220723.4
          ],
          [
            629149.0,
            5220725.4
          ],
          [
            629149.0,
            5220727.4
          ],
          [
            629147.0,
            5220729.4
          ],
          [
            629147.0,
            5220731.4
          ],
          [
            629147.0,
            5220733.4
          ],
          [
            629145.0,
            5220735.4
          ],
          [
            629145.0,
            5220737.4
          ],
          [
            629145.0,
            5220739.4
          ],
          [
            629143.0,
            5220741.4
          ],
          [
            629143.0,
            5220743.4
          ],
          [
            629141.0,
            5220745.4
          ],
          [
            629141.0,
            5220747.4
          ],
          [
            629141.0,
            5220749.4
          ],
          [
            629139.0,
            5220751.4
          ],
          [
            629139.0,
            5220753.4
          ],
          [
            629139.0,
            5220755.4
          ],
          [
            629137.0,
            5220757.4
          ],
          [
            629137.0,
            5220759.4
          ],
          [
            629137.0,
            5220761.4
          ],
          [
            629135.0,
            5220763.4
          ],
          [
            629135.0,
            5220765.4
          ],
          [
            629133.0,
            5220767.4
          ],
          [
            629133.0,
            5220769.4
          ],
          [
            629133.0,
            5220771.4
          ],
          [
            629131.0,
            5220773.4
          ],
          [
            629131.0,
            5220775.4
          ],
          [
            629131.0,
            5220777.4
          ],
          [
            629129.0,
            5220779.4
          ],
          [
            629129.0,
            5220781.4
          ],
          [
            629129.0,
            5220783.4
          ],
          [
            629127.0,
            5220785.4
          ],
          [
            629127.0,
            5220787.4
          ],
          [
            629127.0,
            5220789.4
          ],
          [
            629125.0,
            5220791.4
          ],
          [
            629125.0,
            5220793.4
          ],
          [
            629125.0,
            5220795.4
          ],
          [
            629123.0,
            5220797.4
          ],
          [
            629123.0,
            5220799.4
          ],
          [
            629123.0,
            5220801.4
          ],
          [
            629121.0,
            5220803.4
          ],
          [
            629121.0,
            5220805.4
          ],
          [
            629121.0,
            5220807.4
          ],
          [
            629119.0,
            5220809.4
          ],
          [
            629119.0,
            5220811.4
          ],
          [
            629121.0,
            5220813.4
          ],
          [
            629123.0,
            5220815.4
          ],
          [
            629125.0,
            5220817.4
          ],
          [
            629127.0,
            5220819.4
          ],
          [
            629129.0,
            5220819.4
          ],
          [
            629131.0,
            5220821.4
          ],
          [
            629133.0,
            5220821.4
          ],
          [
            629135.0,
            5220821.4
          ],
          [
            629137.0,
            5220823.4
          ],
          [
            629139.0,
            5220823.4
          ],
          [
            629141.0,
            5220823.4
          ],
          [
            629143.0,
            5220825.4
          ],
          [
            629145.0,
            5220825.4
          ],
          [
            629147.0,
            5220825.4
          ],
          [
            629149.0,
            5220827.4
          ],
          [
            629151.0,
            5220827.4
          ],
          [
            629153.0,
            5220827.4
          ],
          [
            629155.0,
            5220829.4
          ],
          [
            629157.0,
            5220829.4
          ],
          [
            629159.0,
            5220829.4
          ],
          [
            629161.0,
            5220831.4
          ],
          [
            629163.0,
            5220831.4
          ],
          [
            629165.0,
            5220831.4
          ],
          [
            629167.0,
            5220833.4
          ],
          [
            629169.0,
            5220833.4
          ],
          [
            629171.0,
            5220833.4
          ],
          [
            629173.0,
            5220835.4
          ],
          [
            629175.0,
            5220835.4
          ],
          [
            629177.0,
            5220835.4
          ],
          [
            629179.0,
            5220837.4
          ],
          [
            629181.0,
            5220837.4
          ],
          [
            629183.0,
            5220839.4
          ],
          [
            629185.0,
            5220841.4
          ],
          [
            629187.0,
            5220841.4
          ],
          [
            629189.0,
            5220843.4
          ],
          [
            629191.0,
            5220845.4
          ],
          [
            629193.0,
            5220847.4
          ],
          [
            629195.0,
            5220847.4
          ],
          [
            629197.0,
            5220849.4
          ],
          [
            629199.0,
            5220851.4
          ],
          [
            629201.0,
            5220853.4
          ],
          [
            629203.0,
            5220853.4
          ],
          [
            629205.0,
            5220855.4
          ],
          [
            629207.0,
            5220855.4
          ],
          [
            629209.0,
            5220855.4
          ],
          [
            629211.0,
            5220855.4
          ],
          [
            629213.0,
            5220857.4
          ],
          [
            629215.0,
            5220857.4
          ],
          [
            629217.0,
            5220857.4
          ],
          [
            629219.0,
            5220857.4
          ],
          [
            629221.0,
            5220857.4
          ],
          [
            629223.0,
            5220857.4
          ],
          [
            629225.0,
            5220859.4
          ],
          [
            629227.0,
            5220859.4
          ],
          [
            629229.0,
            5220859.4
          ],
          [
            629231.0,
            5220859.4
          ],
          [
            629233.0,
            5220861.4
          ],
          [
            629235.0,
            5220861.4
          ],
          [
            629237.0,
            5220863.4
          ],
          [
            629237.0,
            5220865.4
          ],
          [
            629237.0,
            5220867.4
          ],
          [
            629237.0,
            5220869.4
          ],
          [
            629237.0,
            5220871.4
          ],
          [
            629237.0,
            5220873.4
          ],
          [
            629237.0,
            5220875.4
          ],
          [
            629235.0,
            5220877.4
          ],
          [
            629235.0,
            5220879.4
          ],
          [
            629235.0,
            5220881.4
          ],
          [
            629235.0,
            5220883.4
          ],
          [
            629235.0,
            5220885.4
          ],
          [
            629235.0,
            5220887.4
          ],
          [
            629237.0,
            5220889.4
          ],
          [
            629239.0,
            5220891.4
          ],
          [
            629239.0,
            5220893.4
          ],
          [
            629241.0,
            5220895.4
          ],
          [
            629239.0,
            5220893.4
          ],
          [
            629237.0,
            5220893.4
          ],
          [
            629235.0,
            5220893.4
          ],
          [
            629233.0,
            5220891.4
          ],
          [
            629231.0,
            5220889.4
          ],
          [
            629229.0,
            5220887.4
          ],
          [
            629227.0,
            5220885.4
          ],
          [
            629225.0,
            5220883.4
          ],
          [
            629223.0,
            5220881.4
          ],
          [
            629221.0,
            5220881.4
          ],
          [
            629219.0,
            5220881.4
          ],
          [
            629217.0,
            5220881.4
          ],
          [
            629215.0,
            5220881.4
          ],
          [
            629213.0,
            5220879.4
          ],
          [
            629211.0,
            5220879.4
          ],
          [
            629209.0,
            5220879.4
          ],
          [
            629207.0,
            5220879.4
          ],
          [
            629205.0,
            5220877.4
          ],
          [
            629203.0,
            5220877.4
          ],
          [
            629201.0,
            5220875.4
          ],
          [
            629203.0,
            5220877.4
          ],
          [
            629205.0,
            5220877.4
          ],
          [
            629207.0,
            5220875.4
          ],
          [
            629209.0,
            5220875.4
          ],
          [
            629211.0,
            5220875.4
          ],
          [
            629213.0,
            5220873.4
          ],
          [
            629215.0,
            5220873.4
          ],
          [
            629217.0,
            5220873.4
          ],
          [
            629219.0,
            5220871.4
          ],
          [
            629221.0,
            5220871.4
          ],
          [
            629223.0,
            5220869.4
          ],
          [
            629225.0,
            5220869.4
          ],
          [
            629227.0,
            5220869.4
          ],
          [
            629229.0,
            5220867.4
          ],
          [
            629231.0,
            5220867.4
          ],
          [
            629233.0,
            5220865.4
          ],
          [
            629235.0,
            5220865.4
          ],
          [
            629237.0,
            5220863.4
          ],
          [
            629235.0,
            5220861.4
          ],
          [
            629233.0,
            5220861.4
          ],
          [
            629231.0,
            5220859.4
          ],
          [
            629229.0,
            5220859.4
          ],
          [
            629227.0,
            5220859.4
          ],
          [
            629225.0,
            5220859.4
          ],
          [
            629223.0,
            5220857.4
          ],
          [
            629221.0,
            5220857.4
          ],
          [
            629219.0,
            5220857.4
          ],
          [
            629217.0,
            5220857.4
          ],
          [
            629215.0,
            5220857.4
          ],
          [
            629213.0,
            5220857.4
          ],
          [
            629211.0,
            5220855.4
          ],
          [
            629209.0,
            5220855.4
          ],
          [
            629207.0,
            5220855.4
          ],
          [
            629205.0,
            5220855.4
          ],
          [
            629203.0,
            5220853.4
          ],
          [
            629201.0,
            5220853.4
          ],
          [
            629199.0,
            5220851.4
          ],
          [
            629197.0,
            5220849.4
          ],
          [
            629195.0,
            5220847.4
          ],
          [
            629193.0,
            5220847.4
          ],
          [
            629191.0,
            5220845.4
          ],
          [
            629189.0,
            5220843.4
          ],
          [
            629187.0,
            5220841.4
          ],
          [
            629185.0,
            5220841.4
          ],
          [
            629183.0,
            5220839.4
          ],
          [
            629181.0,
            5220837.4
          ],
          [
            629179.0,
            5220837.4
          ],
          [
            629177.0,
            5220835.4
          ],
          [
            629175.0,
            5220835.4
          ],
          [
            629173.0,
            5220835.4
          ],
          [
            629171.0,
            5220833.4
          ],
          [
            629169.0,
            5220833.4
          ],
          [
            629167.0,
            5220833.4
          ],
          [
            629165.0,
            5220831.4
          ],
          [
            629163.0,
            5220831.4
          ],
          [
            629161.0,
            5220831.4
          ],
          [
            629159.0,
            5220829.4
          ],
          [
            629157.0,
            5220829.4
          ],
          [
            629155.0,
            5220829.4
          ],
          [
            629153.0,
            5220827.4
          ],
          [
            629151.0,
            5220827.4
          ],
          [
            629149.0,
            5220827.4
          ],
          [
            629147.0,
            5220825.4
          ],
          [
            629145.0,
            5220825.4
          ],
          [
            629143.0,
            5220825.4
          ],
          [
            629141.0,
            5220823.4
          ],
          [
            629139.0,
            5220823.4
          ],
          [
            629137.0,
            5220823.4
          ],
          [
            629135.0,
            5220821.4
          ],
          [
            629133.0,
            5220821.4
          ],
          [
            629131.0,
            5220821.4
          ],
          [
            629129.0,
            5220819.4
          ],
          [
            629127.0,
            5220819.4
          ],
          [
            629125.0,
            5220817.4
          ],
          [
            629123.0,
            5220815.4
          ],
          [
            629121.0,
            5220813.4
          ],
          [
            629119.0,
            5220811.4
          ],
          [
            629119.0,
            5220809.4
          ],
          [
            629121.0,
            5220807.4
          ],
          [
            629121.0,
            5220805.4
          ],
          [
            629121.0,
            5220803.4
          ],
          [
            629123.0,
            5220801.4
          ],
          [
            629123.0,
            5220799.4
          ],
          [
            629123.0,
            5220797.4
          ],
          [
            629125.0,
            5220795.4
          ],
          [
            629125.0,
            5220793.4
          ],
          [
            629125.0,
            5220791.4
          ],
          [
            629127.0,
            5220789.4
          ],
          [
            629127.0,
            5220787.4
          ],
          [
            629127.0,
            5220785.4
          ],
          [
            629129.0,
            5220783.4
          ],
          [
            629129.0,
            5220781.4
          ],
          [
            629129.0,
            5220779.4
          ],
          [
            629131.0,
            5220777.4
          ],
          [
            629131.0,
            5220775.4
          ],
          [
            629131.0,
            5220773.4
          ],
          [
            629133.0,
            5220771.4
          ],
          [
            629133.0,
            5220769.4
          ],
          [
            629133.0,
            5220767.4
          ],
          [
            629135.0,
            5220765.4
          ],
          [
            629135.0,
            5220763.4
          ],
          [
            629137.0,
            5220761.4
          ],
          [
            629137.0,
            5220759.4
          ],
          [
            629137.0,
            5220757.4
          ],
          [
            629139.0,
            5220755.4
          ],
          [
            629139.0,
            5220753.4
          ],
          [
            629139.0,
            5220751.4
          ],
          [
            629141.0,
            5220749.4
          ],
          [
            629141.0,
            5220747.4
          ],
          [
            629141.0,
            5220745.4
          ],
          [
            629143.0,
            5220743.4
          ],
          [
            629143.0,
            5220741.4
          ],
          [
            629145.0,
            5220739.4
          ],
          [
            629145.0,
            5220737.4
          ],
          [
            629145.0,
            5220735.4
          ],
          [
            629147.0,
            5220733.4
          ],
          [
            629147.0,
            5220731.4
          ],
          [
            629147.0,
            5220729.4
          ],
          [
            629149.0,
            5220727.4
          ],
          [
            629149.0,
            5220725.4
          ],
          [
            629151.0,
            5220723.4
          ],
          [
            629151.0,
            5220721.4
          ],
          [
            629153.0,
            5220719.4
          ],
          [
            629153.0,
            5220717.4
          ],
          [
            629155.0,
            5220715.4
          ],
          [
            629155.0,
            5220713.4
          ],
          [
            629155.0,
            5220711.4
          ],
          [
            629157.0,
            5220709.4
          ],
          [
            629157.0,
            5220707.4
          ],
          [
            629159.0,
            5220705.4
          ],
          [
            629159.0,
            5220703.4
          ],
          [
            629161.0,
            5220701.4
          ],
          [
            629161.0,
            5220699.4
          ],
          [
            629163.0,
            5220697.4
          ],
          [
            629165.0,
            5220695.4
          ],
          [
            629167.0,
            5220695.4
          ],
          [
            629169.0,
            5220697.4
          ],
          [
            629171.0,
            5220697.4
          ],
          [
            629173.0,
            5220699.4
          ],
          [
            629175.0,
            5220699.4
          ],
          [
            629177.0,
            5220699.4
          ],
          [
            629179.0,
            5220701.4
          ],
          [
            629181.0,
            5220701.4
          ],
          [
            629183.0,
            5220701.4
          ],
          [
            629185.0,
            5220701.4
          ],
          [
            629187.0,
            5220701.4
          ],
          [
            629189.0,
            5220701.4
          ],
          [
            629191.0,
            5220699.4
          ],
          [
            629193.0,
            5220697.4
          ],
          [
            629193.0,
            5220695.4
          ],
          [
            629195.0,
            5220693.4
          ],
          [
            629197.0,
            5220691.4
          ],
          [
            629199.0,
            5220691.4
          ],
          [
            629201.0,
            5220689.4
          ],
          [
            629203.0,
            5220687.4
          ],
          [
            629205.0,
            5220685.4
          ],
          [
            629207.0,
            5220685.4
          ],
          [
            629209.0,
            5220683.4
          ],
          [
            629211.0,
            5220681.4
          ],
          [
            629213.0,
            5220681.4
          ],
          [
            629215.0,
            5220679.4
          ],
          [
            629217.0,
            5220677.4
          ],
          [
            629219.0,
            5220677.4
          ],
          [
            629221.0,
            5220675.4
          ],
          [
            629223.0,
            5220673.4
          ],
          [
            629225.0,
            5220671.4
          ],
          [
            629227.0,
            5220671.4
          ],
          [
            629229.0,
            5220669.4
          ],
          [
            629231.0,
            5220667.4
          ],
          [
            629233.0,
            5220665.4
          ],
          [
            629235.0,
            5220665.4
          ],
          [
            629237.0,
            5220663.4
          ],
          [
            629239.0,
            5220661.4
          ],
          [
            629241.0,
            5220659.4
          ],
          [
            629243.0,
            5220659.4
          ],
          [
            629245.0,
            5220657.4
          ],
          [
            629247.0,
            5220655.4
          ],
          [
            629249.0,
            5220653.4
          ],
          [
            629251.0,
            5220653.4
          ],
          [
            629253.0,
            5220651.4
          ],
          [
            629255.0,
            5220649.4
          ],
          [
            629257.0,
            5220649.4
          ],
          [
            629259.0,
            5220647.4
          ],
          [
            629261.0,
            5220645.4
          ],
          [
            629263.0,
            5220643.4
          ],
          [
            629265.0,
            5220643.4
          ],
          [
            629267.0,
            5220641.4
          ],
          [
            629269.0,
            5220639.4
          ],
          [
            629271.0,
            5220637.4
          ],
          [
            629273.0,
            5220637.4
          ],
          [
            629275.0,
            5220635.4
          ],
          [
            629277.0,
            5220633.4
          ],
          [
            629279.0,
            5220631.4
          ],
          [
            629281.0,
            5220631.4
          ],
          [
            629283.0,
            5220629.4
          ],
          [
            629285.0,
            5220627.4
          ],
          [
            629287.0,
            5220625.4
          ],
          [
            629289.0,
            5220625.4
          ],
          [
            629291.0,
            5220623.4
          ],
          [
            629293.0,
            5220621.4
          ],
          [
            629295.0,
            5220621.4
          ],
          [
            629297.0,
            5220619.4
          ],
          [
            629299.0,
            5220617.4
          ],
          [
            629301.0,
            5220615.4
          ],
          [
            629303.0,
            5220615.4
          ],
          [
            629305.0,
            5220613.4
          ],
          [
            629307.0,
            5220611.4
          ],
          [
            629309.0,
            5220609.4
          ],
          [
            629311.0,
            5220609.4
          ],
          [
            629313.0,
            5220607.4
          ],
          [
            629315.0,
            5220605.4
          ],
          [
            629317.0,
            5220603.4
          ],
          [
            629319.0,
            5220603.4
          ],
          [
            629321.0,
            5220601.4
          ],
          [
            629323.0,
            5220599.4
          ],
          [
            629325.0,
            5220597.4
          ],
          [
            629327.0,
            5220597.4
          ],
          [
            629329.0,
            5220595.4
          ],
          [
            629331.0,
            5220593.4
          ],
          [
            629333.0,
            5220593.4
          ],
          [
            629335.0,
            5220591.4
          ],
          [
            629337.0,
            5220589.4
          ],
          [
            629339.0,
            5220587.4
          ],
          [
            629341.0,
            5220587.4
          ],
          [
            629343.0,
            5220585.4
          ],
          [
            629345.0,
            5220583.4
          ],
          [
            629347.0,
            5220581.4
          ],
          [
            629349.0,
            5220581.4
          ],
          [
            629351.0,
            5220579.4
          ],
          [
            629353.0,
            5220577.4
          ],
          [
            629355.0,
            5220575.4
          ],
          [
            629357.0,
            5220575.4
          ],
          [
            629359.0,
            5220573.4
          ],
          [
            629361.0,
            5220571.4
          ],
          [
            629363.0,
            5220569.4
          ],
          [
            629365.0,
            5220569.4
          ],
          [
            629367.0,
            5220567.4
          ],
          [
            629369.0,
            5220565.4
          ],
          [
            629371.0,
            5220565.4
          ],
          [
            629373.0,
            5220563.4
          ],
          [
            629375.0,
            5220561.4
          ],
          [
            629377.0,
            5220559.4
          ],
          [
            629379.0,
            5220559.4
          ],
          [
            629381.0,
            5220557.4
          ],
          [
            629383.0,
            5220555.4
          ],
          [
            629385.0,
            5220553.4
          ],
          [
            629387.0,
            5220553.4
          ],
          [
            629389.0,
            5220551.4
          ],
          [
            629391.0,
            5220549.4
          ],
          [
            629393.0,
            5220547.4
          ],
          [
            629395.0,
            5220547.4
          ],
          [
            629397.0,
            5220545.4
          ],
          [
            629399.0,
            5220543.4
          ],
          [
            629401.0,
            5220543.4
          ],
          [
            629403.0,
            5220541.4
          ],
          [
            629405.0,
            5220539.4
          ],
          [
            629407.0,
            5220539.4
          ],
          [
            629409.0,
            5220537.4
          ],
          [
            629411.0,
            5220535.4
          ],
          [
            629413.0,
            5220535.4
          ],
          [
            629415.0,
            5220533.4
          ],
          [
            629417.0,
            5220531.4
          ],
          [
            629419.0,
            5220531.4
          ],
          [
            629421.0,
            5220529.4
          ],
          [
            629423.0,
            5220527.4
          ],
          [
            629425.0,
            5220525.4
          ],
          [
            629427.0,
            5220523.4
          ],
          [
            629429.0,
            5220521.4
          ],
          [
            629431.0,
            5220519.4
          ],
          [
            629433.0,
            5220517.4
          ],
          [
            629435.0,
            5220515.4
          ],
          [
            629435.0,
            5220513.4
          ],
          [
            629437.0,
            5220511.4
          ],
          [
            629439.0,
            5220509.4
          ],
          [
            629441.0,
            5220507.4
          ],
          [
            629441.0,
            5220505.4
          ],
          [
            629443.0,
            5220503.4
          ],
          [
            629443.0,
            5220501.4
          ],
          [
            629445.0,
            5220499.4
          ],
          [
            629445.0,
            5220497.4
          ],
          [
            629445.0,
            5220495.4
          ],
          [
            629447.0,
            5220493.4
          ],
          [
            629447.0,
            5220491.4
          ],
          [
            629449.0,
            5220489.4
          ],
          [
            629449.0,
            5220487.4
          ],
          [
            629449.0,
            5220485.4
          ],
          [
            629451.0,
            5220483.4
          ],
          [
            629451.0,
            5220481.4
          ],
          [
            629451.0,
            5220479.4
          ],
          [
            629453.0,
            5220477.4
          ],
          [
            629453.0,
            5220475.4
          ],
          [
            629453.0,
            5220473.4
          ],
          [
            629453.0,
            5220471.4
          ],
          [
            629453.0,
            5220469.4
          ],
          [
            629455.0,
            5220467.4
          ],
          [
            629455.0,
            5220465.4
          ],
          [
            629457.0,
            5220463.4
          ],
          [
            629457.0,
            5220461.4
          ],
          [
            629457.0,
            5220459.4
          ],
          [
            629457.0,
            5220457.4
          ],
          [
            629459.0,
            5220455.4
          ],
          [
            629459.0,
            5220453.4
          ],
          [
            629459.0,
            5220451.4
          ],
          [
            629459.0,
            5220449.4
          ],
          [
            629459.0,
            5220447.4
          ],
          [
            629461.0,
            5220445.4
          ],
          [
            629461.0,
            5220443.4
          ],
          [
            629461.0,
            5220441.4
          ],
          [
            629461.0,
            5220439.4
          ],
          [
            629463.0,
            5220437.4
          ],
          [
            629463.0,
            5220435.4
          ],
          [
            629463.0,
            5220433.4
          ],
          [
            629463.0,
            5220431.4
          ],
          [
            629463.0,
            5220429.4
          ],
          [
            629465.0,
            5220427.4
          ],
          [
            629465.0,
            5220425.4
          ],
          [
            629465.0,
            5220423.4
          ],
          [
            629465.0,
            5220421.4
          ],
          [
            629467.0,
            5220419.4
          ],
          [
            629467.0,
            5220417.4
          ],
          [
            629467.0,
            5220415.4
          ],
          [
            629467.0,
            5220413.4
          ],
          [
            629467.0,
            5220411.4
          ],
          [
            629469.0,
            5220409.4
          ],
          [
            629469.0,
            5220407.4
          ],
          [
            629469.0,
            5220405.4
          ],
          [
            629469.0,
            5220403.4
          ],
          [
            629471.0,
            5220401.4
          ],
          [
            629471.0,
            5220399.4
          ],
          [
            629471.0,
            5220397.4
          ],
          [
            629471.0,
            5220395.4
          ],
          [
            629471.0,
            5220393.4
          ],
          [
            629473.0,
            5220391.4
          ],
          [
            629473.0,
            5220389.4
          ],
          [
            629473.0,
            5220387.4
          ],
          [
            629473.0,
            5220385.4
          ],
          [
            629475.0,
            5220383.4
          ],
          [
            629475.0,
            5220381.4
          ],
          [
            629475.0,
            5220379.4
          ],
          [
            629477.0,
            5220377.4
          ],
          [
            629477.0,
            5220375.4
          ],
          [
            629477.0,
            5220373.4
          ],
          [
            629477.0,
            5220371.4
          ],
          [
            629477.0,
            5220369.4
          ],
          [
            629479.0,
            5220367.4
          ],
          [
            629479.0,
            5220365.4
          ],
          [
            629481.0,
            5220363.4
          ],
          [
            629481.0,
            5220361.4
          ],
          [
            629481.0,
            5220359.4
          ],
          [
            629483.0,
            5220357.4
          ],
          [
            629483.0,
            5220355.4
          ],
          [
            629483.0,
            5220353.4
          ],
          [
            629485.0,
            5220351.4
          ],
          [
            629485.0,
            5220349.4
          ],
          [
            629485.0,
            5220347.4
          ],
          [
            629487.0,
            5220345.4
          ],
          [
            629487.0,
            5220343.4
          ],
          [
            629489.0,
            5220341.4
          ],
          [
            629489.0,
            5220339.4
          ],
          [
            629491.0,
            5220337.4
          ],
          [
            629493.0,
            5220335.4
          ],
          [
            629493.0,
            5220333.4
          ],
          [
            629495.0,
            5220331.4
          ],
          [
            629495.0,
            5220329.4
          ],
          [
            629497.0,
            5220327.4
          ],
          [
            629497.0,
            5220325.4
          ],
          [
            629499.0,
            5220323.4
          ],
          [
            629499.0,
            5220321.4
          ],
          [
            629499.0,
            5220319.4
          ],
          [
            629501.0,
            5220317.4
          ],
          [
            629501.0,
            5220315.4
          ],
          [
            629501.0,
            5220313.4
          ],
          [
            629501.0,
            5220311.4
          ],
          [
            629501.0,
            5220309.4
          ],
          [
            629501.0,
            5220307.4
          ],
          [
            629501.0,
            5220305.4
          ],
          [
            629501.0,
            5220303.4
          ],
          [
            629501.0,
            5220301.4
          ],
          [
            629501.0,
            5220299.4
          ],
          [
            629501.0,
            5220297.4
          ],
          [
            629501.0,
            5220295.4
          ],
          [
            629501.0,
            5220293.4
          ],
          [
            629501.0,
            5220291.4
          ],
          [
            629501.0,
            5220289.4
          ],
          [
            629501.0,
            5220287.4
          ],
          [
            629501.0,
            5220285.4
          ],
          [
            629501.0,
            5220283.4
          ],
          [
            629501.0,
            5220281.4
          ],
          [
            629503.0,
            5220279.4
          ],
          [
            629503.0,
            5220277.4
          ],
          [
            629503.0,
            5220275.4
          ],
          [
            629503.0,
            5220273.4
          ],
          [
            629503.0,
            5220271.4
          ],
          [
            629503.0,
            5220269.4
          ],
          [
            629503.0,
            5220267.4
          ],
          [
            629503.0,
            5220265.4
          ],
          [
            629503.0,
            5220263.4
          ],
          [
            629503.0,
            5220261.4
          ],
          [
            629503.0,
            5220259.4
          ],
          [
            629503.0,
            5220257.4
          ],
          [
            629503.0,
            5220255.4
          ],
          [
            629503.0,
            5220253.4
          ],
          [
            629505.0,
            5220251.4
          ]
        ]
      },
      "properties": {
        "length_m": 1962.8,
        "order": [
          "gap-V02-R08",
          "gap-V02-R06",
          "gap-V02-R07",
          "gap-V02-R09",
          "gap-V02-R23"
        ]
      }
    }
  ]
}